{"type":"FeatureCollection","features":[{"type":"Feature","properties":{"nom":"Bafing","rang":4.0,"principal":true},"geometry":{"type":"LineString","coordinates":[[-12.0882,10.5901],[-12.0541,10.5628],[-12.0436,10.5256],[-12.0368,10.5237],[-12.0026,10.5293],[-11.9857,10.5118],[-11.9784,10.5082],[-11.9586,10.5115],[-11.92,10.5309],[-11.8888,10.5376],[-11.8741,10.547],[-11.85,10.5549],[-11.7958,10.5587],[-11.7866,10.5628],[-11.7866,10.5839],[-11.7631,10.587],[-11.748,10.6011],[-11.7388,10.6212],[-11.7525,10.6522],[-11.7707,10.6734],[-11.7735,10.6871],[-11.7559,10.6931],[-11.7518,10.7037],[-11.7457,10.7652],[-11.7405,10.7869],[-11.7274,10.7973],[-11.6745,10.8116],[-11.6714,10.8146],[-11.6705,10.8272],[-11.6358,10.8372],[-11.6305,10.8269],[-11.6197,10.817],[-11.6075,10.8111],[-11.5979,10.8129],[-11.5925,10.8255],[-11.5882,10.8664],[-11.5893,10.8988],[-11.6102,10.9999],[-11.6159,11.0152],[-11.6017,11.0228],[-11.6085,11.0228],[-11.588,11.0289],[-11.5921,11.0524],[-11.577,11.0999],[-11.5743,11.1251],[-11.5665,11.1339],[-11.4926,11.1777],[-11.4872,11.1898],[-11.4844,11.2251],[-11.4804,11.237],[-11.4729,11.2451],[-11.4523,11.2489],[-11.4371,11.2555],[-11.4213,11.2749],[-11.4098,11.2691],[-11.397,11.2786],[-11.3716,11.2692],[-11.3552,11.2691],[-11.3441,11.2791],[-11.3273,11.3103],[-11.3063,11.3261],[-11.2665,11.3852],[-11.2509,11.4002],[-11.2311,11.4125],[-11.1959,11.4245],[-11.1727,11.4469],[-11.1461,11.4603],[-11.1394,11.4674],[-11.1212,11.5087],[-11.0946,11.5156],[-11.0886,11.5445],[-11.0767,11.5705],[-11.0858,11.599],[-11.074,11.6118],[-11.027,11.5851],[-11.0137,11.5628],[-11.0006,11.566],[-10.9865,11.5774],[-10.9779,11.5913],[-10.9716,11.5838],[-10.9648,11.6049],[-10.9127,11.5963],[-10.8791,11.5755],[-10.8743,11.5803],[-10.8754,11.6049],[-10.8479,11.5975],[-10.821,11.6063],[-10.8058,11.6265],[-10.8134,11.6527],[-10.8004,11.6664],[-10.7894,11.6612],[-10.7786,11.6664],[-10.7801,11.6949],[-10.7724,11.7279],[-10.7631,11.7378],[-10.7412,11.7357],[-10.7246,11.7415],[-10.7151,11.7535],[-10.7041,11.8036],[-10.6796,11.8478],[-10.67,11.8582],[-10.6608,11.8544],[-10.654,11.8656],[-10.6517,11.8833],[-10.6557,11.8991],[-10.6348,11.9256],[-10.6222,11.9578],[-10.6144,11.9678],[-10.5963,11.98],[-10.5601,11.9953],[-10.5671,12.0174],[-10.5561,12.0295],[-10.536,12.0389],[-10.5157,12.053],[-10.5179,12.0805],[-10.505,12.0885],[-10.5133,12.1086],[-10.5123,12.1182],[-10.4941,12.1246],[-10.4463,12.1209],[-10.4296,12.1436],[-10.3952,12.1718],[-10.3819,12.1803],[-10.3541,12.1666],[-10.3547,12.181],[-10.3304,12.1905],[-10.3262,12.2],[-10.332,12.2133],[-10.3274,12.2213],[-10.3346,12.2397],[-10.3437,12.3195],[-10.3507,12.322],[-10.3721,12.3175],[-10.3846,12.3225],[-10.3759,12.3331],[-10.3541,12.3448],[-10.3495,12.3629],[-10.3448,12.4103],[-10.3373,12.4199],[-10.3259,12.4265],[-10.276,12.515],[-10.2686,12.5361],[-10.2624,12.5713],[-10.2274,12.6121],[-10.2238,12.6691],[-10.2264,12.6863],[-10.2357,12.6972],[-10.2709,12.7073],[-10.2635,12.7217],[-10.197,12.7762],[-10.2008,12.7851],[-10.2244,12.7939],[-10.2345,12.828],[-10.2451,12.8373],[-10.2897,12.8481],[-10.2948,12.8504],[-10.2994,12.8587],[-10.2978,12.8826],[-10.2851,12.9124],[-10.2862,12.9352],[-10.2765,12.9559],[-10.2801,12.9626],[-10.2994,12.968],[-10.3087,12.9659],[-10.326,12.9546],[-10.3336,12.9543],[-10.3385,12.962],[-10.3479,12.9993],[-10.336,13.0558],[-10.3479,13.071],[-10.3744,13.0779],[-10.3819,13.0847],[-10.3883,13.1009],[-10.3849,13.1083],[-10.3612,13.1131],[-10.3536,13.1181],[-10.3479,13.1362],[-10.3506,13.152],[-10.3567,13.1554],[-10.3684,13.1536],[-10.3819,13.1666],[-10.3819,13.1877],[-10.3921,13.1973],[-10.4198,13.1945],[-10.4429,13.1961],[-10.4591,13.2009],[-10.4717,13.2092],[-10.5082,13.2452],[-10.5227,13.253],[-10.5427,13.256],[-10.5712,13.2451],[-10.6222,13.2622],[-10.6596,13.2567],[-10.7238,13.2244],[-10.7594,13.2212],[-10.7773,13.2266],[-10.7947,13.2375],[-10.8081,13.255],[-10.8134,13.2801],[-10.8068,13.3397],[-10.8004,13.359],[-10.7682,13.3973],[-10.7755,13.4099],[-10.7891,13.4195],[-10.7921,13.4249],[-10.7823,13.4273],[-10.7283,13.4205],[-10.7156,13.4247],[-10.7137,13.4341],[-10.7207,13.4435],[-10.743,13.4528],[-10.7615,13.4785],[-10.7655,13.4893],[-10.7638,13.503],[-10.7529,13.5294],[-10.7519,13.5446],[-10.7629,13.5669],[-10.8035,13.5825],[-10.8208,13.5986],[-10.8172,13.6114],[-10.8225,13.6322],[-10.8346,13.6515],[-10.8512,13.66],[-10.8581,13.6686],[-10.8754,13.7221],[-10.8651,13.7542],[-10.8494,13.7877],[-10.8511,13.8139]]}},{"type":"Feature","properties":{"nom":"Sénégal","rang":4.0,"principal":true},"geometry":{"type":"MultiLineString","coordinates":[[[-13.0902,15.4973],[-13.0956,15.5149],[-13.0901,15.5612],[-13.0925,15.5753],[-13.0997,15.5871],[-13.1103,15.5966],[-13.1229,15.6036],[-13.1532,15.6126],[-13.1789,15.6284],[-13.2385,15.6236],[-13.2494,15.6568],[-13.2446,15.6739],[-13.2295,15.6968],[-13.2289,15.7115],[-13.2513,15.7429],[-13.2817,15.763],[-13.2867,15.7698],[-13.2881,15.7783],[-13.2803,15.8037],[-13.2806,15.8231],[-13.2854,15.8401],[-13.2943,15.8555],[-13.3166,15.8819],[-13.3188,15.8886],[-13.3144,15.9224],[-13.3165,15.9306],[-13.3564,15.9658],[-13.3704,15.9857],[-13.3843,16.0194],[-13.3892,16.0523],[-13.3952,16.0594],[-13.4227,16.0774],[-13.4407,16.102],[-13.4558,16.1024],[-13.4922,16.0887],[-13.5023,16.0953],[-13.5004,16.1109],[-13.4838,16.1412],[-13.4855,16.1552],[-13.4979,16.1562],[-13.5171,16.1492],[-13.5697,16.1384],[-13.6076,16.1235],[-13.6357,16.1219],[-13.6695,16.106],[-13.6766,16.1071],[-13.6967,16.1191],[-13.7051,16.129],[-13.7202,16.1358],[-13.7235,16.1463],[-13.7112,16.1891],[-13.7301,16.1898],[-13.7474,16.1826],[-13.7726,16.1507],[-13.7956,16.1314],[-13.8198,16.1195],[-13.8364,16.1208],[-13.8455,16.1262],[-13.8597,16.1424],[-13.8729,16.179],[-13.8844,16.1939],[-13.9084,16.2102],[-13.9477,16.2213],[-13.9648,16.2303],[-13.9685,16.2462],[-13.9637,16.2726],[-13.9799,16.3006],[-13.9718,16.3244],[-13.9725,16.3314],[-13.9785,16.3382],[-14.0162,16.356],[-14.0405,16.3824],[-14.0736,16.4008],[-14.133,16.4529],[-14.167,16.4911],[-14.1978,16.5136],[-14.2148,16.5352],[-14.2229,16.5398],[-14.2583,16.5433],[-14.2687,16.548],[-14.2739,16.5558],[-14.2786,16.5815],[-14.2883,16.5859],[-14.3267,16.5826],[-14.336,16.5867],[-14.3377,16.5943],[-14.332,16.6243],[-14.3362,16.6318],[-14.4073,16.661],[-14.4269,16.6598],[-14.4726,16.6367],[-14.4937,16.6327],[-14.5558,16.6407],[-14.5976,16.6293],[-14.6088,16.629],[-14.6566,16.6461],[-14.7119,16.636],[-14.8826,16.6478],[-14.9132,16.6408],[-14.9315,16.6436],[-14.9505,16.6725],[-14.9635,16.686],[-14.975,16.6916],[-15.0076,16.6761],[-15.014,16.6668],[-15.0194,16.6463],[-15.0243,16.6402],[-15.0376,16.6328],[-15.0522,16.6344],[-15.0796,16.6651],[-15.094,16.6694],[-15.1083,16.6656],[-15.1169,16.6558],[-15.1189,16.6428],[-15.1129,16.6295],[-15.0968,16.6141],[-15.0937,16.6004],[-15.1046,16.5905],[-15.1259,16.583],[-15.2331,16.5665],[-15.2492,16.566],[-15.2966,16.5732],[-15.3287,16.5721],[-15.3443,16.5689],[-15.3864,16.552],[-15.4152,16.5482],[-15.4275,16.5534],[-15.4401,16.5728],[-15.4495,16.5804],[-15.4648,16.5817],[-15.4791,16.5754],[-15.4916,16.5648],[-15.5158,16.5311],[-15.5255,16.5223],[-15.5373,16.5167],[-15.5521,16.5153],[-15.595,16.5239],[-15.6103,16.5215],[-15.6443,16.4948],[-15.6728,16.4816],[-15.6881,16.4808],[-15.7359,16.4979],[-15.7684,16.4997],[-15.8136,16.514],[-15.8627,16.5104],[-15.8976,16.5186],[-15.9117,16.5171],[-15.9587,16.4986],[-15.9862,16.506],[-16.0079,16.4964],[-16.0318,16.4931],[-16.0544,16.4957],[-16.0747,16.5051],[-16.1111,16.5472],[-16.1329,16.555],[-16.1564,16.5477],[-16.196,16.5229],[-16.2186,16.5217],[-16.2517,16.5278],[-16.2744,16.5234],[-16.2958,16.5108],[-16.3142,16.4935],[-16.328,16.4747],[-16.3356,16.456],[-16.3408,16.4161],[-16.3861,16.2351],[-16.3923,16.2249],[-16.4079,16.215],[-16.4449,16.2065],[-16.4593,16.1944],[-16.4666,16.1742],[-16.4711,16.1066],[-16.5082,16.0106],[-16.5105,15.9017],[-16.5204,15.8465],[-16.5423,15.8057]],[[-10.8511,13.8139],[-10.8922,13.8245],[-10.9152,13.8196],[-10.946,13.7969],[-10.9648,13.7904],[-10.9857,13.7972],[-10.9938,13.8364],[-11.0092,13.8456],[-11.031,13.8482],[-11.0456,13.856],[-11.0548,13.869],[-11.0604,13.8872],[-11.0536,13.9002],[-11.0666,13.9207],[-11.0721,13.943],[-11.0723,13.9493],[-11.0666,13.9487],[-11.0709,13.9931],[-11.0781,14.0159],[-11.0877,14.0306],[-11.1083,14.0389],[-11.1483,14.0368],[-11.1997,14.071],[-11.2194,14.0766],[-11.2419,14.0784],[-11.2549,14.0884],[-11.2512,14.1109],[-11.237,14.1342],[-11.218,14.1467],[-11.218,14.1541],[-11.2424,14.1586],[-11.2471,14.1717],[-11.2385,14.2053],[-11.2405,14.2269],[-11.264,14.305],[-11.2838,14.3391],[-11.3683,14.3794],[-11.3757,14.421],[-11.4064,14.4558],[-11.4274,14.4587],[-11.4919,14.4831],[-11.5616,14.4936],[-11.5777,14.4998],[-11.6083,14.5461],[-11.6221,14.5582],[-11.6641,14.5685],[-11.6755,14.5854],[-11.6881,14.5908],[-11.8942,14.6191],[-12.0609,14.7295],[-12.0821,14.7402],[-12.1243,14.7768],[-12.1395,14.7847],[-12.1608,14.7813],[-12.2038,14.7663],[-12.2255,14.7636],[-12.2474,14.7672],[-12.2648,14.7751],[-12.3202,14.8174],[-12.383,14.8462],[-12.4007,14.8605],[-12.4344,14.8996],[-12.4482,14.9076],[-12.4488,14.9184],[-12.4722,14.9982],[-12.4855,15.0174],[-12.4962,15.0232],[-12.5196,15.0284],[-12.6028,15.0789],[-12.6236,15.1024],[-12.6329,15.1056],[-12.6909,15.0926],[-12.7177,15.1036],[-12.7552,15.1388],[-12.7803,15.1466],[-12.7853,15.1662],[-12.7801,15.1998],[-12.7879,15.2144],[-12.8071,15.2232],[-12.839,15.2189],[-12.8574,15.2222],[-12.889,15.251],[-12.895,15.2635],[-12.8849,15.2711],[-12.8507,15.2675],[-12.8341,15.2702],[-12.8287,15.284],[-12.8352,15.3004],[-12.8478,15.3135],[-12.9075,15.3529],[-12.9196,15.3655],[-12.9278,15.3809],[-12.9316,15.3972],[-12.9337,15.4385],[-12.9515,15.4656],[-12.9556,15.4932],[-12.965,15.5093],[-12.9808,15.5164],[-12.9965,15.5144],[-13.0395,15.487],[-13.0538,15.4853],[-13.0853,15.4932],[-13.0825,15.4915]]]}},{"type":"Feature","properties":{"nom":"Mouhoun","rang":5.0,"principal":false},"geometry":{"type":"LineString","coordinates":[[-5.2632,11.1388],[-5.229,11.1364],[-5.1936,11.1245],[-5.1587,11.1197],[-5.126,11.1388],[-5.1123,11.1729],[-5.0946,11.1844],[-5.0884,11.1984],[-5.0645,11.2338],[-5.0184,11.2608],[-4.9604,11.2744],[-4.9473,11.2617],[-4.9329,11.2729],[-4.8987,11.2768],[-4.879,11.2822],[-4.8582,11.2925],[-4.8402,11.3044],[-4.8245,11.3206],[-4.8106,11.3436],[-4.7921,11.3403],[-4.772,11.3489],[-4.7558,11.3626],[-4.7436,11.3861],[-4.7301,11.3985],[-4.6598,11.4473],[-4.6492,11.4409],[-4.6383,11.4177],[-4.6295,11.4125],[-4.607,11.408],[-4.5747,11.3863],[-4.5648,11.3893],[-4.5438,11.4063],[-4.5,11.4197]]}},{"type":"Feature","properties":{"nom":"Komoé","rang":7.0,"principal":false},"geometry":{"type":"LineString","coordinates":[[-5.4072,10.6931],[-5.4207,10.672],[-5.4276,10.6658],[-5.456,10.6542],[-5.4612,10.6447],[-5.4711,10.6358],[-5.478,10.6197],[-5.4792,10.6044],[-5.4717,10.5975],[-5.4687,10.588],[-5.4822,10.5355],[-5.5096,10.4911],[-5.5176,10.4401],[-5.5233,10.4256],[-5.5057,10.4157],[-5.4881,10.3931],[-5.4759,10.3679],[-5.4748,10.3505],[-5.4384,10.3402],[-5.4276,10.317],[-5.4168,10.3077],[-5.3863,10.2967],[-5.3662,10.2959],[-5.3539,10.3084],[-5.3392,10.3024],[-5.3162,10.3054],[-5.2973,10.3232],[-5.2342,10.3159],[-5.2181,10.3201],[-5.169,10.2915],[-5.1601,10.2925],[-5.1527,10.3058],[-5.1362,10.3045],[-5.1198,10.2938],[-5.1123,10.2788],[-5.1123,10.2239],[-5.1188,10.2127],[-5.1177,10.2083],[-5.0985,10.2094],[-5.085,10.2276],[-5.0822,10.2071],[-5.0906,10.1889],[-5.0913,10.1781],[-5.0645,10.1792],[-5.0713,10.1612],[-5.0653,10.151],[-5.04,10.1345],[-5.0383,10.1267],[-5.0616,10.1186],[-5.0707,10.1103],[-5.0434,10.1035],[-5.0571,10.0973],[-5.0489,10.0855],[-5.0378,10.0839],[-5.0162,10.0973],[-5.0112,10.0792],[-5.0004,10.0696],[-4.9752,10.0557],[-4.9639,10.0405],[-4.957,10.0222],[-4.9608,10.0087],[-4.982,10.0079],[-4.9663,9.9833],[-4.9535,9.9536],[-4.9678,9.9125],[-4.9666,9.9012],[-4.9373,9.8741],[-4.9286,9.8712],[-4.9176,9.8867],[-4.91,9.8912],[-4.8986,9.8891],[-4.8906,9.8797],[-4.859,9.8758],[-4.8391,9.8697],[-4.8248,9.8571],[-4.8181,9.8366],[-4.7991,9.8427],[-4.7908,9.8277],[-4.7832,9.8]]}},{"type":"Feature","properties":{"nom":"Gambia","rang":7.0,"principal":false},"geometry":{"type":"MultiLineString","coordinates":[[[-13.6232,13.2429],[-13.6378,13.2409],[-13.6463,13.2442],[-13.6503,13.2526],[-13.6512,13.2659],[-13.6575,13.2788],[-13.6857,13.2864],[-13.6921,13.2938],[-13.6853,13.3212],[-13.6874,13.3285],[-13.6963,13.3312],[-13.7071,13.3498],[-13.6982,13.3543],[-13.6929,13.3634],[-13.6965,13.379],[-13.7074,13.3792],[-13.7331,13.372],[-13.7617,13.3741],[-13.7672,13.3931],[-13.764,13.4189],[-13.7262,13.4683],[-13.7617,13.4809],[-13.7746,13.4819],[-13.7972,13.4703],[-13.8069,13.4693],[-13.815,13.4819],[-13.7945,13.5229],[-13.799,13.5324],[-13.8212,13.5446],[-13.8404,13.5232],[-13.851,13.5174],[-13.8696,13.5167],[-13.8829,13.4978],[-13.9038,13.4819],[-13.8918,13.4637],[-13.8856,13.4408],[-13.8912,13.4213],[-13.9146,13.413],[-13.9263,13.4254],[-13.9397,13.4502],[-13.9559,13.4694],[-13.9856,13.4609],[-14.0118,13.4586],[-14.0205,13.4546],[-14.0228,13.4445],[-14.0187,13.4173],[-14.0205,13.4068],[-14.0429,13.3876],[-14.0581,13.4003],[-14.0751,13.4478],[-14.1152,13.4261],[-14.1252,13.4088],[-14.1161,13.3863],[-14.1508,13.3795],[-14.1551,13.397],[-14.153,13.4152],[-14.155,13.4258],[-14.1713,13.4205],[-14.1825,13.3984],[-14.2054,13.372],[-14.1942,13.3648],[-14.2158,13.3471],[-14.2123,13.3311],[-14.2829,13.3585],[-14.2948,13.3559],[-14.3034,13.3397],[-14.3241,13.3309],[-14.349,13.3284],[-14.3705,13.3311],[-14.3857,13.3386],[-14.4286,13.3829],[-14.4439,13.4039],[-14.4567,13.4121],[-14.4685,13.4099],[-14.4804,13.3931],[-14.4947,13.4024],[-14.5245,13.4649],[-14.5449,13.4793],[-14.582,13.4962],[-14.5902,13.5167],[-14.5801,13.5481],[-14.5828,13.5576],[-14.5941,13.5609],[-14.6272,13.5446],[-14.6297,13.5325],[-14.6306,13.4683],[-14.6508,13.4455],[-14.6807,13.4685],[-14.713,13.5068],[-14.7405,13.5303],[-14.7705,13.5225],[-14.7821,13.5229],[-14.7991,13.5467],[-14.8382,13.5703],[-14.8702,13.5508],[-14.8913,13.5485],[-14.9599,13.5832],[-14.9798,13.5893],[-14.9921,13.601],[-14.9869,13.6265],[-14.9742,13.6386],[-14.9086,13.6719],[-14.9137,13.6817],[-14.9288,13.6979],[-14.9379,13.7017],[-14.9732,13.701],[-15.0148,13.7084],[-15.0452,13.6948],[-15.1086,13.6981],[-15.1308,13.6948],[-15.1965,13.6628],[-15.2327,13.6543],[-15.2742,13.6675],[-15.297,13.6911],[-15.309,13.6948],[-15.3192,13.692],[-15.3562,13.6663],[-15.3632,13.6487],[-15.3711,13.6122],[-15.3727,13.566],[-15.361,13.5379],[-15.3004,13.4949]],[[-12.3148,11.433],[-12.3075,11.4424],[-12.3074,11.4473],[-12.2955,11.4351],[-12.2937,11.4261],[-12.2773,11.4325],[-12.2631,11.4307],[-12.2384,11.4125],[-12.1975,11.4473],[-12.1534,11.4739],[-12.1293,11.4773],[-12.1002,11.4869],[-12.0729,11.5021],[-12.0541,11.5224],[-12.042,11.5538],[-12.0026,11.5938],[-11.9877,11.6026],[-11.9636,11.6253],[-11.9585,11.6354],[-11.9565,11.6529],[-11.9507,11.6613],[-11.9306,11.6732],[-11.9116,11.6705],[-11.8923,11.6739],[-11.8819,11.6839],[-11.8896,11.7011],[-11.8653,11.7244],[-11.8491,11.7318],[-11.849,11.7406],[-11.8548,11.7552],[-11.8374,11.7688],[-11.8353,11.7984],[-11.8275,11.8104],[-11.8338,11.825],[-11.8351,11.8453],[-11.8301,11.8634],[-11.8176,11.8712],[-11.7729,11.9265],[-11.7633,11.9342],[-11.7585,11.9482],[-11.7619,11.9615],[-11.7893,11.9713],[-11.8029,11.9925],[-11.8139,12.0028],[-11.8318,12.0081],[-11.8654,11.9953],[-11.8819,12.0008],[-11.9162,12.0241],[-11.9337,12.0295],[-11.9527,12.041],[-12.0029,12.0938],[-12.0132,12.1083],[-12.0194,12.1319],[-12.0286,12.1384],[-12.0541,12.1462],[-12.0723,12.1868],[-12.082,12.194],[-12.0652,12.2081],[-12.0627,12.2147],[-12.0683,12.2213],[-12.0683,12.2281],[-12.0541,12.2418],[-12.0758,12.2415],[-12.0951,12.2355],[-12.089,12.2569],[-12.0957,12.274],[-12.1224,12.3038],[-12.1402,12.3062],[-12.1436,12.3214],[-12.1619,12.3528],[-12.1641,12.3789],[-12.1837,12.376],[-12.2037,12.3885],[-12.2192,12.409],[-12.2255,12.4305],[-12.2484,12.4405],[-12.2528,12.451],[-12.2506,12.462],[-12.2384,12.4888],[-12.2276,12.5362],[-12.2146,12.5546],[-12.1944,12.5468],[-12.1381,12.5731],[-12.1224,12.5838],[-12.1267,12.5895],[-12.1264,12.5953],[-12.1156,12.6055],[-12.1316,12.6157],[-12.1264,12.6336],[-12.1292,12.6464],[-12.1166,12.6502],[-12.1094,12.6464],[-12.1019,12.6663],[-12.1297,12.6796],[-12.1387,12.6915],[-12.1429,12.7079],[-12.1621,12.7008],[-12.1838,12.7011],[-12.1702,12.6806],[-12.182,12.6832],[-12.1937,12.6977],[-12.2133,12.7039],[-12.2105,12.7097],[-12.1975,12.7154],[-12.192,12.7272],[-12.1905,12.7364],[-12.1944,12.7454],[-12.2018,12.7479],[-12.2159,12.7331],[-12.2255,12.729],[-12.2352,12.7323],[-12.2374,12.7391],[-12.2344,12.7459],[-12.2185,12.7515],[-12.2178,12.7578],[-12.2255,12.77],[-12.2494,12.7867],[-12.2626,12.8115],[-12.2733,12.8172],[-12.2836,12.8062],[-12.3436,12.8336],[-12.3558,12.8451],[-12.3762,12.8314],[-12.4579,12.8168],[-12.4728,12.8066],[-12.4787,12.7867],[-12.481,12.7529],[-12.4871,12.741],[-12.4991,12.729],[-12.5077,12.7112],[-12.5582,12.7056],[-12.6085,12.7117],[-12.6164,12.729],[-12.6412,12.7475],[-12.6754,12.735],[-12.7107,12.7125],[-12.7394,12.7011],[-12.758,12.706],[-12.7921,12.7248],[-12.8237,12.7359],[-12.8444,12.7597],[-12.8623,12.7563],[-12.8629,12.7823],[-12.8738,12.7918],[-12.8911,12.7901],[-12.9417,12.77],[-12.954,12.7925],[-12.9652,12.7973],[-12.9591,12.7973],[-12.9862,12.806],[-12.9919,12.8123],[-12.9796,12.8246],[-12.9945,12.8299],[-13.0123,12.8282],[-13.0273,12.8205],[-13.0402,12.7972],[-13.0559,12.7935],[-13.0888,12.7973],[-13.1019,12.806],[-13.1062,12.8218],[-13.1387,12.8273],[-13.1476,12.8352],[-13.1577,12.8649],[-13.1742,12.8892],[-13.1761,12.9013],[-13.1608,12.9065],[-13.1533,12.9148],[-13.1573,12.9332],[-13.1714,12.9617],[-13.2129,12.981],[-13.2235,13.0002],[-13.2436,13.0126],[-13.2458,13.0294],[-13.2895,13.0169],[-13.3092,13.0218],[-13.3284,13.0437],[-13.333,13.0692],[-13.3312,13.0995],[-13.3348,13.1241],[-13.3557,13.1331],[-13.3557,13.1393],[-13.3148,13.1536],[-13.3275,13.1645],[-13.3213,13.191],[-13.3315,13.2145],[-13.3284,13.2286],[-13.3467,13.2399],[-13.3526,13.2495],[-13.3662,13.2488],[-13.3768,13.2764],[-13.3776,13.2918],[-13.3557,13.3249],[-13.3646,13.341],[-13.3738,13.3423],[-13.3967,13.3311],[-13.4352,13.3385],[-13.4761,13.3385],[-13.4853,13.333],[-13.4938,13.3093],[-13.5065,13.3044],[-13.4999,13.3258],[-13.5126,13.3299],[-13.5475,13.3174],[-13.5581,13.2994],[-13.568,13.2976],[-13.5797,13.3009],[-13.5856,13.3082],[-13.5863,13.317],[-13.5823,13.3249],[-13.5995,13.3133],[-13.6001,13.2598],[-13.6232,13.2491]]]}},{"type":"Feature","properties":{"nom":"Baoulé","rang":7.0,"principal":true},"geometry":{"type":"MultiLineString","coordinates":[[[-7.106,12.0084],[-7.0938,12.0266],[-7.1151,12.0429],[-7.1457,12.0584],[-7.1612,12.0742],[-7.1538,12.0848],[-7.106,12.0909],[-7.0994,12.1107],[-7.1056,12.1288],[-7.117,12.1347],[-7.1265,12.1182],[-7.1378,12.132],[-7.1231,12.1485],[-7.0823,12.1766],[-7.0759,12.1947],[-7.0852,12.2069],[-7.118,12.2241],[-7.1202,12.2318],[-7.1182,12.2405],[-7.106,12.256],[-7.1045,12.284],[-7.1276,12.311],[-7.1339,12.3343],[-7.1339,12.4472],[-7.1092,12.4793],[-7.106,12.4922],[-7.0954,12.5009],[-7.0489,12.5043],[-7.0383,12.5192],[-7.0343,12.5436],[-7.0415,12.5537],[-7.0718,12.5776],[-7.0784,12.5936],[-7.0745,12.6038],[-7.0445,12.6192],[-7.0291,12.5907],[-7.001,12.5742],[-6.9664,12.5664],[-6.9181,12.5626],[-6.8985,12.5573],[-6.8809,12.5496],[-6.8669,12.5269],[-6.8516,12.5225],[-6.8336,12.5208],[-6.8186,12.5155],[-6.7799,12.5285],[-6.7674,12.5297],[-6.752,12.5275],[-6.719,12.5155],[-6.6992,12.5215],[-6.6706,12.5491],[-6.6547,12.5571],[-6.6392,12.5551],[-6.6163,12.546],[-6.6029,12.5537],[-6.5981,12.5665],[-6.5968,12.5931],[-6.5587,12.6109],[-6.5396,12.6653],[-6.5176,12.6738]],[[-7.5669,9.8],[-7.5511,9.837],[-7.5504,9.8562],[-7.574,9.8697],[-7.5728,9.8818],[-7.5584,9.9055],[-7.5673,9.9361],[-7.5864,9.9669],[-7.5776,9.9798],[-7.5653,9.9874],[-7.5751,9.9998],[-7.5727,10.0079],[-7.5771,10.0192],[-7.5789,10.0591],[-7.5841,10.0686],[-7.5997,10.0803],[-7.5933,10.0899],[-7.6161,10.1118],[-7.6142,10.1422],[-7.6036,10.1721],[-7.6,10.1929],[-7.6063,10.1854],[-7.6099,10.1988],[-7.6063,10.2133],[-7.6195,10.2117],[-7.6294,10.2141],[-7.6348,10.2215],[-7.6341,10.2344],[-7.641,10.2344],[-7.641,10.2276],[-7.6478,10.2276],[-7.6546,10.2481],[-7.6609,10.2481],[-7.6711,10.2413],[-7.6744,10.2535],[-7.6683,10.2891],[-7.6956,10.2754],[-7.7161,10.2959],[-7.7395,10.2933],[-7.7502,10.2959],[-7.7781,10.33],[-7.758,10.3343],[-7.7359,10.3473],[-7.7246,10.3638],[-7.7366,10.3785],[-7.723,10.3846],[-7.723,10.3915],[-7.7341,10.3948],[-7.7375,10.4031],[-7.7298,10.4256],[-7.7489,10.4322],[-7.7552,10.4399],[-7.7629,10.4589],[-7.786,10.4601],[-7.7912,10.4635],[-7.785,10.5013],[-7.791,10.5107],[-7.8057,10.52],[-7.8123,10.5293],[-7.8037,10.541],[-7.8379,10.5892],[-7.8328,10.6112],[-7.824,10.6136],[-7.8048,10.6038],[-7.7962,10.6112],[-7.793,10.6202],[-7.7949,10.6279],[-7.8017,10.631],[-7.8033,10.6353],[-7.7882,10.6621],[-7.7706,10.6669],[-7.7502,10.6658],[-7.7502,10.6727],[-7.7681,10.6816],[-7.7681,10.6961],[-7.7502,10.7273],[-7.7635,10.7412],[-7.7606,10.7567],[-7.7491,10.7626],[-7.7366,10.7477],[-7.7093,10.7683],[-7.7054,10.7484],[-7.6952,10.7507],[-7.6587,10.8015],[-7.651,10.8179],[-7.6478,10.8341],[-7.6267,10.8326],[-7.6106,10.8369],[-7.6,10.8509],[-7.6029,10.8697],[-7.6174,10.8801],[-7.641,10.888],[-7.6375,10.9327],[-7.6539,10.9359],[-7.6643,10.9445],[-7.6907,10.9918],[-7.6873,10.9984],[-7.6717,11.001],[-7.6691,11.0046],[-7.6683,11.0289],[-7.7025,11.0358],[-7.6868,11.046],[-7.6683,11.0494],[-7.6853,11.0826],[-7.6956,11.0904],[-7.6716,11.1143],[-7.6654,11.1382],[-7.6582,11.1473],[-7.641,11.1592],[-7.6649,11.1762],[-7.6683,11.1829],[-7.6655,11.1951],[-7.6478,11.2003],[-7.6444,11.2506],[-7.6341,11.2617],[-7.6341,11.2691],[-7.6541,11.2697],[-7.6683,11.2759],[-7.6204,11.295],[-7.6131,11.3064],[-7.6103,11.3294],[-7.6025,11.3339],[-7.5727,11.317],[-7.5688,11.3045],[-7.5643,11.3005],[-7.5548,11.3064],[-7.5349,11.3272],[-7.5268,11.3422],[-7.5254,11.3628],[-7.5101,11.3715],[-7.4931,11.3644],[-7.4868,11.392],[-7.4691,11.4063],[-7.4593,11.4067],[-7.4134,11.3895],[-7.3997,11.3902],[-7.387,11.4118],[-7.3709,11.4113],[-7.3399,11.3989],[-7.3214,11.4119],[-7.3155,11.4223],[-7.3182,11.433],[-7.3253,11.4346],[-7.3433,11.4244],[-7.353,11.4261],[-7.3581,11.4345],[-7.3599,11.4678],[-7.3804,11.5267],[-7.3716,11.5356],[-7.3616,11.5318],[-7.3599,11.5258],[-7.3546,11.5224],[-7.331,11.5246],[-7.3177,11.5468],[-7.3021,11.5581],[-7.2915,11.5714],[-7.2984,11.5913],[-7.333,11.5689],[-7.3519,11.566],[-7.3667,11.577],[-7.3712,11.5885],[-7.3709,11.5984],[-7.3533,11.6267],[-7.3166,11.6494],[-7.3039,11.6542],[-7.2902,11.6531],[-7.2562,11.6408],[-7.2451,11.6423],[-7.2349,11.6525],[-7.2226,11.6732],[-7.2561,11.674],[-7.271,11.6779],[-7.2847,11.6868],[-7.2698,11.7072],[-7.2329,11.7191],[-7.1971,11.7416],[-7.1871,11.7437],[-7.1749,11.7415],[-7.1579,11.7215],[-7.1461,11.7124],[-7.1407,11.7179],[-7.1475,11.7831],[-7.136,11.7969],[-7.1348,11.8089],[-7.1464,11.8252],[-7.1594,11.8243],[-7.1817,11.8166],[-7.1942,11.8267],[-7.1773,11.8694],[-7.1538,11.8961],[-7.1538,11.9401],[-7.1467,11.9553],[-7.1287,11.9625],[-7.1202,11.9749],[-7.1107,11.9727],[-7.1099,12.002],[-7.106,12.0158]]]}},{"type":"Feature","properties":{"nom":"Gêba","rang":7.0,"principal":false},"geometry":{"type":"LineString","coordinates":[[-13.2082,11.057],[-13.2301,11.0986],[-13.2459,11.1424],[-13.2644,11.331],[-13.2642,11.3511],[-13.2554,11.3891],[-13.2557,11.4082],[-13.2773,11.4634],[-13.2798,11.4767],[-13.266,11.5256],[-13.2642,11.5451],[-13.2677,11.5633],[-13.2799,11.5766],[-13.28,11.5895],[-13.2671,11.636],[-13.2523,11.6409],[-13.248,11.6541],[-13.2523,11.6913],[-13.2494,11.7042],[-13.2292,11.7371],[-13.2158,11.7733],[-13.2068,11.7827],[-13.1752,11.7912],[-13.1658,11.797],[-13.158,11.8091],[-13.1588,11.8197],[-13.1753,11.8378],[-13.1793,11.8563],[-13.1527,11.8919],[-13.203,11.9273],[-13.2274,11.9204],[-13.2357,11.9244],[-13.2381,11.9492],[-13.236,11.9814],[-13.2438,11.991],[-13.2526,11.9959],[-13.2715,11.9957],[-13.2839,12.0035],[-13.2788,12.0167],[-13.2626,12.0267],[-13.2751,12.0484],[-13.2731,12.0767],[-13.2768,12.0885],[-13.2902,12.0963],[-13.3021,12.0953],[-13.296,12.0665],[-13.3076,12.0652],[-13.3181,12.0712],[-13.3344,12.0908],[-13.3418,12.1049],[-13.3444,12.1201],[-13.3323,12.1704],[-13.3335,12.1859],[-13.3459,12.2169],[-13.3551,12.2274],[-13.3797,12.2433],[-13.3879,12.256],[-13.3905,12.2713],[-13.3779,12.2785],[-13.3712,12.2879],[-13.3776,12.3014],[-13.398,12.3109],[-13.4213,12.3089],[-13.4447,12.2774],[-13.4557,12.2814],[-13.4846,12.3098],[-13.4866,12.3006],[-13.4772,12.2722],[-13.5109,12.28],[-13.5275,12.291],[-13.5333,12.2899],[-13.538,12.2803],[-13.5712,12.2811],[-13.5936,12.2639],[-13.655,12.2347],[-13.667,12.2321],[-13.6684,12.2404],[-13.6957,12.2932],[-13.7125,12.2676],[-13.7414,12.2571],[-13.8091,12.2563],[-13.7963,12.2789],[-13.8132,12.2838],[-13.8406,12.2774],[-13.8838,12.2466],[-13.9445,12.2188],[-13.9664,12.1944],[-13.969,12.1627],[-13.9979,12.1103],[-14.0161,12.0554],[-14.0229,12.051],[-14.0426,12.0505],[-14.0527,12.0462],[-14.0555,12.0357],[-14.0541,11.9923],[-14.058,11.9766],[-14.0959,11.9248],[-14.1155,11.9137],[-14.1344,11.9136],[-14.1898,11.9318],[-14.1987,11.9317],[-14.213,11.9282],[-14.2566,11.9054],[-14.2714,11.9033],[-14.2843,11.9085],[-14.2963,11.9304],[-14.3145,11.9284],[-14.3292,11.9173],[-14.3373,11.9024],[-14.3353,11.8892],[-14.3238,11.8823],[-14.2967,11.8785],[-14.2893,11.8704],[-14.2895,11.8575],[-14.3159,11.8425],[-14.3314,11.8221],[-14.3063,11.816],[-14.2897,11.7964],[-14.2865,11.7665],[-14.2951,11.7357],[-14.3112,11.7061],[-14.3306,11.68],[-14.3706,11.639],[-14.387,11.6284],[-14.4045,11.623],[-14.4296,11.6238],[-14.5072,11.6415],[-14.53,11.6429],[-14.5758,11.6383],[-14.6355,11.6203],[-14.6569,11.6341],[-14.6735,11.6351],[-14.6835,11.6317],[-14.7101,11.605],[-14.7341,11.5975],[-14.7616,11.6089],[-14.7867,11.6302],[-14.8032,11.6527],[-14.808,11.6805],[-14.8124,11.6895],[-14.8299,11.6986],[-14.8616,11.6953],[-14.8631,11.7006],[-14.8378,11.7298],[-14.8342,11.7379],[-14.8381,11.742],[-14.8636,11.7532],[-14.8778,11.7486],[-14.8949,11.7847],[-14.904,11.7888],[-14.9146,11.7879],[-14.9213,11.7826],[-14.9254,11.7694]]}},{"type":"Feature","properties":{"nom":"Niger","rang":3.0,"principal":false},"geometry":{"type":"MultiLineString","coordinates":[[[-4.5,14.9471],[-4.5401,14.9319],[-4.5972,14.9222],[-4.613,14.9116],[-4.6265,14.8875],[-4.6273,14.8612],[-4.6055,14.8445],[-4.6111,14.8055],[-4.6606,14.7772],[-4.6833,14.739],[-4.6907,14.6883],[-4.6944,14.6223],[-4.6722,14.6334],[-4.6719,14.5669],[-4.7008,14.5054],[-4.7405,14.4481],[-4.7722,14.3945],[-4.8057,14.3896],[-4.8245,14.3659],[-4.85,14.3001],[-4.8884,14.2604],[-4.9,14.2445],[-4.9141,14.1904],[-4.9222,14.1722]],[[-9.3818,11.003],[-9.3859,11.0439],[-9.3812,11.0636],[-9.3678,11.0773],[-9.349,11.0811],[-9.3255,11.0792],[-9.2858,11.0699],[-9.2725,11.0629],[-9.2508,11.0637],[-9.2301,11.0685],[-9.1919,11.1022],[-9.1751,11.1337],[-9.1634,11.1484],[-9.118,11.1725],[-9.1046,11.1829],[-9.0957,11.1993],[-9.0938,11.2191],[-9.1003,11.2365],[-9.1163,11.2456],[-9.1177,11.2509],[-9.1326,11.2666],[-9.1346,11.2838],[-9.1294,11.3232],[-9.1343,11.3402],[-9.1525,11.3705],[-9.157,11.3874],[-9.1524,11.409],[-9.1389,11.4226],[-9.1197,11.4291],[-9.0985,11.4295],[-9.0184,11.4187],[-8.9863,11.4186],[-8.9293,11.4414],[-8.8982,11.4473],[-8.8868,11.4558],[-8.8713,11.4934],[-8.8638,11.5019],[-8.8113,11.5267],[-8.7986,11.536],[-8.7672,11.6101],[-8.7468,11.6229],[-8.7128,11.6779],[-8.6331,11.725],[-8.5594,11.8013],[-8.5515,11.8057],[-8.5172,11.8092],[-8.4949,11.8161],[-8.4653,11.8418],[-8.4593,11.8511],[-8.4551,11.8719],[-8.4432,11.8903],[-8.4114,11.9213],[-8.369,11.9776],[-8.3411,12.0031],[-8.3358,12.023],[-8.3447,12.0744],[-8.3348,12.0941],[-8.3046,12.1251],[-8.2545,12.1508],[-8.1947,12.1989],[-8.1707,12.2088],[-8.1607,12.2238],[-8.1483,12.2564],[-8.1214,12.2923],[-8.1204,12.3113],[-8.13,12.3397],[-8.13,12.3496],[-8.111,12.4176],[-8.1009,12.4346],[-8.0726,12.4619],[-8.0667,12.4795],[-8.0694,12.5064],[-8.0672,12.5157],[-8.0426,12.5515],[-8.0388,12.5696],[-8.0379,12.6058],[-8.0281,12.6217],[-8.0107,12.6311],[-7.9529,12.6304],[-7.9338,12.6358],[-7.8992,12.654],[-7.88,12.657],[-7.8164,12.641],[-7.7942,12.6382],[-7.7731,12.6408],[-7.7605,12.6494],[-7.7542,12.6641],[-7.7527,12.685],[-7.7564,12.6883],[-7.744,12.7154],[-7.732,12.7299],[-7.6964,12.7543],[-7.6888,12.7731],[-7.6805,12.7836],[-7.6409,12.8101],[-7.5823,12.8323],[-7.569,12.8416],[-7.493,12.94],[-7.4834,12.9481],[-7.4424,12.9543],[-7.4114,12.9714],[-7.399,12.9844],[-7.3889,13.0104],[-7.3608,13.0507],[-7.3462,13.0642],[-7.3025,13.0769],[-7.2916,13.0921],[-7.2542,13.1092],[-7.2062,13.1398],[-7.1486,13.1588],[-7.1343,13.1696],[-7.1209,13.1955],[-7.1138,13.2032],[-7.0025,13.2661],[-6.9792,13.2939],[-6.9625,13.3294],[-6.9063,13.3585],[-6.8896,13.3589],[-6.834,13.3438],[-6.8143,13.3471],[-6.7745,13.3602],[-6.7053,13.3706],[-6.6602,13.3851],[-6.6178,13.3923],[-6.5611,13.3924],[-6.5133,13.3732],[-6.4726,13.3658],[-6.4515,13.3663],[-6.4324,13.3714],[-6.3884,13.4029],[-6.3083,13.439],[-6.2603,13.4755],[-6.205,13.4984],[-6.1875,13.5084],[-6.1721,13.5219],[-6.1233,13.5819],[-6.1129,13.649],[-6.0792,13.7095],[-6.0682,13.7224],[-6.0482,13.7319],[-6.0278,13.7284],[-6.0086,13.717],[-5.9825,13.6946],[-5.9613,13.684],[-5.929,13.678],[-5.9215,13.6793],[-5.8933,13.6719],[-5.8802,13.6743],[-5.8087,13.7219],[-5.7795,13.7356],[-5.7669,13.7466],[-5.7025,13.8231],[-5.6778,13.8426],[-5.6499,13.8565],[-5.5902,13.8741],[-5.5655,13.8897],[-5.5544,13.9007],[-5.5252,13.9415],[-5.5137,13.9517],[-5.5004,13.958],[-5.486,13.9615],[-5.4425,13.9629],[-5.3974,13.9591],[-5.3507,13.9726],[-5.2777,13.9851],[-5.2471,13.9728],[-5.2395,13.9728],[-5.2336,13.9782],[-5.2281,14.004],[-5.2192,14.0181],[-5.1845,14.0537],[-5.1653,14.0936],[-5.1383,14.1138],[-4.9926,14.1486],[-4.9418,14.1681],[-4.8845,14.1682],[-4.817,14.201],[-4.7803,14.204],[-4.7628,14.2089],[-4.7054,14.2379],[-4.6873,14.2434],[-4.6528,14.2418],[-4.5936,14.2713],[-4.5701,14.2771],[-4.5498,14.2726],[-4.5296,14.2463],[-4.5193,14.239],[-4.5,14.2352]],[[-9.3818,11.003],[-9.3815,11.0084],[-9.3815,11.001],[-9.3818,11.003]],[[-10.6358,9.8],[-10.6437,9.8322],[-10.6536,9.8497],[-10.6827,9.8679],[-10.695,9.9151],[-10.7121,9.9308],[-10.7041,9.9601],[-10.7321,9.9806],[-10.7384,9.9991],[-10.7584,10.0042],[-10.7586,10.0223],[-10.7709,10.0474],[-10.786,10.1103],[-10.7778,10.1456],[-10.7809,10.1658],[-10.8004,10.1656],[-10.8256,10.2247],[-10.827,10.2407],[-10.8197,10.2567],[-10.7786,10.2823],[-10.7921,10.3002],[-10.7929,10.3099],[-10.786,10.317],[-10.7451,10.3028],[-10.7168,10.3016],[-10.67,10.3362],[-10.663,10.3263],[-10.6556,10.326],[-10.6421,10.3437],[-10.6284,10.3362],[-10.6287,10.3841],[-10.6318,10.3915],[-10.6414,10.3944],[-10.6506,10.4022],[-10.6549,10.4131],[-10.6495,10.4256],[-10.637,10.4324],[-10.6235,10.4309],[-10.6129,10.4242],[-10.6085,10.4157],[-10.6007,10.4123],[-10.5495,10.412],[-10.5363,10.4256],[-10.5049,10.4256],[-10.4956,10.4612],[-10.4666,10.4747],[-10.4509,10.4877],[-10.4419,10.5059],[-10.417,10.5138],[-10.4093,10.5293],[-10.3704,10.5223],[-10.351,10.522],[-10.3048,10.5322],[-10.2965,10.529],[-10.2796,10.515],[-10.2646,10.5112],[-10.2377,10.5125],[-10.2244,10.5082],[-10.2366,10.4972],[-10.235,10.4883],[-10.2137,10.4703],[-10.2001,10.4393],[-10.1913,10.4426],[-10.1897,10.4571],[-10.1492,10.4877],[-10.1469,10.5216],[-10.142,10.5329],[-10.0809,10.543],[-10.017,10.6032],[-10.0043,10.6118],[-9.9912,10.6122],[-9.9711,10.6038],[-9.9521,10.5901],[-9.9438,10.5901],[-9.9345,10.5974],[-9.9206,10.6201],[-9.9121,10.6249],[-9.8971,10.6169],[-9.8818,10.6029],[-9.8672,10.5981],[-9.8544,10.6175],[-9.859,10.6312],[-9.8704,10.6445],[-9.8729,10.6545],[-9.851,10.6584],[-9.8168,10.6522],[-9.7855,10.6658],[-9.763,10.6605],[-9.745,10.6501],[-9.7277,10.645],[-9.707,10.6553],[-9.6803,10.6858],[-9.6655,10.6942],[-9.6422,10.6931],[-9.6174,10.6779],[-9.6053,10.6756],[-9.5869,10.6863],[-9.5793,10.6946],[-9.5444,10.7482],[-9.5045,10.7907],[-9.4913,10.8167],[-9.4868,10.8482],[-9.4852,10.9156],[-9.4777,10.9464],[-9.4699,10.9586],[-9.4606,10.9636],[-9.4109,10.9709],[-9.394,10.9768],[-9.3827,10.9883],[-9.3818,11.003]]]}},{"type":"Feature","properties":{"nom":"Bani","rang":7.0,"principal":false},"geometry":{"type":"MultiLineString","coordinates":[[[-5.5437,13.2082],[-5.5142,13.2255],[-5.5028,13.2286],[-5.4897,13.2276],[-5.4581,13.215],[-5.4322,13.2213],[-5.4173,13.2363],[-5.3929,13.2696],[-5.3574,13.2806],[-5.2727,13.2739],[-5.2358,13.2764],[-5.2148,13.2858],[-5.1938,13.3002],[-5.1567,13.3348],[-5.1414,13.3406],[-5.0782,13.3453],[-5.0571,13.3658],[-5.0444,13.3691],[-5.013,13.3658],[-4.9464,13.3668],[-4.9267,13.372],[-4.8926,13.3994],[-4.8574,13.3987],[-4.8482,13.4031],[-4.8122,13.4415],[-4.8038,13.4546],[-4.7946,13.4881],[-4.7872,13.503],[-4.7579,13.5153],[-4.7392,13.53],[-4.7082,13.5638],[-4.6787,13.6195],[-4.6636,13.6265],[-4.6206,13.6308],[-4.6041,13.6371],[-4.5909,13.647],[-4.5618,13.6888],[-4.5472,13.6948],[-4.5189,13.7991],[-4.5227,13.8587],[-4.5173,13.8846],[-4.5,13.8833]],[[-6.5176,12.6738],[-6.4792,12.7235],[-6.4162,12.7303],[-6.4002,12.7352],[-6.3655,12.7706],[-6.3562,12.7762],[-6.3319,12.7821],[-6.3144,12.7971],[-6.305,12.8172],[-6.3047,12.8382],[-6.3399,12.8907],[-6.3457,12.9099],[-6.332,12.9885],[-6.3214,13.0021],[-6.3026,13.0154],[-6.2804,13.0254],[-6.2061,13.0388],[-6.188,13.0511],[-6.1188,13.0532],[-6.1129,13.0621],[-6.0781,13.0921],[-6.0362,13.117],[-6.0206,13.152],[-5.9975,13.174],[-5.9705,13.1916],[-5.949,13.2014],[-5.8982,13.2132],[-5.873,13.2122],[-5.8521,13.2014],[-5.8306,13.2084],[-5.7597,13.1877],[-5.7082,13.191],[-5.6842,13.1983],[-5.6741,13.2116],[-5.6667,13.2327],[-5.6499,13.2324],[-5.6195,13.215],[-5.5437,13.2014]]]}},{"type":"Feature","properties":{"nom":"Baoulé","rang":8.0,"principal":true},"geometry":{"type":"LineString","coordinates":[[-8.7297,12.3588],[-8.7171,12.3928],[-8.701,12.4077],[-8.6481,12.4204],[-8.6055,12.4482],[-8.5801,12.4932],[-8.5679,12.5465],[-8.562,12.679],[-8.5659,12.7039],[-8.5964,12.7529],[-8.5981,12.807],[-8.6112,12.8299],[-8.625,12.8443],[-8.6342,12.8595],[-8.6336,12.8847],[-8.624,12.9086],[-8.5793,12.9781],[-8.5713,13.0067],[-8.5711,13.0315],[-8.5795,13.0841],[-8.5788,13.0989],[-8.5643,13.1331],[-8.5606,13.1968],[-8.5555,13.2177],[-8.5264,13.2596],[-8.5198,13.2922],[-8.4943,13.3658],[-8.4865,13.377],[-8.4618,13.3902],[-8.4515,13.4042],[-8.4488,13.4235],[-8.4566,13.463],[-8.4676,13.4805],[-8.4966,13.5084],[-8.5077,13.5352],[-8.5153,13.5456],[-8.5406,13.5687],[-8.5549,13.6834],[-8.5513,13.7037],[-8.541,13.7184],[-8.5142,13.7443],[-8.4897,13.7882],[-8.4576,13.8232],[-8.4512,13.8758],[-8.4525,13.8904],[-8.4648,13.9227],[-8.4847,13.9431],[-8.512,13.9524],[-8.546,13.9517],[-8.566,13.9457],[-8.5729,13.9363],[-8.5764,13.9116],[-8.5926,13.8793],[-8.5937,13.8663],[-8.5797,13.8631],[-8.5926,13.8395],[-8.618,13.8371],[-8.7038,13.8504],[-8.723,13.8658],[-8.7513,13.9167],[-8.7606,13.9061],[-8.7686,13.9051],[-8.7874,13.9321],[-8.815,13.9423],[-8.8466,13.9688],[-8.8525,13.9765],[-8.8552,13.9893],[-8.8406,14.004],[-8.8351,14.024],[-8.8184,14.0576],[-8.8237,14.0926],[-8.8187,14.1062],[-8.7969,14.1139],[-8.7784,14.108],[-8.7647,14.109],[-8.7579,14.1375],[-8.764,14.1809],[-8.8093,14.2883],[-8.8455,14.3081],[-8.8663,14.3068],[-8.8765,14.3096],[-8.8824,14.3298],[-8.8888,14.3361],[-8.9182,14.35],[-8.9254,14.3602],[-8.9346,14.3842],[-8.958,14.3584],[-8.9634,14.3343],[-8.9646,14.3088],[-8.9748,14.2783],[-8.9997,14.2394],[-9.0098,14.2004],[-9.0089,14.1871],[-8.9791,14.1424],[-8.9676,14.1287],[-8.953,14.1179],[-8.9312,14.1085],[-8.926,14.0939],[-8.9272,13.986],[-8.9378,13.9691],[-8.9554,13.9616],[-8.9774,13.9674],[-8.9959,13.9855],[-9.0283,14.0301],[-9.0535,14.0417],[-9.0767,14.0435],[-9.0861,14.0397],[-9.1077,14.0179],[-9.128,14.0059],[-9.171,13.9713],[-9.1846,13.9698],[-9.2309,13.9738],[-9.2885,13.9609],[-9.3216,13.9613],[-9.3334,13.9563],[-9.344,13.9453],[-9.3611,13.9154],[-9.3794,13.8943],[-9.3858,13.874],[-9.3859,13.8493],[-9.4141,13.847],[-9.4205,13.8347],[-9.4254,13.7987],[-9.4333,13.7896],[-9.5915,13.6785],[-9.6295,13.67],[-9.6435,13.6769],[-9.6673,13.7008],[-9.6854,13.7091],[-9.7281,13.713],[-9.7727,13.7056],[-9.8091,13.6844],[-9.827,13.6464],[-9.8256,13.6348],[-9.8173,13.6159],[-9.8185,13.6045],[-9.8299,13.5919],[-9.8891,13.5599]]}},{"type":"Feature","properties":{"nom":"Bakoy","rang":8.0,"principal":true},"geometry":{"type":"LineString","coordinates":[[-9.8891,13.5599],[-9.9313,13.5521],[-9.9771,13.557],[-10.0211,13.5712],[-10.0582,13.5915],[-10.1088,13.6417],[-10.1306,13.6501],[-10.2135,13.6612],[-10.241,13.6591],[-10.269,13.649],[-10.3175,13.6171],[-10.3446,13.6042],[-10.3769,13.6005],[-10.3949,13.6118],[-10.4108,13.6285],[-10.436,13.6414],[-10.4919,13.6473],[-10.5162,13.6541],[-10.5381,13.6724],[-10.5603,13.7145],[-10.5748,13.7232],[-10.5904,13.7253],[-10.6366,13.7219],[-10.6652,13.7355],[-10.7096,13.7786],[-10.7416,13.7835],[-10.7672,13.783],[-10.7921,13.7884],[-10.8511,13.8139]]}},{"type":"Feature","properties":{"nom":"Bagoé","rang":9.0,"principal":false},"geometry":{"type":"MultiLineString","coordinates":[[[-6.5611,11.6389],[-6.5031,11.6514],[-6.4673,11.7581],[-6.4363,11.8043],[-6.3665,11.9464],[-6.3722,12.0],[-6.38,12.0289],[-6.3778,12.0555],[-6.3333,12.0944],[-6.3294,12.117],[-6.3333,12.1389],[-6.3457,12.1553],[-6.3445,12.1778],[-6.3634,12.2131],[-6.3944,12.2388],[-6.4222,12.2333],[-6.4346,12.2457],[-6.4449,12.2474],[-6.4556,12.2445],[-6.4851,12.2552],[-6.5,12.2833],[-6.4966,12.3243],[-6.4888,12.3638],[-6.5083,12.401],[-6.5401,12.4307],[-6.5572,12.4707],[-6.571,12.5615],[-6.5666,12.6055]],[[-6.3602,9.8],[-6.3545,9.8936],[-6.3225,9.9001],[-6.2945,9.9833],[-6.3052,9.9904],[-6.3111,10.0],[-6.3052,10.0405],[-6.2723,10.0722],[-6.2281,10.1455],[-6.2222,10.2556],[-6.1788,10.3732],[-6.2216,10.5948],[-6.1976,10.6201],[-6.1944,10.65],[-6.2251,10.6903],[-6.2696,10.7225],[-6.277,10.9752],[-6.4298,11.1002],[-6.5093,11.2496],[-6.5533,11.5302],[-6.5611,11.6389]]]}}]}