{"type":"FeatureCollection","features":[{"type":"Feature","properties":{"iso":"GIN","nom":"Guinée"},"geometry":{"type":"Polygon","coordinates":[[[-13.3011,9.0415],[-13.3216,9.0566],[-13.3222,9.0831],[-13.3006,9.0846],[-13.3011,9.0961],[-13.2738,9.124],[-13.2431,9.1697],[-13.2259,9.1793],[-13.1761,9.1737],[-13.1577,9.1793],[-13.1577,9.1855],[-13.2473,9.186],[-13.2595,9.1964],[-13.2458,9.2134],[-13.2328,9.2674],[-13.2549,9.2448],[-13.2806,9.165],[-13.3153,9.1821],[-13.3222,9.1929],[-13.3136,9.1979],[-13.3147,9.2333],[-13.3079,9.2503],[-13.3222,9.2612],[-13.3253,9.311],[-13.3187,9.3295],[-13.3011,9.3159],[-13.3011,9.3568],[-13.3529,9.3388],[-13.3745,9.2728],[-13.4078,9.287],[-13.412,9.2934],[-13.4041,9.3084],[-13.4238,9.3329],[-13.432,9.3711],[-13.3966,9.4394],[-13.4284,9.4207],[-13.4654,9.4182],[-13.4992,9.4288],[-13.514,9.4496],[-13.5207,9.4951],[-13.4932,9.5349],[-13.4867,9.5691],[-13.4935,9.5691],[-13.529,9.5057],[-13.5475,9.5002],[-13.5753,9.5272],[-13.5884,9.5691],[-13.678,9.5227],[-13.7143,9.5076],[-13.7262,9.5111],[-13.7241,9.5195],[-13.7058,9.5281],[-13.6527,9.5972],[-13.6258,9.6473],[-13.6232,9.7274],[-13.6049,9.7374],[-13.5954,9.755],[-13.5665,9.7711],[-13.5611,9.7882],[-13.5943,9.7742],[-13.6041,9.7802],[-13.6478,9.8315],[-13.6512,9.8428],[-13.6648,9.8366],[-13.6505,9.777],[-13.6613,9.7545],[-13.6921,9.7404],[-13.7289,9.7441],[-13.7472,9.7678],[-13.7498,9.7999],[-13.7399,9.8292],[-13.6983,9.8808],[-13.682,9.9135],[-13.6853,9.9465],[-13.694,9.9538],[-13.702,9.9117],[-13.7497,9.8635],[-13.7887,9.85],[-13.8428,9.8608],[-13.8861,9.9122],[-13.9276,9.9359],[-13.9454,9.9669],[-13.9795,9.9744],[-14.0067,10.001],[-14.043,10.0128],[-14.0583,10.0253],[-14.0619,10.0501],[-14.0461,10.0795],[-14.0203,10.0944],[-13.9938,10.0762],[-14.0282,10.1166],[-14.0416,10.1013],[-14.0683,10.1181],[-14.0655,10.1246],[-14.0438,10.1332],[-13.9999,10.1997],[-14.0145,10.1928],[-14.0447,10.1622],[-14.0893,10.1383],[-14.0893,10.0799],[-14.1006,10.0583],[-14.1303,10.0489],[-14.1532,10.0556],[-14.1705,10.0708],[-14.1798,10.0903],[-14.1788,10.1103],[-14.1236,10.1626],[-14.1378,10.1792],[-14.1417,10.1645],[-14.1531,10.1563],[-14.1849,10.1519],[-14.1825,10.1295],[-14.2002,10.1127],[-14.2224,10.1061],[-14.2506,10.1405],[-14.2538,10.1553],[-14.2401,10.1751],[-14.2439,10.1823],[-14.259,10.1796],[-14.2701,10.1597],[-14.2921,10.1718],[-14.3524,10.2262],[-14.3767,10.2344],[-14.4186,10.228],[-14.432,10.2344],[-14.4525,10.2146],[-14.4626,10.2252],[-14.4659,10.2497],[-14.4582,10.3043],[-14.463,10.33],[-14.5373,10.4036],[-14.548,10.4256],[-14.5505,10.4721],[-14.5455,10.495],[-14.535,10.5082],[-14.5514,10.5068],[-14.5964,10.476],[-14.629,10.4763],[-14.6374,10.4877],[-14.6443,10.4877],[-14.6512,10.4751],[-14.6578,10.4796],[-14.6638,10.5292],[-14.6505,10.5703],[-14.6394,10.5666],[-14.5964,10.6037],[-14.6206,10.6043],[-14.6287,10.6173],[-14.6152,10.6913],[-14.6073,10.7054],[-14.5902,10.6994],[-14.5883,10.7143],[-14.5685,10.731],[-14.5555,10.7757],[-14.5313,10.8235],[-14.5174,10.829],[-14.5097,10.8425],[-14.5139,10.8719],[-14.5002,10.8911],[-14.5199,10.8854],[-14.5214,10.8508],[-14.5735,10.8124],[-14.6297,10.7064],[-14.6579,10.6727],[-14.6998,10.6431],[-14.7057,10.6553],[-14.7037,10.6708],[-14.6981,10.6818],[-14.6783,10.6931],[-14.6918,10.6945],[-14.7057,10.6863],[-14.7194,10.6994],[-14.6991,10.7563],[-14.6514,10.81],[-14.6647,10.8166],[-14.7231,10.7651],[-14.7464,10.7108],[-14.7603,10.6994],[-14.7928,10.745],[-14.7951,10.7683],[-14.7816,10.7678],[-14.77,10.7769],[-14.7541,10.803],[-14.7405,10.8719],[-14.7589,10.8585],[-14.7726,10.8365],[-14.8087,10.8235],[-14.8091,10.8456],[-14.8013,10.8644],[-14.808,10.8825],[-14.7951,10.8986],[-14.8139,10.9003],[-14.8197,10.912],[-14.8087,10.9396],[-14.7318,10.9665],[-14.7163,11.001],[-14.6995,11.0055],[-14.6808,11.0275],[-14.6647,11.0358],[-14.6852,11.0637],[-14.695,11.0385],[-14.7268,11.0258],[-14.7415,10.9891],[-14.7568,10.9812],[-14.7746,10.988],[-14.8013,10.9805],[-14.7955,10.9997],[-14.8013,11.0119],[-14.8107,11.0145],[-14.8435,10.9675],[-14.8746,10.9733],[-14.8944,11.0303],[-14.9186,11.029],[-14.9015,11.0117],[-14.8988,10.9932],[-14.9111,10.96],[-14.932,10.9757],[-14.9596,10.9805],[-14.9144,10.9423],[-14.9111,10.9259],[-14.9398,10.8891],[-14.9581,10.8762],[-14.9801,10.875],[-14.9732,10.8542],[-14.9732,10.8201],[-14.9502,10.8038],[-14.9459,10.7928],[-14.9596,10.7683],[-15.0316,10.7928],[-15.0694,10.8371],[-15.0795,10.8587],[-15.0811,10.8782],[-15.0743,10.8969],[-15.0589,10.916],[-15.0278,10.9293],[-15.0148,10.9538],[-15.021,10.9675],[-14.9591,11.0358],[-14.8631,11.2186],[-14.8282,11.3348],[-14.7111,11.4976],[-14.6868,11.5107],[-14.6454,11.5151],[-14.5623,11.5056],[-14.5209,11.5129],[-14.3392,11.6106],[-14.3265,11.6206],[-14.3082,11.6545],[-14.2897,11.6689],[-14.1618,11.6609],[-14.1349,11.6418],[-14.1186,11.638],[-14.0588,11.644],[-14.0151,11.6371],[-13.9454,11.6757],[-13.9237,11.665],[-13.9036,11.6654],[-13.8864,11.6756],[-13.8707,11.7041],[-13.8701,11.7437],[-13.8463,11.7373],[-13.843,11.7173],[-13.8201,11.7081],[-13.8217,11.6942],[-13.8158,11.6868],[-13.77,11.6887],[-13.7299,11.7098],[-13.7196,11.7661],[-13.7346,11.9019],[-13.7239,12.0028],[-13.7349,12.0193],[-13.7796,12.0293],[-13.8078,12.0443],[-13.8424,12.0913],[-13.8697,12.1007],[-13.9184,12.1378],[-13.9725,12.1516],[-13.9657,12.1942],[-13.9439,12.2186],[-13.8832,12.2464],[-13.84,12.2771],[-13.8126,12.2836],[-13.7957,12.2787],[-13.8086,12.2561],[-13.7408,12.2569],[-13.7118,12.2675],[-13.695,12.2929],[-13.683,12.3387],[-13.6841,12.392],[-13.6607,12.4587],[-13.6747,12.4961],[-13.7251,12.5581],[-13.7346,12.5853],[-13.7283,12.6734],[-13.4048,12.6618],[-13.3386,12.6392],[-13.2841,12.6533],[-13.2547,12.6418],[-13.2215,12.6484],[-13.2019,12.6334],[-13.1692,12.6388],[-13.1547,12.6328],[-13.1453,12.6439],[-13.1273,12.6348],[-13.0765,12.6359],[-13.0636,12.6223],[-13.0593,12.6035],[-13.0642,12.5662],[-13.0827,12.5157],[-13.0783,12.4962],[-13.0667,12.4801],[-13.052,12.4723],[-12.981,12.467],[-12.9695,12.4768],[-12.9495,12.5359],[-12.9131,12.5363],[-12.874,12.5164],[-12.8492,12.495],[-12.8491,12.4758],[-12.8386,12.4664],[-12.7835,12.4531],[-12.7733,12.4351],[-12.6881,12.436],[-12.648,12.4258],[-12.6034,12.3819],[-12.5937,12.3616],[-12.5706,12.3637],[-12.5051,12.3903],[-12.4668,12.3845],[-12.4234,12.3691],[-12.4055,12.3565],[-12.3771,12.3137],[-12.3609,12.3056],[-12.192,12.3488],[-12.104,12.4074],[-12.0792,12.4081],[-11.9976,12.3864],[-11.9239,12.4188],[-11.8396,12.3867],[-11.7578,12.3833],[-11.6015,12.4252],[-11.5154,12.4316],[-11.4816,12.4282],[-11.416,12.405],[-11.3884,12.4039],[-11.3886,12.3845],[-11.4317,12.383],[-11.4472,12.3745],[-11.4515,12.3521],[-11.4446,12.2895],[-11.4632,12.25],[-11.4917,12.2209],[-11.5078,12.1916],[-11.4896,12.1512],[-11.4708,12.1346],[-11.4096,12.1079],[-11.3917,12.0937],[-11.3347,12.0262],[-11.275,11.9963],[-11.2555,11.9962],[-11.1912,12.0144],[-11.1656,12.0486],[-11.1594,12.0775],[-11.1363,12.0851],[-11.1166,12.1137],[-11.0728,12.1495],[-11.0523,12.2025],[-11.0155,12.2044],[-10.9521,12.2195],[-10.9277,12.213],[-10.9098,12.2001],[-10.8696,12.1384],[-10.8049,12.096],[-10.7985,12.0681],[-10.811,12.0415],[-10.8078,12.0228],[-10.781,11.9962],[-10.7403,11.9199],[-10.7114,11.8904],[-10.67,11.892],[-10.6551,11.899],[-10.6342,11.9254],[-10.6138,11.9677],[-10.5595,11.9952],[-10.5665,12.0173],[-10.5151,12.0529],[-10.5173,12.0803],[-10.5044,12.0884],[-10.5116,12.1181],[-10.4935,12.1244],[-10.4457,12.1207],[-10.4289,12.1434],[-10.3814,12.1801],[-10.3534,12.1665],[-10.3541,12.1809],[-10.3299,12.1904],[-10.3236,12.202],[-10.311,12.191],[-10.305,12.2029],[-10.2669,12.2178],[-10.2478,12.2011],[-10.2149,12.1946],[-10.1798,12.1782],[-10.1287,12.1745],[-10.0973,12.1537],[-10.0602,12.1475],[-10.0277,12.1257],[-9.9616,12.096],[-9.9232,12.0876],[-9.8707,12.0521],[-9.8337,12.0551],[-9.7786,12.0267],[-9.723,12.0254],[-9.6863,12.0682],[-9.6823,12.1185],[-9.6751,12.134],[-9.6282,12.1702],[-9.5156,12.2071],[-9.4796,12.2358],[-9.4389,12.2548],[-9.4215,12.2571],[-9.3602,12.2466],[-9.3368,12.2698],[-9.3319,12.2828],[-9.335,12.3065],[-9.3218,12.3102],[-9.3129,12.3261],[-9.3092,12.3577],[-9.3392,12.3706],[-9.3472,12.3965],[-9.3747,12.4111],[-9.4126,12.4554],[-9.3982,12.4732],[-9.3509,12.4846],[-9.3342,12.4963],[-9.3215,12.4966],[-9.2941,12.4838],[-9.2789,12.4944],[-9.2659,12.4952],[-9.1473,12.4655],[-8.9938,12.3875],[-8.9759,12.3687],[-8.9647,12.3463],[-8.9631,12.3242],[-8.9959,12.261],[-8.9943,12.2248],[-8.9738,12.1876],[-8.942,12.1958],[-8.9139,12.1699],[-8.906,12.1477],[-8.907,12.1254],[-8.9263,12.0643],[-8.9221,12.0454],[-8.9037,12.0304],[-8.838,12.0282],[-8.8198,12.0127],[-8.8149,11.9554],[-8.7978,11.9251],[-8.8472,11.6579],[-8.8285,11.6592],[-8.7772,11.6359],[-8.7265,11.6495],[-8.7129,11.6401],[-8.6873,11.55],[-8.6568,11.4964],[-8.6022,11.4721],[-8.5752,11.4703],[-8.5496,11.4901],[-8.5276,11.4234],[-8.4277,11.4001],[-8.3753,11.3677],[-8.4141,11.3535],[-8.4261,11.3405],[-8.418,11.3255],[-8.371,11.3206],[-8.3767,11.2947],[-8.3884,11.2814],[-8.4067,11.2753],[-8.4832,11.2849],[-8.4926,11.2778],[-8.5031,11.2554],[-8.4988,11.2335],[-8.5518,11.2107],[-8.5639,11.1934],[-8.5782,11.1421],[-8.6154,11.1341],[-8.6246,11.122],[-8.6231,11.0913],[-8.6337,11.0713],[-8.6798,11.0252],[-8.7007,10.9785],[-8.6962,10.9627],[-8.6809,10.9523],[-8.648,10.9658],[-8.5933,10.9647],[-8.5595,10.9716],[-8.5416,10.9838],[-8.5058,11.0528],[-8.469,11.0464],[-8.4382,11.0497],[-8.4105,11.0419],[-8.3693,11.0542],[-8.3266,11.0238],[-8.3111,11.0008],[-8.3051,10.9782],[-8.3036,10.8749],[-8.3059,10.8563],[-8.3189,10.8395],[-8.3398,10.7839],[-8.3419,10.7632],[-8.3156,10.7531],[-8.3111,10.7353],[-8.2955,10.5374],[-8.2844,10.5112],[-8.2289,10.4234],[-8.2106,10.4141],[-8.189,10.4136],[-8.1354,10.4273],[-8.1254,10.4117],[-8.1155,10.3602],[-8.0961,10.3467],[-8.0157,10.3393],[-7.9963,10.3283],[-7.9712,10.2818],[-7.9626,10.2333],[-7.968,10.21],[-7.9897,10.162],[-8.0072,10.1383],[-8.0157,10.1104],[-8.0349,10.0858],[-8.1088,10.0542],[-8.1275,10.0371],[-8.1585,9.9849],[-8.1363,9.9694],[-8.1401,9.9597],[-8.1738,9.9419],[-8.1679,9.9147],[-8.1495,9.9053],[-8.1457,9.8825],[-8.1551,9.8752],[-8.151,9.8661],[-8.1281,9.8662],[-8.1235,9.8449],[-8.1616,9.5756],[-8.1576,9.5309],[-8.1454,9.4971],[-8.0872,9.4154],[-8.0541,9.3891],[-7.9916,9.3853],[-7.933,9.4143],[-7.9119,9.4187],[-7.8706,9.4186],[-7.8654,9.4099],[-7.8949,9.3071],[-7.9306,9.2203],[-7.9296,9.1839],[-7.8787,9.1639],[-7.8479,9.1686],[-7.8234,9.132],[-7.7594,9.0917],[-7.7468,9.0764],[-7.7642,9.0636],[-7.827,9.0578],[-7.9167,9.0123],[-7.9318,8.9966],[-7.9465,8.9486],[-7.9689,8.8128],[-7.9589,8.782],[-7.831,8.7477],[-7.8161,8.7535],[-7.8037,8.7491],[-7.7651,8.7061],[-7.7412,8.6629],[-7.6968,8.6248],[-7.6917,8.5467],[-7.6792,8.5051],[-7.6896,8.4387],[-7.6624,8.3749],[-7.7207,8.3685],[-7.7483,8.3723],[-7.771,8.3865],[-7.8024,8.4492],[-7.8238,8.4779],[-7.8457,8.4743],[-7.8486,8.4286],[-7.8656,8.4209],[-7.9129,8.4342],[-7.9238,8.4438],[-7.9439,8.4846],[-7.9705,8.497],[-8.0157,8.4872],[-8.0507,8.4877],[-8.0766,8.5033],[-8.1505,8.4865],[-8.2003,8.4918],[-8.2489,8.4536],[-8.2543,8.4345],[-8.2369,8.4001],[-8.2353,8.3795],[-8.2476,8.3226],[-8.2453,8.2851],[-8.266,8.246],[-8.1829,8.1917],[-8.0855,8.162],[-8.0033,8.184],[-8.0024,8.1743],[-8.0157,8.1482],[-8.0213,8.1027],[-8.0157,8.0885],[-7.9804,8.059],[-7.9626,8.0152],[-7.9804,8.0166],[-8.012,8.0356],[-8.0691,8.0293],[-8.0689,7.9966],[-8.0791,7.9577],[-8.1289,7.8826],[-8.1312,7.8424],[-8.1014,7.8128],[-8.0983,7.7919],[-8.1151,7.7769],[-8.1274,7.713],[-8.1595,7.6763],[-8.158,7.6582],[-8.1979,7.6186],[-8.2026,7.6072],[-8.2002,7.5763],[-8.229,7.5443],[-8.2654,7.5601],[-8.3032,7.5893],[-8.3368,7.5978],[-8.3909,7.5858],[-8.4148,7.6129],[-8.44,7.5999],[-8.4854,7.558],[-8.5478,7.6008],[-8.5665,7.6234],[-8.5728,7.6507],[-8.5674,7.6882],[-8.6866,7.6944],[-8.6945,7.6744],[-8.7207,7.6427],[-8.7276,7.622],[-8.73,7.5874],[-8.7392,7.5657],[-8.7268,7.5518],[-8.7296,7.5087],[-8.7565,7.4724],[-8.7904,7.4508],[-8.7992,7.4122],[-8.8334,7.3939],[-8.8654,7.3469],[-8.8514,7.2929],[-8.8578,7.273],[-8.9254,7.2486],[-8.9444,7.2787],[-8.9572,7.2865],[-8.9626,7.263],[-8.9777,7.2662],[-8.981,7.2506],[-9.0157,7.2389],[-9.0329,7.2403],[-9.0731,7.2113],[-9.1139,7.2004],[-9.1254,7.1902],[-9.1161,7.2247],[-9.1196,7.238],[-9.1469,7.2541],[-9.1475,7.2714],[-9.1531,7.2755],[-9.1815,7.2757],[-9.2063,7.2984],[-9.2199,7.361],[-9.2343,7.3813],[-9.2995,7.3766],[-9.3194,7.412],[-9.3492,7.4216],[-9.3752,7.4193],[-9.4074,7.3781],[-9.4381,7.4216],[-9.4784,7.3769],[-9.4907,7.376],[-9.4735,7.3956],[-9.4662,7.4334],[-9.4361,7.4586],[-9.4134,7.4923],[-9.4049,7.5136],[-9.4087,7.5274],[-9.3837,7.5595],[-9.373,7.6013],[-9.3535,7.6224],[-9.3747,7.6469],[-9.3762,7.6806],[-9.3555,7.7419],[-9.4157,7.8244],[-9.4387,7.8662],[-9.4484,7.9078],[-9.446,7.9501],[-9.4246,8.0058],[-9.4241,8.0262],[-9.4409,8.0506],[-9.4515,8.0518],[-9.4742,8.0288],[-9.4598,8.0688],[-9.4814,8.1647],[-9.5156,8.1749],[-9.5301,8.1855],[-9.5319,8.2123],[-9.5254,8.2408],[-9.5092,8.2656],[-9.5394,8.3146],[-9.4991,8.3435],[-9.5291,8.3663],[-9.5792,8.3873],[-9.6002,8.4109],[-9.6195,8.3927],[-9.6773,8.3915],[-9.6759,8.4096],[-9.6451,8.4434],[-9.6505,8.4648],[-9.6835,8.4871],[-9.7033,8.4873],[-9.7155,8.4733],[-9.7221,8.4356],[-9.7463,8.4681],[-9.7573,8.5327],[-9.7736,8.563],[-9.7906,8.5654],[-9.79,8.5531],[-9.8089,8.5285],[-9.8068,8.5063],[-9.8586,8.4871],[-9.8728,8.5004],[-9.9442,8.4883],[-10.0404,8.4257],[-10.0617,8.4222],[-10.075,8.4266],[-10.0794,8.44],[-10.0693,8.4869],[-10.0761,8.5015],[-10.148,8.5243],[-10.1818,8.5196],[-10.2324,8.4771],[-10.2403,8.4937],[-10.2937,8.4831],[-10.3376,8.4986],[-10.3747,8.4948],[-10.4141,8.4702],[-10.4602,8.3922],[-10.5193,8.3348],[-10.5544,8.3118],[-10.5727,8.3046],[-10.6267,8.3315],[-10.6598,8.3333],[-10.6882,8.3241],[-10.7079,8.3031],[-10.7152,8.2696],[-10.7353,8.2873],[-10.725,8.3199],[-10.6691,8.3991],[-10.6547,8.4855],[-10.6439,8.4869],[-10.6319,8.532],[-10.5846,8.5968],[-10.5654,8.6128],[-10.5221,8.6186],[-10.5033,8.6316],[-10.4819,8.6725],[-10.5302,8.7392],[-10.5997,8.8154],[-10.6101,8.8723],[-10.6119,8.9451],[-10.5918,9.0391],[-10.5941,9.0541],[-10.6293,9.0704],[-10.7104,9.073],[-10.7463,9.0838],[-10.7535,9.1201],[-10.7426,9.1633],[-10.7247,9.1945],[-10.6932,9.2128],[-10.6852,9.2245],[-10.6881,9.2593],[-10.6738,9.294],[-10.6751,9.3065],[-10.7415,9.3571],[-10.7655,9.3852],[-10.8318,9.3921],[-10.8115,9.4083],[-10.8549,9.4553],[-10.8591,9.473],[-10.8526,9.5121],[-10.8777,9.5327],[-10.8863,9.5684],[-10.9217,9.5959],[-10.9401,9.6397],[-10.9685,9.6542],[-11.0101,9.7427],[-11.0449,9.7871],[-11.086,9.8262],[-11.1603,9.8728],[-11.1885,9.9726],[-11.1996,9.9822],[-11.2727,9.996],[-11.9101,9.9925],[-11.915,9.9315],[-11.9218,9.9222],[-12.1413,9.8749],[-12.1936,9.8861],[-12.2536,9.9284],[-12.2767,9.9293],[-12.427,9.8976],[-12.4723,9.8813],[-12.5143,9.8513],[-12.5273,9.7536],[-12.5225,9.7345],[-12.5357,9.7328],[-12.5388,9.7119],[-12.5823,9.6834],[-12.6016,9.6517],[-12.6068,9.6007],[-12.6338,9.5979],[-12.6499,9.5521],[-12.6686,9.5424],[-12.6675,9.5287],[-12.7016,9.4202],[-12.7229,9.3921],[-12.7372,9.3972],[-12.7598,9.3828],[-12.7678,9.3723],[-12.7642,9.3477],[-12.7953,9.3351],[-12.8191,9.2958],[-12.8358,9.282],[-12.8956,9.2785],[-12.9175,9.267],[-12.937,9.2871],[-12.9579,9.2724],[-12.9738,9.2416],[-12.9784,9.2128],[-12.9592,9.1778],[-12.9842,9.1723],[-13.0289,9.096],[-13.1159,9.0439],[-13.1311,9.0415],[-13.1538,9.0493],[-13.2075,9.0767],[-13.2774,9.0586],[-13.3011,9.0415]]]}},{"type":"Feature","properties":{"iso":"MLI","nom":"Mali"},"geometry":{"type":"Polygon","coordinates":[[[-12.2641,14.7749],[-12.2248,14.7634],[-12.1389,14.7845],[-12.0704,14.7344],[-12.0497,14.7672],[-12.0111,14.7627],[-11.9915,14.768],[-11.974,14.7798],[-11.936,14.8236],[-11.8775,14.8415],[-11.8371,14.8931],[-11.8204,14.9],[-11.8309,14.9264],[-11.8132,14.9959],[-11.8138,15.0285],[-11.8328,15.049],[-11.851,15.042],[-11.8609,15.049],[-11.8451,15.1246],[-11.8457,15.1791],[-11.8268,15.2326],[-11.8169,15.2961],[-11.7835,15.3659],[-11.7677,15.4372],[-11.7549,15.4691],[-11.7294,15.4961],[-11.7271,15.5412],[-11.6441,15.5264],[-11.6149,15.5412],[-11.5792,15.578],[-11.5243,15.6003],[-11.5154,15.6101],[-11.5131,15.6253],[-11.5244,15.6435],[-11.4582,15.6329],[-11.4348,15.6234],[-11.4096,15.6022],[-11.2982,15.451],[-11.0454,15.2702],[-11.0127,15.2396],[-10.9852,15.1875],[-10.948,15.152],[-10.9152,15.1029],[-10.8909,15.1767],[-10.8441,15.2345],[-10.8272,15.2877],[-10.811,15.3031],[-10.7817,15.3084],[-10.7707,15.3247],[-10.7468,15.3411],[-10.7389,15.3622],[-10.7364,15.4226],[-10.7254,15.4331],[-10.6071,15.4244],[-10.535,15.4417],[-10.3708,15.4335],[-10.3226,15.4371],[-10.2232,15.402],[-10.1884,15.4047],[-10.1316,15.3726],[-10.1083,15.3659],[-10.0676,15.3647],[-9.9514,15.3812],[-9.8356,15.3711],[-9.7974,15.3803],[-9.7208,15.4209],[-9.6721,15.4307],[-9.4239,15.4405],[-9.4518,15.5592],[-9.4517,15.5883],[-9.437,15.6149],[-9.3759,15.6859],[-9.3565,15.6979],[-9.3324,15.6876],[-9.3293,15.6552],[-9.343,15.5869],[-9.3492,15.4956],[-5.511,15.4942],[-5.3533,16.312],[-5.3649,16.3349],[-5.6059,16.4959],[-5.6233,16.5278],[-5.9491,19.4956],[-6.5931,24.9941],[-4.8216,24.9951],[-4.516,24.804],[1.1465,21.1017],[1.1593,21.0815],[1.1801,20.9953],[1.1675,20.886],[1.1453,20.7959],[1.1472,20.7514],[1.1546,20.7388],[1.1913,20.7306],[1.2523,20.739],[1.2967,20.7335],[1.3105,20.7227],[1.3469,20.6691],[1.364,20.6577],[1.5204,20.617],[1.5597,20.5975],[1.6237,20.5513],[1.644,20.5227],[1.6501,20.487],[1.6492,20.4121],[1.6592,20.3975],[1.7781,20.3043],[1.7992,20.2949],[1.855,20.2948],[1.8706,20.2835],[1.8914,20.2318],[1.9134,20.2311],[1.9553,20.2549],[1.9934,20.2359],[2.0712,20.2133],[2.0975,20.2242],[2.1613,20.2749],[2.1824,20.2785],[2.2008,20.2739],[2.2796,20.2179],[2.3165,20.1802],[2.4004,20.0566],[2.5148,20.0159],[2.6169,19.9984],[2.6718,19.9962],[2.946,19.9417],[3.0726,19.8889],[3.1305,19.8452],[3.1988,19.8205],[3.2128,19.8078],[3.2168,19.7941],[3.1994,19.5538],[3.2122,19.5172],[3.2323,19.4955],[3.226,19.4597],[3.2582,19.4104],[3.2608,19.3883],[3.251,19.3655],[3.1929,19.3258],[3.1838,19.3075],[3.1744,19.2516],[3.1393,19.2219],[3.1027,19.1536],[3.1041,19.1355],[3.1388,19.096],[3.1798,19.07],[3.226,19.0511],[3.2849,18.9957],[3.3184,18.9777],[3.3587,18.9769],[4.2286,19.1422],[4.2356,16.9959],[4.2037,16.9828],[4.1978,16.9652],[4.202,16.8489],[4.182,16.8096],[4.184,16.4161],[4.1759,16.3926],[4.0948,16.3408],[4.0606,16.2983],[3.9712,16.0861],[3.9669,16.0585],[3.9708,16.0309],[3.9845,15.9988],[3.9832,15.984],[3.9251,15.9276],[3.9099,15.9048],[3.8945,15.7887],[3.8712,15.7148],[3.8461,15.6853],[3.8084,15.6656],[3.7289,15.6509],[3.6922,15.6314],[3.6141,15.5477],[3.5265,15.496],[3.5165,15.4692],[3.5071,15.354],[3.073,15.4272],[3.0335,15.4265],[3.0103,15.4177],[3.0002,15.3391],[1.3315,15.2836],[1.2978,15.2757],[1.2709,15.2599],[0.9737,14.9913],[0.9221,14.974],[0.7692,14.9691],[0.7114,14.9475],[0.6701,14.9397],[0.5148,14.9936],[0.4835,14.9921],[0.387,14.9632],[0.3532,14.9634],[0.2213,14.9959],[0.2132,14.9854],[0.2185,14.911],[-0.0334,14.9959],[-0.167,15.0497],[-0.2367,15.0656],[-0.2992,15.0547],[-0.3977,15.0021],[-0.4257,15.0026],[-0.4586,15.0755],[-0.4679,15.0799],[-0.7197,15.0785],[-0.7529,15.0697],[-0.7828,15.0484],[-1.0433,14.8179],[-1.0786,14.7964],[-1.1167,14.7804],[-1.3077,14.7347],[-1.3503,14.715],[-1.6969,14.4961],[-1.7667,14.4832],[-1.837,14.4796],[-1.967,14.4837],[-1.9971,14.4707],[-2.005,14.4442],[-2.0234,14.1986],[-2.0359,14.1812],[-2.1043,14.1512],[-2.1519,14.1561],[-2.3856,14.2647],[-2.4617,14.2809],[-2.5161,14.2679],[-2.5974,14.2223],[-2.6932,14.1232],[-2.8409,14.043],[-2.8673,14.0005],[-2.8554,13.9962],[-2.8945,13.8666],[-2.9281,13.7996],[-2.9234,13.746],[-2.8952,13.6516],[-2.9723,13.6245],[-2.9948,13.635],[-3.0191,13.6375],[-3.0675,13.6068],[-3.0822,13.6462],[-3.1251,13.6773],[-3.1958,13.6749],[-3.2404,13.708],[-3.2671,13.717],[-3.287,13.6978],[-3.2663,13.6823],[-3.2597,13.6583],[-3.2639,13.6027],[-3.284,13.5422],[-3.2486,13.2928],[-3.2624,13.2839],[-3.4265,13.2742],[-3.4485,13.2658],[-3.4523,13.2375],[-3.4395,13.1849],[-3.4495,13.1688],[-3.545,13.1745],[-3.57,13.1968],[-3.5969,13.1994],[-3.7986,13.3471],[-3.8926,13.3789],[-3.9716,13.3868],[-3.984,13.3965],[-3.9427,13.4319],[-3.9186,13.4403],[-3.918,13.4511],[-3.9561,13.4617],[-3.9645,13.4878],[-3.9813,13.499],[-3.998,13.4805],[-3.9716,13.47],[-3.9769,13.4606],[-4.0054,13.4395],[-4.0282,13.4315],[-4.0525,13.409],[-4.0875,13.398],[-4.1043,13.3827],[-4.1316,13.3238],[-4.166,13.2782],[-4.1769,13.2724],[-4.2055,13.273],[-4.2535,13.2291],[-4.2581,13.2141],[-4.23,13.1931],[-4.2278,13.1844],[-4.2348,13.1756],[-4.3102,13.1756],[-4.327,13.1686],[-4.3511,13.1183],[-4.3511,13.1061],[-4.3164,13.0709],[-4.2897,13.0135],[-4.2293,12.949],[-4.2213,12.9213],[-4.2246,12.8645],[-4.2119,12.8192],[-4.2341,12.7424],[-4.2576,12.7209],[-4.2972,12.7121],[-4.3394,12.7328],[-4.3689,12.739],[-4.402,12.7366],[-4.4853,12.7147],[-4.4913,12.6628],[-4.4825,12.6463],[-4.4225,12.5972],[-4.4014,12.5504],[-4.3872,12.534],[-4.3934,12.5164],[-4.4437,12.4594],[-4.4516,12.4353],[-4.4154,12.3503],[-4.4061,12.3075],[-4.4358,12.3017],[-4.4625,12.3282],[-4.4882,12.3207],[-4.4935,12.2728],[-4.5855,12.1972],[-4.5605,12.1495],[-4.5702,12.1389],[-4.6003,12.1376],[-4.6361,12.1176],[-4.6537,12.0691],[-4.6736,12.0597],[-4.7146,12.059],[-4.7469,12.0151],[-4.7613,12.0066],[-4.8068,11.9963],[-4.8262,12.0127],[-4.8472,12.0131],[-4.89,11.9979],[-4.9538,12.0051],[-5.0047,11.9807],[-5.0893,11.9793],[-5.137,11.9531],[-5.1678,11.9437],[-5.2482,11.8704],[-5.2752,11.8374],[-5.3065,11.846],[-5.319,11.8374],[-5.3538,11.8317],[-5.3699,11.8202],[-5.3923,11.8324],[-5.4124,11.8285],[-5.406,11.8123],[-5.3706,11.7911],[-5.3343,11.7908],[-5.299,11.7727],[-5.2871,11.7589],[-5.2795,11.739],[-5.2807,11.6995],[-5.2893,11.6604],[-5.3078,11.629],[-5.3076,11.6176],[-5.3,11.6064],[-5.2695,11.6041],[-5.2339,11.576],[-5.2247,11.5408],[-5.2246,11.458],[-5.2183,11.4222],[-5.2635,11.3902],[-5.2679,11.372],[-5.2629,11.2516],[-5.3067,11.1994],[-5.3223,11.1355],[-5.3325,11.1216],[-5.3901,11.0947],[-5.4898,11.0821],[-5.5042,11.0727],[-5.5073,11.0569],[-5.4956,10.9962],[-5.5018,10.9702],[-5.4791,10.9755],[-5.4314,10.8447],[-5.4465,10.7687],[-5.468,10.7527],[-5.4826,10.6842],[-5.4759,10.6504],[-5.4606,10.6446],[-5.4774,10.6196],[-5.4786,10.6042],[-5.4681,10.5878],[-5.4817,10.5353],[-5.509,10.4909],[-5.5226,10.4255],[-5.5717,10.4499],[-5.594,10.4539],[-5.8063,10.4135],[-5.8781,10.3761],[-5.9048,10.3483],[-5.909,10.3301],[-5.9047,10.2753],[-5.9164,10.2666],[-5.963,10.2827],[-5.9747,10.2736],[-5.9852,10.2273],[-6.0159,10.1899],[-6.1053,10.1893],[-6.1809,10.2158],[-6.2248,10.255],[-6.24,10.2519],[-6.2407,10.3026],[-6.2283,10.3161],[-6.2144,10.3078],[-6.2062,10.3108],[-6.2083,10.332],[-6.1839,10.3589],[-6.1988,10.3708],[-6.1806,10.4202],[-6.2004,10.4488],[-6.1858,10.4813],[-6.1903,10.4911],[-6.2224,10.4946],[-6.2387,10.5127],[-6.2613,10.5141],[-6.2562,10.5372],[-6.2314,10.5602],[-6.2387,10.598],[-6.2098,10.6178],[-6.2044,10.6296],[-6.2169,10.6451],[-6.2466,10.6576],[-6.2458,10.7207],[-6.256,10.7265],[-6.28,10.7233],[-6.3417,10.6914],[-6.4098,10.6944],[-6.427,10.6861],[-6.434,10.6679],[-6.4359,10.6287],[-6.4307,10.615],[-6.3992,10.5925],[-6.4028,10.5691],[-6.4215,10.5566],[-6.446,10.5523],[-6.5376,10.5697],[-6.5986,10.6049],[-6.6136,10.6185],[-6.634,10.653],[-6.6471,10.6613],[-6.6692,10.6542],[-6.689,10.6079],[-6.6911,10.5894],[-6.6828,10.566],[-6.6975,10.4883],[-6.6958,10.4712],[-6.6831,10.4517],[-6.6478,10.4327],[-6.6479,10.4219],[-6.664,10.398],[-6.6689,10.361],[-6.6774,10.349],[-6.7003,10.3417],[-6.7226,10.344],[-6.7821,10.373],[-6.8039,10.3709],[-6.8628,10.3438],[-6.9612,10.3449],[-6.9731,10.3323],[-6.9971,10.2528],[-6.9949,10.2394],[-6.9616,10.211],[-6.9594,10.1855],[-6.9716,10.1644],[-7.0158,10.1409],[-7.0405,10.1401],[-7.0895,10.1976],[-7.1064,10.2073],[-7.2047,10.2345],[-7.3634,10.2522],[-7.3718,10.2645],[-7.3663,10.3294],[-7.3723,10.3448],[-7.395,10.3462],[-7.4444,10.3342],[-7.4447,10.3608],[-7.4655,10.3986],[-7.4662,10.4295],[-7.4802,10.4503],[-7.5015,10.4586],[-7.5158,10.4578],[-7.5396,10.4276],[-7.5564,10.4173],[-7.6078,10.4187],[-7.6437,10.4405],[-7.6644,10.4371],[-7.679,10.4059],[-7.7086,10.4025],[-7.7223,10.3913],[-7.7223,10.3845],[-7.736,10.3783],[-7.724,10.3636],[-7.7353,10.3471],[-7.7776,10.3299],[-7.7644,10.3129],[-7.7783,10.2783],[-7.7977,10.2603],[-7.829,10.2117],[-7.8474,10.1979],[-7.8828,10.1908],[-7.929,10.161],[-7.9709,10.1551],[-7.9897,10.162],[-7.9626,10.2333],[-7.9712,10.2818],[-7.9963,10.3283],[-8.0157,10.3393],[-8.0961,10.3467],[-8.1155,10.3602],[-8.1254,10.4117],[-8.1354,10.4273],[-8.189,10.4136],[-8.2106,10.4141],[-8.2289,10.4234],[-8.2955,10.5374],[-8.3111,10.7353],[-8.3156,10.7531],[-8.3419,10.7632],[-8.3398,10.7839],[-8.3189,10.8395],[-8.3059,10.8563],[-8.3036,10.8749],[-8.3051,10.9782],[-8.3111,11.0008],[-8.3266,11.0238],[-8.3693,11.0542],[-8.4105,11.0419],[-8.4382,11.0497],[-8.469,11.0464],[-8.5058,11.0528],[-8.5416,10.9838],[-8.5595,10.9716],[-8.5933,10.9647],[-8.648,10.9658],[-8.6809,10.9523],[-8.6962,10.9627],[-8.7007,10.9785],[-8.6969,10.996],[-8.6798,11.0252],[-8.6337,11.0713],[-8.6231,11.0913],[-8.6246,11.122],[-8.6154,11.1341],[-8.5782,11.1421],[-8.5639,11.1934],[-8.5518,11.2107],[-8.4988,11.2335],[-8.5031,11.2554],[-8.4926,11.2778],[-8.4832,11.2849],[-8.4067,11.2753],[-8.3884,11.2814],[-8.3767,11.2947],[-8.371,11.3206],[-8.418,11.3255],[-8.4261,11.3405],[-8.4141,11.3535],[-8.3753,11.3677],[-8.4277,11.4001],[-8.5276,11.4234],[-8.5496,11.4901],[-8.5752,11.4703],[-8.6022,11.4721],[-8.6568,11.4964],[-8.6873,11.55],[-8.7129,11.6401],[-8.7265,11.6495],[-8.7772,11.6359],[-8.8285,11.6592],[-8.8472,11.6579],[-8.797,11.9132],[-8.8149,11.9554],[-8.8198,12.0127],[-8.838,12.0282],[-8.9037,12.0304],[-8.9221,12.0454],[-8.9263,12.0643],[-8.907,12.1254],[-8.906,12.1477],[-8.9139,12.1699],[-8.942,12.1958],[-8.9738,12.1876],[-8.9976,12.2348],[-8.9959,12.261],[-8.9631,12.3242],[-8.9647,12.3463],[-8.9759,12.3687],[-8.9938,12.3875],[-9.1473,12.4655],[-9.2659,12.4952],[-9.2789,12.4944],[-9.2941,12.4838],[-9.3273,12.4975],[-9.3509,12.4846],[-9.3982,12.4732],[-9.4126,12.4554],[-9.4073,12.4451],[-9.3747,12.4111],[-9.3472,12.3965],[-9.3392,12.3706],[-9.3092,12.3577],[-9.3129,12.3261],[-9.3218,12.3102],[-9.335,12.3065],[-9.3319,12.2828],[-9.3368,12.2698],[-9.3602,12.2466],[-9.4215,12.2571],[-9.4389,12.2548],[-9.4796,12.2358],[-9.5156,12.2071],[-9.6282,12.1702],[-9.6751,12.134],[-9.6823,12.1185],[-9.6863,12.0682],[-9.723,12.0254],[-9.7786,12.0267],[-9.8337,12.0551],[-9.8707,12.0521],[-9.9232,12.0876],[-9.9616,12.096],[-10.0277,12.1257],[-10.0602,12.1475],[-10.0973,12.1537],[-10.1287,12.1745],[-10.1798,12.1782],[-10.2149,12.1946],[-10.2478,12.2011],[-10.2669,12.2178],[-10.305,12.2029],[-10.311,12.191],[-10.3236,12.202],[-10.3299,12.1904],[-10.3541,12.1809],[-10.3534,12.1665],[-10.3814,12.1801],[-10.4289,12.1434],[-10.4457,12.1207],[-10.4935,12.1244],[-10.5116,12.1181],[-10.5044,12.0884],[-10.5173,12.0803],[-10.5151,12.0529],[-10.5665,12.0173],[-10.5595,11.9952],[-10.6138,11.9677],[-10.6342,11.9254],[-10.6551,11.899],[-10.67,11.892],[-10.7114,11.8904],[-10.7403,11.9199],[-10.781,11.9962],[-10.8078,12.0228],[-10.811,12.0415],[-10.7985,12.0681],[-10.8049,12.096],[-10.8696,12.1384],[-10.9098,12.2001],[-10.9277,12.213],[-10.9521,12.2195],[-11.0155,12.2044],[-11.0523,12.2025],[-11.0728,12.1495],[-11.1166,12.1137],[-11.1363,12.0851],[-11.1594,12.0775],[-11.1656,12.0486],[-11.1912,12.0144],[-11.2555,11.9962],[-11.275,11.9963],[-11.3347,12.0262],[-11.3917,12.0937],[-11.4096,12.1079],[-11.4708,12.1346],[-11.4896,12.1512],[-11.5078,12.1916],[-11.4917,12.2209],[-11.4632,12.25],[-11.4446,12.2895],[-11.4515,12.3521],[-11.4472,12.3745],[-11.4317,12.383],[-11.3886,12.3845],[-11.3778,12.4802],[-11.3904,12.4975],[-11.4005,12.4795],[-11.417,12.5293],[-11.4247,12.5264],[-11.4298,12.5083],[-11.4495,12.5352],[-11.4678,12.5435],[-11.4398,12.5593],[-11.4374,12.5708],[-11.4418,12.5955],[-11.4368,12.6375],[-11.4418,12.6478],[-11.461,12.6584],[-11.4619,12.6731],[-11.448,12.6859],[-11.4374,12.7122],[-11.4103,12.7188],[-11.4022,12.7317],[-11.4146,12.7597],[-11.4054,12.7823],[-11.4085,12.8045],[-11.4325,12.8355],[-11.4255,12.8496],[-11.4286,12.8658],[-11.4151,12.8967],[-11.4272,12.9186],[-11.4029,12.9164],[-11.3878,12.9271],[-11.3888,12.9706],[-11.4018,12.9895],[-11.4115,12.9607],[-11.4387,12.9589],[-11.4334,12.997],[-11.423,13.0094],[-11.4357,13.0167],[-11.459,13.0547],[-11.4503,13.0751],[-11.5331,13.1118],[-11.5385,13.163],[-11.5693,13.1992],[-11.5723,13.2171],[-11.5543,13.2569],[-11.6058,13.3197],[-11.6131,13.3608],[-11.644,13.3556],[-11.6498,13.3841],[-11.704,13.3804],[-11.7269,13.4058],[-11.7412,13.4078],[-11.7565,13.3998],[-11.7666,13.3832],[-11.7751,13.3433],[-11.8281,13.3073],[-11.8446,13.3238],[-11.8546,13.3506],[-11.8976,13.3712],[-11.9,13.3822],[-11.8835,13.4535],[-11.8904,13.4651],[-11.9182,13.4747],[-11.939,13.503],[-11.9968,13.5442],[-12.0152,13.5644],[-12.0373,13.5983],[-12.0704,13.6732],[-12.0976,13.7044],[-12.0123,13.7512],[-11.9788,13.7848],[-11.9629,13.8295],[-11.9568,13.8903],[-11.9629,13.9092],[-12.0153,13.9593],[-12.0253,13.9852],[-12.0252,14.0267],[-12.0028,14.1035],[-11.9976,14.1662],[-12.0443,14.2649],[-12.0978,14.2881],[-12.1196,14.3106],[-12.1278,14.3243],[-12.113,14.3296],[-12.1087,14.342],[-12.1156,14.3551],[-12.2217,14.3912],[-12.2199,14.4346],[-12.2364,14.5195],[-12.2304,14.5367],[-12.2042,14.5543],[-12.1984,14.5876],[-12.1659,14.6252],[-12.165,14.6419],[-12.1898,14.656],[-12.1922,14.6669],[-12.1803,14.6928],[-12.2228,14.7033],[-12.2366,14.7285],[-12.2565,14.7458],[-12.2641,14.7749]]]}},{"type":"Feature","properties":{"iso":"SEN","nom":"Sénégal"},"geometry":{"type":"Polygon","coordinates":[[[-12.2641,14.7749],[-12.2565,14.7458],[-12.2366,14.7285],[-12.2228,14.7033],[-12.1803,14.6928],[-12.1922,14.6669],[-12.1898,14.656],[-12.165,14.6419],[-12.1659,14.6252],[-12.1984,14.5876],[-12.2042,14.5543],[-12.2304,14.5367],[-12.2364,14.5195],[-12.2199,14.4346],[-12.2217,14.3912],[-12.1156,14.3551],[-12.1087,14.342],[-12.113,14.3296],[-12.1278,14.3243],[-12.1196,14.3106],[-12.0978,14.2881],[-12.0443,14.2649],[-11.9976,14.1662],[-12.0028,14.1035],[-12.0252,14.0267],[-12.0253,13.9852],[-12.0153,13.9593],[-11.9629,13.9092],[-11.9568,13.8903],[-11.9629,13.8295],[-11.9788,13.7848],[-12.0123,13.7512],[-12.0976,13.7044],[-12.0704,13.6732],[-12.0373,13.5983],[-12.0152,13.5644],[-11.9968,13.5442],[-11.939,13.503],[-11.9182,13.4747],[-11.8904,13.4651],[-11.8835,13.4535],[-11.9,13.3822],[-11.8976,13.3712],[-11.8546,13.3506],[-11.8446,13.3238],[-11.8281,13.3073],[-11.7751,13.3433],[-11.7666,13.3832],[-11.7565,13.3998],[-11.7412,13.4078],[-11.7269,13.4058],[-11.704,13.3804],[-11.6498,13.3841],[-11.644,13.3556],[-11.6131,13.3608],[-11.6058,13.3197],[-11.5543,13.2569],[-11.5723,13.2171],[-11.5693,13.1992],[-11.5385,13.163],[-11.5331,13.1118],[-11.4503,13.0751],[-11.459,13.0547],[-11.4357,13.0167],[-11.423,13.0094],[-11.4334,12.997],[-11.4387,12.9589],[-11.4115,12.9607],[-11.4018,12.9895],[-11.3934,12.9808],[-11.3844,12.9331],[-11.4029,12.9164],[-11.4272,12.9186],[-11.4151,12.8967],[-11.4286,12.8658],[-11.4255,12.8496],[-11.4325,12.8355],[-11.4085,12.8045],[-11.4054,12.7823],[-11.4146,12.7597],[-11.4022,12.7317],[-11.4103,12.7188],[-11.4374,12.7122],[-11.448,12.6859],[-11.4619,12.6731],[-11.461,12.6584],[-11.4418,12.6478],[-11.4368,12.6375],[-11.4418,12.5955],[-11.4374,12.5708],[-11.4398,12.5593],[-11.4678,12.5435],[-11.4495,12.5352],[-11.4298,12.5083],[-11.4247,12.5264],[-11.417,12.5293],[-11.4005,12.4795],[-11.3904,12.4975],[-11.3778,12.4802],[-11.3884,12.4039],[-11.416,12.405],[-11.4816,12.4282],[-11.5154,12.4316],[-11.6431,12.4176],[-11.72,12.3895],[-11.7578,12.3833],[-11.8396,12.3867],[-11.9239,12.4188],[-11.9976,12.3864],[-12.0792,12.4081],[-12.104,12.4074],[-12.192,12.3488],[-12.3609,12.3056],[-12.3771,12.3137],[-12.4055,12.3565],[-12.4234,12.3691],[-12.4668,12.3845],[-12.5051,12.3903],[-12.5706,12.3637],[-12.5937,12.3616],[-12.6034,12.3819],[-12.648,12.4258],[-12.6881,12.436],[-12.7733,12.4351],[-12.7835,12.4531],[-12.8386,12.4664],[-12.8491,12.4758],[-12.8492,12.495],[-12.874,12.5164],[-12.9131,12.5363],[-12.9495,12.5359],[-12.9695,12.4768],[-12.981,12.467],[-13.052,12.4723],[-13.0667,12.4801],[-13.0783,12.4962],[-13.0827,12.5157],[-13.0604,12.5834],[-13.0636,12.6223],[-13.0765,12.6359],[-13.0917,12.6382],[-13.1273,12.6348],[-13.1453,12.6439],[-13.1547,12.6328],[-13.1692,12.6388],[-13.2019,12.6334],[-13.2215,12.6484],[-13.2547,12.6418],[-13.2841,12.6533],[-13.3386,12.6392],[-13.4048,12.6618],[-13.7283,12.6734],[-15.1951,12.6794],[-15.2497,12.6636],[-15.3078,12.6227],[-15.3686,12.5954],[-15.4246,12.555],[-15.677,12.4393],[-15.7115,12.4322],[-15.8939,12.4428],[-15.9733,12.4372],[-16.055,12.4612],[-16.0905,12.4643],[-16.1661,12.4514],[-16.1819,12.4434],[-16.2224,12.4551],[-16.4123,12.3617],[-16.4627,12.3613],[-16.5333,12.3478],[-16.6689,12.3567],[-16.7056,12.348],[-16.7284,12.3325],[-16.7441,12.3789],[-16.7987,12.4309],[-16.8008,12.4945],[-16.7814,12.5229],[-16.7317,12.5521],[-16.6788,12.5502],[-16.6454,12.5707],[-16.618,12.6055],[-16.5797,12.6328],[-16.5614,12.6118],[-16.5472,12.5739],[-16.5333,12.5653],[-16.5327,12.5809],[-16.5224,12.5931],[-16.5048,12.598],[-16.3883,12.5516],[-16.371,12.5502],[-16.3513,12.5595],[-16.3273,12.5887],[-16.3096,12.598],[-16.2467,12.588],[-16.2122,12.6064],[-16.1929,12.5776],[-16.115,12.6061],[-16.0576,12.6162],[-16.0298,12.633],[-16.0079,12.6321],[-15.9903,12.6229],[-15.9396,12.5806],[-15.8639,12.5776],[-15.84,12.5571],[-15.8055,12.5645],[-15.7688,12.5926],[-15.7479,12.5837],[-15.7296,12.5915],[-15.7159,12.5818],[-15.6995,12.5837],[-15.6731,12.5444],[-15.6448,12.5373],[-15.5877,12.558],[-15.5387,12.6154],[-15.5098,12.6358],[-15.5071,12.6496],[-15.5299,12.6658],[-15.5213,12.6738],[-15.5402,12.7269],[-15.5434,12.758],[-15.5349,12.783],[-15.5233,12.7899],[-15.4803,12.7905],[-15.4664,12.7965],[-15.4462,12.8246],[-15.4256,12.805],[-15.4068,12.7997],[-15.394,12.8102],[-15.3916,12.8382],[-15.4071,12.8223],[-15.453,12.8314],[-15.4928,12.8071],[-15.5495,12.7943],[-15.5554,12.7796],[-15.5554,12.7216],[-15.5441,12.6841],[-15.5425,12.6494],[-15.641,12.5595],[-15.6529,12.5589],[-15.6721,12.5707],[-15.6664,12.6007],[-15.6968,12.6142],[-15.7677,12.6254],[-15.8158,12.5954],[-15.8335,12.5913],[-15.8485,12.6085],[-15.8605,12.6117],[-15.8896,12.6002],[-15.9133,12.6012],[-15.9533,12.6254],[-15.9527,12.6437],[-15.9812,12.6527],[-16.0011,12.6874],[-16.0132,12.6962],[-16.0221,12.729],[-16.0283,12.729],[-16.0452,12.6905],[-16.0489,12.6564],[-16.0768,12.639],[-16.1177,12.6321],[-16.155,12.6117],[-16.2276,12.6191],[-16.2686,12.6055],[-16.3238,12.6096],[-16.3468,12.598],[-16.371,12.5645],[-16.412,12.5776],[-16.4452,12.5961],[-16.4672,12.6223],[-16.4896,12.6318],[-16.4928,12.6489],[-16.4672,12.6663],[-16.4672,12.6738],[-16.4826,12.6741],[-16.4923,12.6817],[-16.5013,12.7079],[-16.5082,12.6254],[-16.5157,12.6254],[-16.5657,12.6739],[-16.5702,12.6936],[-16.5988,12.664],[-16.6146,12.6601],[-16.6347,12.6694],[-16.6379,12.6936],[-16.5907,12.762],[-16.5969,12.7973],[-16.6037,12.7625],[-16.6384,12.7285],[-16.651,12.7053],[-16.6472,12.6322],[-16.6773,12.6196],[-16.7211,12.5837],[-16.7546,12.5722],[-16.7731,12.583],[-16.7809,12.6088],[-16.7771,12.678],[-16.7612,12.7132],[-16.7355,12.7329],[-16.7006,12.7216],[-16.699,12.7364],[-16.7132,12.7473],[-16.734,12.7514],[-16.7515,12.7454],[-16.7836,12.7126],[-16.7962,12.7153],[-16.7882,12.7321],[-16.7962,12.7488],[-16.7701,12.7934],[-16.7751,12.8109],[-16.7825,12.8109],[-16.7941,12.795],[-16.8003,12.7988],[-16.803,12.814],[-16.7945,12.8388],[-16.7552,12.9035],[-16.7621,12.9512],[-16.7478,13.0403],[-16.7521,13.088],[-16.7084,13.1567],[-16.6735,13.1643],[-15.8333,13.1568],[-15.8266,13.1617],[-15.8187,13.3335],[-15.8071,13.3398],[-15.7374,13.3463],[-15.6925,13.3603],[-15.5961,13.3558],[-15.5195,13.3866],[-15.3792,13.3625],[-15.3424,13.3626],[-15.2771,13.3803],[-15.2483,13.399],[-15.2278,13.4252],[-15.218,13.5147],[-15.204,13.5369],[-15.1605,13.581],[-15.1377,13.59],[-15.0156,13.4961],[-14.9497,13.4631],[-14.8626,13.4471],[-14.8291,13.427],[-14.7903,13.4173],[-14.7316,13.359],[-14.6981,13.3452],[-14.6616,13.3409],[-14.5922,13.3531],[-14.5296,13.3073],[-14.4703,13.2983],[-14.4314,13.2614],[-14.3688,13.2357],[-14.2849,13.2385],[-14.2306,13.2286],[-14.2017,13.2296],[-14.1168,13.2822],[-14.0995,13.282],[-14.0566,13.2972],[-14.0163,13.2976],[-13.9761,13.3082],[-13.9006,13.3146],[-13.851,13.3358],[-13.8226,13.3782],[-13.8187,13.4294],[-13.8427,13.4766],[-13.8846,13.5055],[-13.9013,13.5416],[-13.9421,13.5669],[-13.9885,13.5791],[-14.034,13.5602],[-14.0929,13.5547],[-14.1391,13.5316],[-14.1968,13.5188],[-14.2712,13.477],[-14.3299,13.4564],[-14.3656,13.4548],[-14.4703,13.5224],[-14.4869,13.5465],[-14.5097,13.6091],[-14.5426,13.6408],[-14.5855,13.6605],[-14.6267,13.6635],[-14.6672,13.6529],[-14.7409,13.6154],[-14.8029,13.6523],[-14.8313,13.7356],[-14.8793,13.7806],[-14.9158,13.7924],[-15.0168,13.7969],[-15.0763,13.819],[-15.0977,13.82],[-15.1706,13.7938],[-15.246,13.7467],[-15.2673,13.7418],[-15.3045,13.7819],[-15.3478,13.7886],[-15.3941,13.7715],[-15.4363,13.7412],[-15.4675,13.7083],[-15.4968,13.6483],[-15.5025,13.5883],[-15.5182,13.5831],[-16.5614,13.5869],[-16.5764,13.6122],[-16.5758,13.6403],[-16.5082,13.688],[-16.5293,13.701],[-16.5072,13.7281],[-16.5089,13.7402],[-16.5293,13.7426],[-16.5315,13.7073],[-16.5421,13.6937],[-16.5565,13.6948],[-16.5637,13.6738],[-16.5793,13.6596],[-16.5989,13.6542],[-16.618,13.6601],[-16.6356,13.678],[-16.64,13.6965],[-16.6298,13.7605],[-16.5764,13.8388],[-16.5491,13.8245],[-16.5565,13.8456],[-16.5218,13.8518],[-16.5129,13.8133],[-16.5016,13.802],[-16.487,13.8046],[-16.5006,13.8727],[-16.5157,13.8798],[-16.487,14.0026],[-16.5181,13.9519],[-16.526,13.9105],[-16.5494,13.8693],[-16.5702,13.873],[-16.5802,13.8595],[-16.6379,13.8456],[-16.6487,13.8369],[-16.659,13.8109],[-16.6825,13.7941],[-16.7001,13.769],[-16.7102,13.7736],[-16.7153,13.8063],[-16.7372,13.8196],[-16.7424,13.8394],[-16.7341,13.873],[-16.7445,13.9022],[-16.7468,13.9514],[-16.7372,13.9677],[-16.7025,13.99],[-16.6463,13.983],[-16.6368,13.9749],[-16.6379,13.9617],[-16.599,13.9968],[-16.5764,13.989],[-16.5768,14.011],[-16.5423,14.0373],[-16.5683,14.0303],[-16.581,14.0328],[-16.5907,14.0436],[-16.5455,14.071],[-16.4891,14.1282],[-16.457,14.1374],[-16.4415,14.1566],[-16.4294,14.161],[-16.4047,14.1454],[-16.3647,14.1678],[-16.4277,14.1701],[-16.4547,14.1802],[-16.453,14.2019],[-16.4687,14.1938],[-16.4746,14.1794],[-16.4715,14.1643],[-16.4604,14.1541],[-16.4728,14.1474],[-16.5132,14.151],[-16.5218,14.1262],[-16.5565,14.0715],[-16.6003,14.0542],[-16.6317,14.0101],[-16.6542,14.0028],[-16.7211,14.0163],[-16.6968,14.0647],[-16.68,14.0694],[-16.6523,14.0995],[-16.6656,14.0956],[-16.6786,14.0761],[-16.7279,14.0647],[-16.7161,14.0513],[-16.7171,14.0424],[-16.7689,13.9617],[-16.7734,13.9336],[-16.7689,13.8388],[-16.7751,13.8388],[-16.786,14.0597],[-16.8208,14.1435],[-16.8297,14.1541],[-16.8688,14.1658],[-16.8787,14.1745],[-16.8989,14.26],[-16.9259,14.2912],[-16.9455,14.3014],[-16.9396,14.3559],[-16.9565,14.3901],[-16.9879,14.421],[-17.0595,14.4539],[-17.0705,14.4654],[-17.1115,14.5302],[-17.1378,14.599],[-17.1782,14.6531],[-17.2241,14.6904],[-17.2816,14.7073],[-17.3306,14.7363],[-17.4174,14.7377],[-17.4398,14.7221],[-17.4193,14.709],[-17.4268,14.6944],[-17.4398,14.6885],[-17.4268,14.6749],[-17.4398,14.6538],[-17.536,14.7574],[-17.371,14.8003],[-17.3221,14.839],[-17.173,14.9008],[-17.1387,14.9277],[-16.9797,15.1119],[-16.9479,15.1579],[-16.8782,15.2331],[-16.7392,15.4724],[-16.6697,15.5618],[-16.5343,15.7844],[-16.5423,15.8088],[-16.5197,15.8464],[-16.5099,15.9015],[-16.5075,16.0104],[-16.4704,16.1064],[-16.466,16.1741],[-16.4588,16.1942],[-16.4442,16.2063],[-16.4073,16.2148],[-16.3854,16.2349],[-16.3349,16.4558],[-16.3274,16.4746],[-16.2951,16.5106],[-16.2738,16.5232],[-16.251,16.5276],[-16.1954,16.5227],[-16.1558,16.5475],[-16.1323,16.5548],[-16.1105,16.5469],[-16.074,16.5049],[-16.0538,16.4954],[-16.0073,16.4962],[-15.9856,16.5059],[-15.9581,16.4984],[-15.8969,16.5184],[-15.862,16.5103],[-15.813,16.5138],[-15.7677,16.4995],[-15.7353,16.4977],[-15.6875,16.4805],[-15.6722,16.4814],[-15.6436,16.4947],[-15.6097,16.5213],[-15.5515,16.5151],[-15.5248,16.5222],[-15.4909,16.5645],[-15.464,16.5815],[-15.4488,16.5802],[-15.4269,16.5532],[-15.4145,16.548],[-15.3857,16.5518],[-15.328,16.572],[-15.2325,16.5664],[-15.1251,16.5827],[-15.0932,16.6002],[-15.0962,16.614],[-15.1183,16.6426],[-15.1076,16.6654],[-15.0789,16.665],[-15.0516,16.6342],[-15.0369,16.6326],[-15.0187,16.6461],[-15.0069,16.6758],[-14.9743,16.6914],[-14.9499,16.6723],[-14.9309,16.6434],[-14.9125,16.6406],[-14.882,16.6477],[-14.7112,16.6358],[-14.656,16.6459],[-14.6081,16.6288],[-14.5551,16.6406],[-14.4931,16.6325],[-14.472,16.6364],[-14.4262,16.6596],[-14.4066,16.6608],[-14.3355,16.6315],[-14.3313,16.6241],[-14.3353,16.5865],[-14.278,16.5813],[-14.2681,16.5479],[-14.2142,16.535],[-14.073,16.4007],[-14.0398,16.3821],[-14.0156,16.3559],[-13.9779,16.338],[-13.9712,16.3242],[-13.9793,16.3004],[-13.963,16.2724],[-13.9678,16.246],[-13.9641,16.2301],[-13.9078,16.21],[-13.8838,16.1937],[-13.8591,16.1423],[-13.8358,16.1206],[-13.8192,16.1193],[-13.7949,16.1312],[-13.7467,16.1824],[-13.7294,16.1895],[-13.7106,16.1889],[-13.7228,16.1461],[-13.7196,16.1356],[-13.669,16.1057],[-13.635,16.1216],[-13.607,16.1233],[-13.5691,16.1382],[-13.4849,16.155],[-13.4831,16.141],[-13.4999,16.1106],[-13.5017,16.0951],[-13.4915,16.0884],[-13.4551,16.1022],[-13.44,16.1019],[-13.4221,16.0772],[-13.3886,16.0521],[-13.3837,16.0192],[-13.3698,15.9855],[-13.3159,15.9305],[-13.316,15.8818],[-13.2937,15.8553],[-13.28,15.8229],[-13.2861,15.7696],[-13.2507,15.7428],[-13.2283,15.7113],[-13.2289,15.6966],[-13.2487,15.6567],[-13.2378,15.6234],[-13.1782,15.6282],[-13.1097,15.5964],[-13.0918,15.5751],[-13.095,15.5147],[-13.0838,15.4927],[-13.0389,15.4869],[-12.9958,15.5142],[-12.9802,15.5163],[-12.9643,15.5092],[-12.9549,15.4931],[-12.9509,15.4654],[-12.9331,15.4383],[-12.931,15.397],[-12.919,15.3654],[-12.8473,15.3133],[-12.828,15.2839],[-12.8334,15.27],[-12.8842,15.2708],[-12.8944,15.2634],[-12.8884,15.2509],[-12.8568,15.222],[-12.8064,15.2231],[-12.7872,15.2142],[-12.7795,15.1996],[-12.7847,15.166],[-12.7798,15.1464],[-12.7546,15.1386],[-12.717,15.1034],[-12.6903,15.0924],[-12.6323,15.1054],[-12.6229,15.1023],[-12.6021,15.0788],[-12.519,15.0283],[-12.4849,15.0173],[-12.4715,14.998],[-12.4476,14.9074],[-12.3825,14.846],[-12.3196,14.8172],[-12.2641,14.7749]]]}},{"type":"Feature","properties":{"iso":"MRT","nom":"Mauritanie"},"geometry":{"type":"MultiPolygon","coordinates":[[[[-8.6824,27.2854],[-5.516,25.4233],[-4.8216,24.9951],[-6.5931,24.9941],[-5.9491,19.4956],[-5.6233,16.5278],[-5.6059,16.4959],[-5.3649,16.3349],[-5.3533,16.312],[-5.511,15.4942],[-9.3492,15.4956],[-9.343,15.5869],[-9.3293,15.6552],[-9.3324,15.6876],[-9.3565,15.6979],[-9.3759,15.6859],[-9.437,15.6149],[-9.4517,15.5883],[-9.4518,15.5592],[-9.4239,15.4405],[-9.6721,15.4307],[-9.7208,15.4209],[-9.7974,15.3803],[-9.8356,15.3711],[-9.9514,15.3812],[-10.0676,15.3647],[-10.1083,15.3659],[-10.1316,15.3726],[-10.1884,15.4047],[-10.2232,15.402],[-10.3226,15.4371],[-10.3708,15.4335],[-10.535,15.4417],[-10.6071,15.4244],[-10.7254,15.4331],[-10.7364,15.4226],[-10.7389,15.3622],[-10.7468,15.3411],[-10.7707,15.3247],[-10.7817,15.3084],[-10.811,15.3031],[-10.8272,15.2877],[-10.8441,15.2345],[-10.8909,15.1767],[-10.9152,15.1029],[-10.948,15.152],[-10.9852,15.1875],[-11.0127,15.2396],[-11.0454,15.2702],[-11.2982,15.451],[-11.4096,15.6022],[-11.4348,15.6234],[-11.4582,15.6329],[-11.5244,15.6435],[-11.5131,15.6253],[-11.5154,15.6101],[-11.5243,15.6003],[-11.5792,15.578],[-11.6149,15.5412],[-11.6441,15.5264],[-11.7271,15.5412],[-11.7294,15.4961],[-11.7549,15.4691],[-11.7677,15.4372],[-11.7835,15.3659],[-11.8169,15.2961],[-11.8268,15.2326],[-11.8457,15.1791],[-11.8451,15.1246],[-11.8609,15.049],[-11.851,15.042],[-11.8328,15.049],[-11.8138,15.0285],[-11.8132,14.9959],[-11.8309,14.9264],[-11.8204,14.9],[-11.8371,14.8931],[-11.8775,14.8415],[-11.936,14.8236],[-11.974,14.7798],[-11.9915,14.768],[-12.0111,14.7627],[-12.0497,14.7672],[-12.0704,14.7344],[-12.1389,14.7845],[-12.2033,14.7662],[-12.2468,14.767],[-12.3196,14.8172],[-12.3825,14.846],[-12.4476,14.9074],[-12.4715,14.998],[-12.4849,15.0173],[-12.519,15.0283],[-12.6021,15.0788],[-12.6229,15.1023],[-12.6323,15.1054],[-12.6903,15.0924],[-12.717,15.1034],[-12.7546,15.1386],[-12.7798,15.1464],[-12.7847,15.166],[-12.7795,15.1996],[-12.7872,15.2142],[-12.8064,15.2231],[-12.8568,15.222],[-12.8884,15.2509],[-12.8944,15.2634],[-12.8842,15.2708],[-12.8334,15.27],[-12.828,15.2839],[-12.8473,15.3133],[-12.919,15.3654],[-12.931,15.397],[-12.9331,15.4383],[-12.9509,15.4654],[-12.9549,15.4931],[-12.9643,15.5092],[-12.9802,15.5163],[-12.9958,15.5142],[-13.0389,15.4869],[-13.0838,15.4927],[-13.095,15.5147],[-13.0918,15.5751],[-13.1097,15.5964],[-13.1782,15.6282],[-13.2378,15.6234],[-13.2487,15.6567],[-13.2289,15.6966],[-13.2283,15.7113],[-13.2507,15.7428],[-13.2861,15.7696],[-13.28,15.8229],[-13.2937,15.8553],[-13.316,15.8818],[-13.3159,15.9305],[-13.3698,15.9855],[-13.3837,16.0192],[-13.3886,16.0521],[-13.4221,16.0772],[-13.44,16.1019],[-13.4551,16.1022],[-13.4915,16.0884],[-13.5017,16.0951],[-13.4999,16.1106],[-13.4831,16.141],[-13.4849,16.155],[-13.5691,16.1382],[-13.607,16.1233],[-13.635,16.1216],[-13.669,16.1057],[-13.7196,16.1356],[-13.7228,16.1461],[-13.7106,16.1889],[-13.7294,16.1895],[-13.7467,16.1824],[-13.7949,16.1312],[-13.8192,16.1193],[-13.8358,16.1206],[-13.8591,16.1423],[-13.8838,16.1937],[-13.9078,16.21],[-13.9641,16.2301],[-13.9678,16.246],[-13.963,16.2724],[-13.9793,16.3004],[-13.9712,16.3242],[-13.9779,16.338],[-14.0156,16.3559],[-14.0398,16.3821],[-14.073,16.4007],[-14.2142,16.535],[-14.2681,16.5479],[-14.278,16.5813],[-14.3353,16.5865],[-14.3313,16.6241],[-14.3355,16.6315],[-14.4066,16.6608],[-14.4262,16.6596],[-14.472,16.6364],[-14.4931,16.6325],[-14.5551,16.6406],[-14.6081,16.6288],[-14.656,16.6459],[-14.7112,16.6358],[-14.882,16.6477],[-14.9125,16.6406],[-14.9309,16.6434],[-14.9499,16.6723],[-14.9743,16.6914],[-15.0069,16.6758],[-15.0187,16.6461],[-15.0369,16.6326],[-15.0516,16.6342],[-15.0789,16.665],[-15.1076,16.6654],[-15.1183,16.6426],[-15.0962,16.614],[-15.0932,16.6002],[-15.1251,16.5827],[-15.2325,16.5664],[-15.328,16.572],[-15.3857,16.5518],[-15.4145,16.548],[-15.4269,16.5532],[-15.4488,16.5802],[-15.464,16.5815],[-15.4909,16.5645],[-15.5248,16.5222],[-15.5515,16.5151],[-15.6097,16.5213],[-15.6436,16.4947],[-15.6722,16.4814],[-15.6875,16.4805],[-15.7353,16.4977],[-15.7677,16.4995],[-15.813,16.5138],[-15.862,16.5103],[-15.8969,16.5184],[-15.9581,16.4984],[-15.9856,16.5059],[-16.0073,16.4962],[-16.0538,16.4954],[-16.074,16.5049],[-16.1105,16.5469],[-16.1323,16.5548],[-16.1558,16.5475],[-16.1954,16.5227],[-16.251,16.5276],[-16.2738,16.5232],[-16.3135,16.4933],[-16.3349,16.4558],[-16.3854,16.2349],[-16.4073,16.2148],[-16.4442,16.2063],[-16.4588,16.1942],[-16.466,16.1741],[-16.4704,16.1064],[-16.5075,16.0104],[-16.5099,15.9015],[-16.5197,15.8464],[-16.5423,15.8088],[-16.5273,15.9774],[-16.5392,16.2672],[-16.5293,16.3327],[-16.4945,16.4016],[-16.4862,16.4517],[-16.4672,16.4929],[-16.4672,16.6002],[-16.4592,16.6439],[-16.3791,16.841],[-16.3578,16.8747],[-16.3431,16.9423],[-16.2781,17.0407],[-16.1925,17.2193],[-16.1867,17.2438],[-16.1726,17.2624],[-16.079,17.5448],[-16.049,17.6672],[-16.0242,17.9601],[-16.0352,18.1414],[-16.0694,18.484],[-16.132,18.6286],[-16.1557,18.7525],[-16.173,18.7931],[-16.164,18.8168],[-16.1656,18.8442],[-16.2046,18.9827],[-16.2389,19.061],[-16.2828,19.1304],[-16.3683,19.2215],[-16.4672,19.2593],[-16.5048,19.35],[-16.5355,19.3808],[-16.5218,19.3964],[-16.4637,19.3815],[-16.4078,19.3892],[-16.3592,19.4158],[-16.3232,19.4579],[-16.2849,19.5293],[-16.2859,19.5427],[-16.3073,19.5436],[-16.3915,19.4641],[-16.3505,19.5466],[-16.3647,19.5393],[-16.4263,19.4825],[-16.4342,19.4595],[-16.4289,19.4417],[-16.4399,19.4132],[-16.4551,19.4083],[-16.4651,19.4125],[-16.4672,19.4641],[-16.4316,19.5059],[-16.4225,19.5438],[-16.3846,19.5739],[-16.2891,19.7111],[-16.2708,19.7259],[-16.2643,19.7628],[-16.2338,19.7936],[-16.236,19.8133],[-16.248,19.8278],[-16.2352,19.8424],[-16.2338,19.862],[-16.2549,19.8483],[-16.2578,19.8642],[-16.2435,19.8887],[-16.248,19.9029],[-16.2665,19.9137],[-16.2792,19.9052],[-16.2891,19.8825],[-16.3056,19.873],[-16.3127,19.8776],[-16.3133,19.8897],[-16.298,19.9225],[-16.2391,19.9792],[-16.2225,20.0036],[-16.214,20.0333],[-16.2184,20.0579],[-16.2611,20.1357],[-16.2396,20.1381],[-16.2117,20.1756],[-16.1997,20.2152],[-16.2023,20.2333],[-16.2376,20.29],[-16.2675,20.2982],[-16.2751,20.317],[-16.2951,20.3306],[-16.3232,20.3964],[-16.3479,20.4175],[-16.3505,20.4274],[-16.338,20.4355],[-16.34,20.4411],[-16.3912,20.5695],[-16.4239,20.6013],[-16.4296,20.6442],[-16.4467,20.6365],[-16.4672,20.6496],[-16.4672,20.6571],[-16.4087,20.675],[-16.4808,20.6751],[-16.4945,20.6911],[-16.487,20.698],[-16.5013,20.726],[-16.5293,20.739],[-16.5363,20.6954],[-16.5284,20.5986],[-16.5423,20.5609],[-16.5525,20.5764],[-16.599,20.6111],[-16.6212,20.6465],[-16.6727,20.6776],[-16.6735,20.689],[-16.659,20.698],[-16.6711,20.7371],[-16.7102,20.77],[-16.7137,20.7962],[-16.7341,20.8215],[-16.7454,20.8686],[-16.769,20.9068],[-16.7751,20.9376],[-16.7887,20.924],[-16.8032,20.9374],[-16.8166,20.986],[-16.8404,21.0095],[-16.8494,21.0336],[-16.8733,21.0646],[-16.8985,21.1369],[-16.9176,21.1592],[-16.9312,21.1515],[-16.9573,21.1059],[-17.0159,21.0312],[-17.0084,21.0134],[-16.9972,21.0185],[-17.0044,20.9324],[-17.0084,20.924],[-17.0494,20.9035],[-17.0501,20.8948],[-17.0279,20.8542],[-17.0384,20.7998],[-17.0569,20.7669],[-17.0812,20.8747],[-17.0774,20.9045],[-17.0474,21.0274],[-17.0049,21.1419],[-16.9683,21.3246],[-16.9588,21.3329],[-13.0152,21.3334],[-13.0933,22.4955],[-13.1064,22.5602],[-13.155,22.6888],[-13.1655,22.7527],[-13.1523,22.82],[-13.1199,22.8835],[-13.0152,23.018],[-12.6194,23.2708],[-12.5584,23.2903],[-12.3899,23.3125],[-12.3539,23.3225],[-12.1346,23.4193],[-12.0327,23.445],[-12.0193,23.461],[-12.0153,25.9949],[-8.7072,25.995],[-8.6877,26.0],[-8.6808,26.0131],[-8.6824,27.2854]]],[[[-16.3778,19.8135],[-16.3459,19.8684],[-16.3368,19.8557],[-16.3671,19.7211],[-16.3923,19.6584],[-16.4325,19.6013],[-16.453,19.6292],[-16.4502,19.6565],[-16.464,19.6846],[-16.4263,19.749],[-16.4263,19.7869],[-16.4182,19.8056],[-16.4054,19.8211],[-16.3909,19.8261],[-16.3778,19.8135]]],[[[-16.3209,19.7285],[-16.3096,19.7308],[-16.3016,19.7226],[-16.3977,19.5999],[-16.3586,19.6774],[-16.3209,19.7285]]],[[[-16.4911,19.7251],[-16.4696,19.73],[-16.4715,19.6997],[-16.4842,19.6777],[-16.4919,19.6841],[-16.4969,19.7055],[-16.4911,19.7251]]],[[[-16.4593,20.6147],[-16.4464,20.6073],[-16.4481,20.5745],[-16.4542,20.5711],[-16.4673,20.5762],[-16.4742,20.5942],[-16.4691,20.6091],[-16.4593,20.6147]]]]}}]}