{"type":"FeatureCollection","features":[{"type":"Feature","properties":{"code":"SN-R01","nom":"Kédougou","pays":"SEN","pays_nom":"Sénégal"},"geometry":{"type":"Polygon","coordinates":[[[-11.9,13.3822],[-11.8976,13.3712],[-11.8546,13.3506],[-11.84,13.3169],[-11.8226,13.3067],[-11.7751,13.3433],[-11.7666,13.3832],[-11.7565,13.3998],[-11.7412,13.4078],[-11.7269,13.4058],[-11.704,13.3804],[-11.6498,13.3841],[-11.644,13.3556],[-11.6131,13.3608],[-11.6058,13.3197],[-11.5543,13.2569],[-11.5723,13.2171],[-11.5693,13.1992],[-11.5385,13.163],[-11.5331,13.1118],[-11.4503,13.0751],[-11.459,13.0547],[-11.4357,13.0167],[-11.423,13.0094],[-11.4334,12.997],[-11.4387,12.9589],[-11.4115,12.9607],[-11.4018,12.9895],[-11.3934,12.9808],[-11.3844,12.9331],[-11.4029,12.9164],[-11.4272,12.9186],[-11.4151,12.8967],[-11.4286,12.8658],[-11.4255,12.8496],[-11.4325,12.8355],[-11.4085,12.8045],[-11.4054,12.7823],[-11.4146,12.7597],[-11.4022,12.7317],[-11.4103,12.7188],[-11.4374,12.7122],[-11.448,12.6859],[-11.4619,12.6731],[-11.461,12.6584],[-11.4418,12.6478],[-11.4368,12.6375],[-11.4418,12.5955],[-11.4374,12.5708],[-11.4398,12.5593],[-11.4678,12.5435],[-11.4495,12.5352],[-11.4298,12.5083],[-11.4247,12.5264],[-11.417,12.5293],[-11.4005,12.4795],[-11.3904,12.4975],[-11.3778,12.4802],[-11.3884,12.4039],[-11.416,12.405],[-11.4816,12.4282],[-11.5154,12.4316],[-11.6431,12.4176],[-11.72,12.3895],[-11.7578,12.3833],[-11.8396,12.3867],[-11.9239,12.4188],[-11.9976,12.3864],[-12.0792,12.4081],[-12.104,12.4074],[-12.192,12.3488],[-12.3609,12.3056],[-12.3771,12.3137],[-12.4055,12.3565],[-12.4234,12.3691],[-12.4668,12.3845],[-12.5051,12.3903],[-12.5706,12.3637],[-12.5937,12.3616],[-12.6034,12.3819],[-12.648,12.4258],[-12.6881,12.436],[-12.7733,12.4351],[-12.7835,12.4531],[-12.8386,12.4664],[-12.8491,12.4758],[-12.8492,12.495],[-12.874,12.5164],[-12.9131,12.5363],[-12.9495,12.5359],[-12.9695,12.4768],[-12.981,12.467],[-13.052,12.4723],[-13.0667,12.4801],[-13.0783,12.4962],[-13.0827,12.5157],[-13.0642,12.5662],[-13.0593,12.6035],[-13.0636,12.6223],[-13.0765,12.6359],[-13.1273,12.6348],[-13.1453,12.6439],[-13.1547,12.6328],[-13.1692,12.6388],[-13.2019,12.6334],[-13.2215,12.6484],[-13.2547,12.6418],[-13.2841,12.6533],[-13.3386,12.6392],[-13.3598,12.6497],[-13.3566,12.6653],[-13.3646,12.6847],[-13.3779,12.6906],[-13.407,12.6822],[-13.4429,12.6844],[-13.4664,12.6946],[-13.4808,12.7089],[-13.4727,12.7707],[-13.4891,12.812],[-13.4773,12.8348],[-13.4854,12.8515],[-13.4708,12.8522],[-13.4651,12.8608],[-13.473,12.8918],[-13.5038,12.9232],[-13.5138,12.9515],[-13.5072,12.9654],[-13.5117,12.9964],[-13.5328,13.0104],[-13.5293,13.0291],[-13.5703,13.0663],[-13.572,13.09],[-13.6,13.1155],[-13.607,13.1304],[-13.6145,13.17],[-13.6126,13.2261],[-13.6228,13.2401],[-13.6232,13.2491],[-13.6001,13.2598],[-13.5995,13.3133],[-13.5823,13.3249],[-13.5856,13.3082],[-13.568,13.2976],[-13.5581,13.2994],[-13.5475,13.3174],[-13.5126,13.3299],[-13.4999,13.3258],[-13.5065,13.3044],[-13.4938,13.3093],[-13.4853,13.333],[-13.4761,13.3385],[-13.3967,13.3311],[-13.3646,13.341],[-13.3557,13.3249],[-13.3776,13.2918],[-13.3768,13.2764],[-13.3662,13.2488],[-13.3526,13.2495],[-13.3284,13.2286],[-13.3315,13.2145],[-13.3213,13.191],[-13.3275,13.1645],[-13.3148,13.1536],[-13.3557,13.1393],[-13.3557,13.1331],[-13.3348,13.1241],[-13.3284,13.0437],[-13.3092,13.0218],[-13.2895,13.0169],[-13.2026,13.04],[-13.1733,13.0371],[-13.1469,13.0283],[-13.1292,13.0136],[-13.1116,13.0136],[-13.094,13.0371],[-13.0735,13.0371],[-13.0324,13.0576],[-12.9766,13.0576],[-12.9561,13.0488],[-12.9385,13.0312],[-12.9238,13.0312],[-12.8739,12.9901],[-12.8534,12.9842],[-12.8446,13.0106],[-12.8358,13.0195],[-12.8035,13.0253],[-12.8005,13.0429],[-12.7917,13.0517],[-12.7565,13.0429],[-12.7418,13.0459],[-12.7418,13.0635],[-12.733,13.0811],[-12.6949,13.1134],[-12.7008,13.1603],[-12.6861,13.1721],[-12.645,13.175],[-12.6156,13.1926],[-12.5863,13.175],[-12.5628,13.1721],[-12.5305,13.1809],[-12.5129,13.1926],[-12.5012,13.2132],[-12.4982,13.2337],[-12.4865,13.2484],[-12.466,13.2513],[-12.4601,13.266],[-12.4454,13.2777],[-12.419,13.2836],[-12.3955,13.2777],[-12.3691,13.2513],[-12.3574,13.2542],[-12.3368,13.3071],[-12.3251,13.3129],[-12.2664,13.3071],[-12.2517,13.3247],[-12.2576,13.3482],[-12.2869,13.3834],[-12.2928,13.401],[-12.2781,13.4157],[-12.2781,13.4391],[-12.2547,13.4479],[-12.1402,13.3775],[-12.0786,13.3599],[-12.0668,13.3159],[-12.0463,13.3159],[-12.0199,13.3335],[-11.9934,13.3628],[-11.9,13.3822]]]}},{"type":"Feature","properties":{"code":"SN-R02","nom":"Louga","pays":"SEN","pays_nom":"Sénégal"},"geometry":{"type":"Polygon","coordinates":[[[-16.7353,15.4773],[-16.6697,15.5618],[-16.5389,15.7744],[-16.5343,15.7844],[-16.5409,15.8057],[-16.3777,15.8091],[-16.3398,15.8185],[-16.3041,15.8389],[-16.2575,15.8445],[-16.2265,15.9045],[-16.1681,15.9381],[-16.1508,15.9693],[-16.116,15.9973],[-15.9219,16.1034],[-15.8911,16.1468],[-15.8411,16.1818],[-15.8076,16.1553],[-15.5912,15.9212],[-15.434,15.9317],[-15.4267,15.9985],[-14.8545,15.9974],[-14.7572,15.95],[-14.7047,15.9535],[-14.5922,15.8773],[-14.5414,15.8047],[-14.6213,15.7322],[-14.6612,15.7068],[-14.741,15.6778],[-14.7482,15.4963],[-14.7845,15.4419],[-14.6176,15.3585],[-14.5342,15.3693],[-14.5668,15.2315],[-14.585,15.1226],[-14.542,15.102],[-14.6213,15.0791],[-14.7337,15.0646],[-14.8027,15.0392],[-14.7736,14.9412],[-14.7301,14.8469],[-14.7664,14.7743],[-14.8099,14.7453],[-14.8244,14.6655],[-14.8627,14.6377],[-14.898,14.6771],[-14.9145,14.6734],[-15.0201,14.6126],[-15.0628,14.5999],[-15.0968,14.6032],[-15.2495,14.6329],[-15.2997,14.6514],[-15.4158,14.7195],[-15.4416,14.7472],[-15.453,14.829],[-15.4594,14.8379],[-15.5472,14.835],[-15.5935,14.855],[-15.6212,14.8574],[-15.6741,14.8556],[-15.6999,14.8479],[-15.7177,14.8616],[-15.7301,14.9017],[-15.7765,14.9265],[-15.7916,14.9528],[-15.8103,14.963],[-15.8168,15.0006],[-16.0771,15.0019],[-16.1003,14.9963],[-16.1324,14.969],[-16.1816,14.991],[-16.199,15.0102],[-16.2119,15.0531],[-16.2519,15.1043],[-16.2639,15.1386],[-16.261,15.1854],[-16.268,15.2092],[-16.2863,15.2424],[-16.318,15.2357],[-16.3319,15.3072],[-16.3437,15.3178],[-16.3859,15.3135],[-16.4331,15.3251],[-16.4514,15.3206],[-16.51,15.2472],[-16.5277,15.2031],[-16.5911,15.1338],[-16.6093,15.1283],[-16.6232,15.1449],[-16.6172,15.1809],[-16.6213,15.1914],[-16.6624,15.219],[-16.6909,15.2597],[-16.7169,15.2707],[-16.7227,15.2817],[-16.7204,15.3429],[-16.6953,15.4008],[-16.6904,15.427],[-16.7003,15.4512],[-16.7353,15.4773]]]}},{"type":"Feature","properties":{"code":"SN-R03","nom":"Matam","pays":"SEN","pays_nom":"Sénégal"},"geometry":{"type":"Polygon","coordinates":[[[-13.7196,16.1356],[-13.669,16.1057],[-13.635,16.1216],[-13.607,16.1233],[-13.5691,16.1382],[-13.4849,16.155],[-13.4831,16.141],[-13.4999,16.1106],[-13.5017,16.0951],[-13.4915,16.0884],[-13.4551,16.1022],[-13.44,16.1019],[-13.4221,16.0772],[-13.3886,16.0521],[-13.3837,16.0192],[-13.3698,15.9855],[-13.3159,15.9305],[-13.316,15.8818],[-13.2937,15.8553],[-13.28,15.8229],[-13.2861,15.7696],[-13.2507,15.7428],[-13.2283,15.7113],[-13.2289,15.6966],[-13.2487,15.6567],[-13.2378,15.6234],[-13.1782,15.6282],[-13.1097,15.5964],[-13.0918,15.5751],[-13.095,15.5147],[-13.0838,15.4927],[-13.0389,15.4869],[-12.9958,15.5142],[-12.9802,15.5163],[-12.9643,15.5092],[-12.9549,15.4931],[-12.9509,15.4654],[-12.9331,15.4383],[-12.931,15.397],[-12.919,15.3654],[-12.8473,15.3133],[-12.828,15.2839],[-12.8334,15.27],[-12.8842,15.2708],[-12.8944,15.2634],[-12.8884,15.2509],[-12.8568,15.222],[-12.8064,15.2231],[-12.7872,15.2142],[-12.7795,15.1996],[-12.7847,15.166],[-12.7798,15.1464],[-12.7546,15.1386],[-12.717,15.1034],[-12.6896,15.0925],[-12.5824,14.9495],[-12.5705,14.9102],[-12.5726,14.8937],[-12.6489,14.7063],[-12.7308,14.5847],[-12.7555,14.5655],[-12.9488,14.5462],[-13.2189,14.5946],[-13.2375,14.5871],[-13.5112,14.3985],[-13.7849,14.3943],[-13.8341,14.4018],[-14.2695,14.5625],[-14.3042,14.5852],[-14.313,14.604],[-14.3566,14.6437],[-14.4129,14.6232],[-14.4609,14.5735],[-14.5087,14.5403],[-14.633,14.5109],[-14.6325,14.5501],[-14.6391,14.5567],[-14.8442,14.622],[-14.8627,14.6377],[-14.8244,14.6655],[-14.8099,14.7453],[-14.7664,14.7743],[-14.7301,14.8469],[-14.7736,14.9412],[-14.8027,15.0392],[-14.7337,15.0646],[-14.6213,15.0791],[-14.542,15.102],[-14.585,15.1226],[-14.5668,15.2315],[-14.5342,15.3693],[-14.6176,15.3585],[-14.7845,15.4419],[-14.7482,15.4963],[-14.741,15.6778],[-14.6612,15.7068],[-14.6213,15.7322],[-14.5414,15.8047],[-14.4979,15.7467],[-14.3382,15.6669],[-14.2983,15.6378],[-13.9899,15.8773],[-13.8775,15.9753],[-13.8629,16.0116],[-13.7614,16.0515],[-13.7196,16.1356]]]}},{"type":"Feature","properties":{"code":"SN-R04","nom":"Saint-Louis","pays":"SEN","pays_nom":"Sénégal"},"geometry":{"type":"Polygon","coordinates":[[[-14.9489,16.6706],[-14.9309,16.6434],[-14.9125,16.6406],[-14.882,16.6477],[-14.7112,16.6358],[-14.656,16.6459],[-14.6081,16.6288],[-14.5551,16.6406],[-14.4931,16.6325],[-14.472,16.6364],[-14.4262,16.6596],[-14.4066,16.6608],[-14.3433,16.6367],[-14.3313,16.6241],[-14.3353,16.5865],[-14.278,16.5813],[-14.2681,16.5479],[-14.2142,16.535],[-14.073,16.4007],[-14.0398,16.3821],[-14.0156,16.3559],[-13.9779,16.338],[-13.9712,16.3242],[-13.9793,16.3004],[-13.963,16.2724],[-13.9678,16.246],[-13.9641,16.2301],[-13.9078,16.21],[-13.8838,16.1937],[-13.8591,16.1423],[-13.8448,16.126],[-13.8273,16.1185],[-13.8113,16.1221],[-13.7788,16.1432],[-13.7467,16.1824],[-13.7294,16.1895],[-13.7106,16.1889],[-13.7228,16.1461],[-13.7196,16.1356],[-13.7614,16.0515],[-13.8629,16.0116],[-13.8775,15.9753],[-13.9899,15.8773],[-14.2983,15.6378],[-14.3382,15.6669],[-14.4979,15.7467],[-14.5922,15.8773],[-14.7047,15.9535],[-14.7572,15.95],[-14.8545,15.9974],[-15.4267,15.9985],[-15.434,15.9317],[-15.5912,15.9212],[-15.8076,16.1553],[-15.8411,16.1818],[-15.8911,16.1468],[-15.9219,16.1034],[-16.116,15.9973],[-16.1508,15.9693],[-16.1681,15.9381],[-16.2265,15.9045],[-16.2575,15.8445],[-16.3041,15.8389],[-16.3398,15.8185],[-16.3777,15.8091],[-16.5409,15.8057],[-16.5197,15.8464],[-16.5099,15.9015],[-16.5075,16.0104],[-16.4704,16.1064],[-16.466,16.1741],[-16.4588,16.1942],[-16.4442,16.2063],[-16.4073,16.2148],[-16.3854,16.2349],[-16.3349,16.4558],[-16.3135,16.4933],[-16.2738,16.5232],[-16.251,16.5276],[-16.1954,16.5227],[-16.1558,16.5475],[-16.1323,16.5548],[-16.1105,16.5469],[-16.074,16.5049],[-16.0538,16.4954],[-16.0073,16.4962],[-15.9856,16.5059],[-15.9581,16.4984],[-15.8969,16.5184],[-15.862,16.5103],[-15.813,16.5138],[-15.7677,16.4995],[-15.7353,16.4977],[-15.6875,16.4805],[-15.6722,16.4814],[-15.6436,16.4947],[-15.6097,16.5213],[-15.5515,16.5151],[-15.5248,16.5222],[-15.4909,16.5645],[-15.464,16.5815],[-15.4488,16.5802],[-15.4269,16.5532],[-15.4145,16.548],[-15.3857,16.5518],[-15.328,16.572],[-15.2325,16.5664],[-15.1251,16.5827],[-15.0932,16.6002],[-15.0962,16.614],[-15.1183,16.6426],[-15.1076,16.6654],[-15.0789,16.665],[-15.0444,16.6319],[-15.0237,16.64],[-15.0134,16.6666],[-14.9966,16.6824],[-14.9743,16.6914],[-14.9489,16.6706]]]}},{"type":"Feature","properties":{"code":"SN-R05","nom":"Tambacounda","pays":"SEN","pays_nom":"Sénégal"},"geometry":{"type":"Polygon","coordinates":[[[-12.2641,14.7749],[-12.2565,14.7458],[-12.2366,14.7285],[-12.2228,14.7033],[-12.1803,14.6928],[-12.1922,14.6669],[-12.1898,14.656],[-12.165,14.6419],[-12.1659,14.6252],[-12.1984,14.5876],[-12.2042,14.5543],[-12.2304,14.5367],[-12.2364,14.5195],[-12.2199,14.4346],[-12.2217,14.3912],[-12.1156,14.3551],[-12.1087,14.342],[-12.113,14.3296],[-12.1278,14.3243],[-12.1196,14.3106],[-12.0978,14.2881],[-12.0443,14.2649],[-11.9976,14.1662],[-12.0028,14.1035],[-12.0252,14.0267],[-12.0253,13.9852],[-12.0153,13.9593],[-11.9629,13.9092],[-11.9568,13.8903],[-11.9629,13.8295],[-11.9788,13.7848],[-12.0123,13.7512],[-12.0976,13.7044],[-12.0704,13.6732],[-12.0373,13.5983],[-12.0152,13.5644],[-11.9968,13.5442],[-11.939,13.503],[-11.9182,13.4747],[-11.8904,13.4651],[-11.8835,13.4535],[-11.9,13.3822],[-11.9934,13.3628],[-12.0199,13.3335],[-12.0463,13.3159],[-12.0668,13.3159],[-12.0786,13.3599],[-12.1402,13.3775],[-12.2547,13.4479],[-12.2781,13.4391],[-12.2781,13.4157],[-12.2928,13.401],[-12.2869,13.3834],[-12.2576,13.3482],[-12.2517,13.3247],[-12.2664,13.3071],[-12.3251,13.3129],[-12.3368,13.3071],[-12.3574,13.2542],[-12.3691,13.2513],[-12.3955,13.2777],[-12.419,13.2836],[-12.4454,13.2777],[-12.4601,13.266],[-12.466,13.2513],[-12.4865,13.2484],[-12.4982,13.2337],[-12.5012,13.2132],[-12.5129,13.1926],[-12.5305,13.1809],[-12.5628,13.1721],[-12.5863,13.175],[-12.6156,13.1926],[-12.645,13.175],[-12.6861,13.1721],[-12.7008,13.1603],[-12.6949,13.1134],[-12.733,13.0811],[-12.7418,13.0635],[-12.7418,13.0459],[-12.7565,13.0429],[-12.7917,13.0517],[-12.8005,13.0429],[-12.8035,13.0253],[-12.8358,13.0195],[-12.8446,13.0106],[-12.8534,12.9842],[-12.8739,12.9901],[-12.9238,13.0312],[-12.9385,13.0312],[-12.9561,13.0488],[-12.9766,13.0576],[-13.0324,13.0576],[-13.0735,13.0371],[-13.094,13.0371],[-13.1116,13.0136],[-13.1292,13.0136],[-13.1469,13.0283],[-13.1733,13.0371],[-13.2026,13.04],[-13.2895,13.0169],[-13.3092,13.0218],[-13.3284,13.0437],[-13.3348,13.1241],[-13.3557,13.1331],[-13.3557,13.1393],[-13.3148,13.1536],[-13.3275,13.1645],[-13.3213,13.191],[-13.3315,13.2145],[-13.3284,13.2286],[-13.3526,13.2495],[-13.3662,13.2488],[-13.3768,13.2764],[-13.3776,13.2918],[-13.3557,13.3249],[-13.3646,13.341],[-13.3967,13.3311],[-13.4761,13.3385],[-13.4853,13.333],[-13.4938,13.3093],[-13.5065,13.3044],[-13.4999,13.3258],[-13.5126,13.3299],[-13.5475,13.3174],[-13.5581,13.2994],[-13.568,13.2976],[-13.5856,13.3082],[-13.5823,13.3249],[-13.5995,13.3133],[-13.6001,13.2598],[-13.6232,13.2491],[-13.6228,13.2401],[-13.6412,13.2414],[-13.6485,13.2464],[-13.6578,13.2735],[-13.6903,13.2941],[-13.688,13.3249],[-13.7046,13.341],[-13.6924,13.3622],[-13.6955,13.3721],[-13.7511,13.3684],[-13.7701,13.3746],[-13.771,13.3836],[-13.7596,13.3997],[-13.7569,13.4282],[-13.7288,13.4637],[-13.7639,13.4776],[-13.7947,13.4683],[-13.8076,13.4743],[-13.8101,13.4858],[-13.8008,13.5014],[-13.7984,13.534],[-13.8296,13.5356],[-13.8436,13.5155],[-13.8825,13.5038],[-13.9013,13.5416],[-13.9181,13.555],[-13.9885,13.5791],[-14.034,13.5602],[-14.0929,13.5547],[-14.1391,13.5316],[-14.1968,13.5188],[-14.2712,13.477],[-14.3299,13.4564],[-14.3656,13.4548],[-14.4703,13.5224],[-14.4869,13.5465],[-14.5097,13.6091],[-14.5232,13.6257],[-14.5855,13.6605],[-14.6267,13.6635],[-14.6672,13.6529],[-14.7409,13.6154],[-14.796,13.6447],[-14.8313,13.7356],[-14.8603,13.7656],[-14.8382,13.8092],[-14.8126,13.84],[-14.7157,13.8633],[-14.6287,13.9391],[-14.6185,13.9987],[-14.5947,14.0104],[-14.5864,14.0236],[-14.5774,14.0816],[-14.5886,14.1456],[-14.593,14.2216],[-14.6337,14.3226],[-14.633,14.5109],[-14.5087,14.5403],[-14.4609,14.5735],[-14.4311,14.6079],[-14.3979,14.6308],[-14.3566,14.6437],[-14.313,14.604],[-14.3042,14.5852],[-14.2695,14.5625],[-13.8341,14.4018],[-13.7849,14.3943],[-13.5112,14.3985],[-13.2375,14.5871],[-13.2189,14.5946],[-12.9488,14.5462],[-12.7555,14.5655],[-12.7308,14.5847],[-12.6489,14.7063],[-12.5726,14.8937],[-12.5705,14.9102],[-12.5824,14.9495],[-12.6896,15.0925],[-12.6323,15.1054],[-12.6021,15.0788],[-12.5296,15.0344],[-12.4849,15.0173],[-12.4715,14.998],[-12.4476,14.9074],[-12.3825,14.846],[-12.3196,14.8172],[-12.2641,14.7749]]]}},{"type":"Feature","properties":{"code":"MR-R01","nom":"Brakna","pays":"MRT","pays_nom":"Mauritanie"},"geometry":{"type":"Polygon","coordinates":[[[-14.9125,16.6406],[-14.9309,16.6434],[-14.9489,16.6706],[-14.9326,16.6905],[-14.8348,16.7518],[-14.698,16.8243],[-14.6202,16.8556],[-14.5692,16.9094],[-14.3202,17.0881],[-13.9587,17.6035],[-13.7337,17.8],[-12.6691,18.557],[-12.4787,18.2742],[-12.5061,17.9977],[-12.5448,17.4919],[-12.4096,17.3556],[-12.3102,17.2754],[-12.337,17.2564],[-12.3387,17.2382],[-12.3482,17.2273],[-12.4198,17.2079],[-12.4384,17.1896],[-12.4691,17.186],[-12.4915,17.1681],[-12.5179,17.1212],[-12.6074,17.0818],[-12.6331,17.0848],[-12.6777,17.072],[-12.6977,17.054],[-12.7279,17.0471],[-12.8104,16.9493],[-12.8184,16.9286],[-12.8254,16.8212],[-12.8727,16.7554],[-12.9315,16.6164],[-13.0161,16.5852],[-13.1101,16.5759],[-13.158,16.5204],[-13.1635,16.4403],[-13.1816,16.414],[-13.5899,16.3079],[-13.6325,16.2896],[-13.6494,16.2056],[-13.6686,16.1822],[-13.7183,16.1593],[-13.7106,16.1889],[-13.7382,16.1871],[-13.7788,16.1432],[-13.8113,16.1221],[-13.8273,16.1185],[-13.8528,16.1335],[-13.8838,16.1937],[-13.9078,16.21],[-13.9641,16.2301],[-13.9678,16.246],[-13.963,16.2724],[-13.9793,16.3004],[-13.9712,16.3242],[-13.9779,16.338],[-14.0156,16.3559],[-14.0398,16.3821],[-14.073,16.4007],[-14.2142,16.535],[-14.2681,16.5479],[-14.278,16.5813],[-14.3353,16.5865],[-14.3313,16.6241],[-14.3433,16.6367],[-14.4066,16.6608],[-14.4262,16.6596],[-14.472,16.6364],[-14.4931,16.6325],[-14.5551,16.6406],[-14.6081,16.6288],[-14.656,16.6459],[-14.7112,16.6358],[-14.882,16.6477],[-14.9125,16.6406]]]}},{"type":"Feature","properties":{"code":"MR-R02","nom":"Gorgol","pays":"MRT","pays_nom":"Mauritanie"},"geometry":{"type":"Polygon","coordinates":[[[-13.669,16.1057],[-13.7196,16.1356],[-13.7228,16.1461],[-13.7183,16.1593],[-13.6686,16.1822],[-13.6494,16.2056],[-13.6325,16.2896],[-13.5899,16.3079],[-13.1816,16.414],[-13.1635,16.4403],[-13.158,16.5204],[-13.1101,16.5759],[-13.0161,16.5852],[-12.9315,16.6164],[-12.8727,16.7554],[-12.8254,16.8212],[-12.823,16.8583],[-12.8016,16.8224],[-12.8347,16.7424],[-12.8315,16.6737],[-12.7788,16.6422],[-12.7632,16.612],[-12.7515,16.5654],[-12.7357,16.553],[-12.7361,16.5336],[-12.7471,16.5109],[-12.7665,16.494],[-12.7622,16.4589],[-12.7049,16.4561],[-12.6826,16.4767],[-12.6576,16.4851],[-12.4294,16.4428],[-12.4306,16.4112],[-12.4144,16.3448],[-12.4126,16.3043],[-12.4331,16.2354],[-12.4278,16.2055],[-12.3884,16.209],[-12.3509,16.2412],[-12.3124,16.2567],[-12.256,16.2369],[-12.2402,16.2205],[-12.234,16.1414],[-12.2222,16.1218],[-12.187,16.1221],[-12.1543,16.1075],[-12.1428,16.1205],[-12.0984,16.1067],[-12.0518,16.0561],[-12.0103,16.0521],[-12.0194,15.9795],[-12.0049,15.9394],[-12.0746,15.9174],[-12.1418,15.8858],[-12.1926,15.8925],[-12.2375,15.8806],[-12.2594,15.8613],[-12.2927,15.808],[-12.4631,15.6585],[-12.4868,15.608],[-12.4941,15.5682],[-12.533,15.5402],[-12.5877,15.4739],[-12.6749,15.3365],[-12.7054,15.2709],[-12.7466,15.1311],[-12.7798,15.1464],[-12.7847,15.166],[-12.7795,15.1996],[-12.7872,15.2142],[-12.8064,15.2231],[-12.8568,15.222],[-12.8884,15.2509],[-12.8944,15.2634],[-12.8842,15.2708],[-12.8334,15.27],[-12.828,15.2839],[-12.8473,15.3133],[-12.919,15.3654],[-12.931,15.397],[-12.9331,15.4383],[-12.9509,15.4654],[-12.9549,15.4931],[-12.9643,15.5092],[-12.9802,15.5163],[-12.9958,15.5142],[-13.0389,15.4869],[-13.0838,15.4927],[-13.095,15.5147],[-13.0918,15.5751],[-13.1097,15.5964],[-13.1782,15.6282],[-13.2378,15.6234],[-13.2487,15.6567],[-13.2289,15.6966],[-13.2283,15.7113],[-13.2507,15.7428],[-13.2861,15.7696],[-13.28,15.8229],[-13.2937,15.8553],[-13.316,15.8818],[-13.3159,15.9305],[-13.3698,15.9855],[-13.3837,16.0192],[-13.3886,16.0521],[-13.4221,16.0772],[-13.44,16.1019],[-13.4551,16.1022],[-13.4915,16.0884],[-13.5017,16.0951],[-13.4999,16.1106],[-13.4831,16.141],[-13.4849,16.155],[-13.5691,16.1382],[-13.607,16.1233],[-13.635,16.1216],[-13.669,16.1057]]]}},{"type":"Feature","properties":{"code":"MR-R03","nom":"Guidimaka","pays":"MRT","pays_nom":"Mauritanie"},"geometry":{"type":"Polygon","coordinates":[[[-12.6903,15.0924],[-12.717,15.1034],[-12.7466,15.1311],[-12.7054,15.2709],[-12.6749,15.3365],[-12.5877,15.4739],[-12.533,15.5402],[-12.4941,15.5682],[-12.4868,15.608],[-12.4631,15.6585],[-12.2927,15.808],[-12.2594,15.8613],[-12.2375,15.8806],[-12.1926,15.8925],[-12.1418,15.8858],[-12.0746,15.9174],[-12.0049,15.9394],[-11.9745,15.9342],[-11.9362,15.9018],[-11.8827,15.9123],[-11.8342,15.9091],[-11.837,15.9254],[-11.8314,15.9415],[-11.8034,15.9563],[-11.7962,15.9727],[-11.821,16.0396],[-11.8126,16.0554],[-11.7896,16.0381],[-11.7371,16.0444],[-11.7243,16.0342],[-11.6772,16.0311],[-11.6073,15.9856],[-11.5003,15.9693],[-11.5165,15.9456],[-11.5538,15.9198],[-11.5611,15.9048],[-11.5565,15.8842],[-11.5687,15.8595],[-11.5918,15.8433],[-11.6127,15.7674],[-11.651,15.7264],[-11.6693,15.6257],[-11.6933,15.5797],[-11.7017,15.5374],[-11.7271,15.5412],[-11.7294,15.4961],[-11.7549,15.4691],[-11.7835,15.3659],[-11.8169,15.2961],[-11.8268,15.2326],[-11.8457,15.1791],[-11.8451,15.1246],[-11.8609,15.049],[-11.851,15.042],[-11.8328,15.049],[-11.8138,15.0285],[-11.8132,14.9959],[-11.8309,14.9264],[-11.8204,14.9],[-11.8371,14.8931],[-11.8775,14.8415],[-11.936,14.8236],[-11.974,14.7798],[-11.9915,14.768],[-12.0111,14.7627],[-12.0497,14.7672],[-12.0704,14.7344],[-12.1389,14.7845],[-12.2033,14.7662],[-12.2468,14.767],[-12.3196,14.8172],[-12.3825,14.846],[-12.4476,14.9074],[-12.4715,14.998],[-12.4849,15.0173],[-12.519,15.0283],[-12.6021,15.0788],[-12.6229,15.1023],[-12.6323,15.1054],[-12.6903,15.0924]]]}},{"type":"Feature","properties":{"code":"MR-R04","nom":"Trarza","pays":"MRT","pays_nom":"Mauritanie"},"geometry":{"type":"Polygon","coordinates":[[[-14.9489,16.6706],[-14.9743,16.6914],[-14.9966,16.6824],[-15.0134,16.6666],[-15.0237,16.64],[-15.0444,16.6319],[-15.0789,16.665],[-15.1076,16.6654],[-15.1183,16.6426],[-15.0962,16.614],[-15.0932,16.6002],[-15.1251,16.5827],[-15.2325,16.5664],[-15.328,16.572],[-15.3857,16.5518],[-15.4145,16.548],[-15.4269,16.5532],[-15.4488,16.5802],[-15.464,16.5815],[-15.4909,16.5645],[-15.5248,16.5222],[-15.5515,16.5151],[-15.6097,16.5213],[-15.6436,16.4947],[-15.6722,16.4814],[-15.6875,16.4805],[-15.7353,16.4977],[-15.7677,16.4995],[-15.813,16.5138],[-15.862,16.5103],[-15.8969,16.5184],[-15.9581,16.4984],[-15.9856,16.5059],[-16.0073,16.4962],[-16.0538,16.4954],[-16.074,16.5049],[-16.1105,16.5469],[-16.1323,16.5548],[-16.1558,16.5475],[-16.1954,16.5227],[-16.251,16.5276],[-16.2738,16.5232],[-16.3135,16.4933],[-16.3349,16.4558],[-16.3854,16.2349],[-16.4073,16.2148],[-16.4442,16.2063],[-16.4588,16.1942],[-16.466,16.1741],[-16.4704,16.1064],[-16.5075,16.0104],[-16.5099,15.9015],[-16.5197,15.8464],[-16.5423,15.8088],[-16.5273,15.9774],[-16.5392,16.2672],[-16.5293,16.3327],[-16.4945,16.4016],[-16.4862,16.4517],[-16.4672,16.4929],[-16.4672,16.6002],[-16.4592,16.6439],[-16.3791,16.841],[-16.3578,16.8747],[-16.3431,16.9423],[-16.2781,17.0407],[-16.1925,17.2193],[-16.1867,17.2438],[-16.1726,17.2624],[-16.079,17.5448],[-16.049,17.6672],[-16.0321,17.8864],[-15.7815,17.8866],[-15.7811,18.3931],[-16.0601,18.3909],[-16.0694,18.484],[-16.132,18.6286],[-16.1557,18.7525],[-16.173,18.7931],[-16.164,18.8168],[-16.1656,18.8442],[-16.2104,18.9959],[-13.2442,19.0005],[-12.6691,18.557],[-13.7337,17.8],[-13.9587,17.6035],[-14.3202,17.0881],[-14.5692,16.9094],[-14.6202,16.8556],[-14.698,16.8243],[-14.8348,16.7518],[-14.9326,16.6905],[-14.9489,16.6706]]]}},{"type":"Feature","properties":{"code":"ML-R01","nom":"Kayes","pays":"MLI","pays_nom":"Mali"},"geometry":{"type":"Polygon","coordinates":[[[-11.8226,13.3067],[-11.84,13.3169],[-11.8546,13.3506],[-11.8976,13.3712],[-11.9,13.3822],[-11.8835,13.4535],[-11.8904,13.4651],[-11.9182,13.4747],[-11.939,13.503],[-11.9968,13.5442],[-12.0152,13.5644],[-12.0373,13.5983],[-12.0704,13.6732],[-12.0976,13.7044],[-12.0123,13.7512],[-11.9788,13.7848],[-11.9629,13.8295],[-11.9568,13.8903],[-11.9629,13.9092],[-12.0153,13.9593],[-12.0253,13.9852],[-12.0252,14.0267],[-12.0028,14.1035],[-11.9976,14.1662],[-12.0443,14.2649],[-12.0978,14.2881],[-12.1196,14.3106],[-12.1278,14.3243],[-12.113,14.3296],[-12.1087,14.342],[-12.1156,14.3551],[-12.2217,14.3912],[-12.2199,14.4346],[-12.2364,14.5195],[-12.2304,14.5367],[-12.2042,14.5543],[-12.1984,14.5876],[-12.1659,14.6252],[-12.165,14.6419],[-12.1898,14.656],[-12.1922,14.6669],[-12.1803,14.6928],[-12.2228,14.7033],[-12.2366,14.7285],[-12.2565,14.7458],[-12.2641,14.7749],[-12.2248,14.7634],[-12.1389,14.7845],[-12.0704,14.7344],[-12.0497,14.7672],[-12.0111,14.7627],[-11.9915,14.768],[-11.974,14.7798],[-11.936,14.8236],[-11.8775,14.8415],[-11.8371,14.8931],[-11.8204,14.9],[-11.8309,14.9264],[-11.8132,14.9959],[-11.8138,15.0285],[-11.8328,15.049],[-11.851,15.042],[-11.8609,15.049],[-11.8451,15.1246],[-11.8457,15.1791],[-11.8268,15.2326],[-11.8169,15.2961],[-11.7835,15.3659],[-11.7677,15.4372],[-11.7549,15.4691],[-11.7294,15.4961],[-11.7271,15.5412],[-11.6441,15.5264],[-11.6149,15.5412],[-11.5792,15.578],[-11.5243,15.6003],[-11.5154,15.6101],[-11.5131,15.6253],[-11.5273,15.6426],[-11.4582,15.6329],[-11.4348,15.6234],[-11.4096,15.6022],[-11.2982,15.451],[-11.0454,15.2702],[-11.0127,15.2396],[-10.9852,15.1875],[-10.948,15.152],[-10.9152,15.1029],[-10.8909,15.1767],[-10.8441,15.2345],[-10.8272,15.2877],[-10.811,15.3031],[-10.7817,15.3084],[-10.7707,15.3247],[-10.7468,15.3411],[-10.7389,15.3622],[-10.7364,15.4226],[-10.7254,15.4331],[-10.6071,15.4244],[-10.535,15.4417],[-10.3708,15.4335],[-10.3226,15.4371],[-10.2232,15.402],[-10.1884,15.4047],[-10.1316,15.3726],[-10.1083,15.3659],[-10.0676,15.3647],[-9.9514,15.3812],[-9.8356,15.3711],[-9.7974,15.3803],[-9.7208,15.4209],[-9.6721,15.4307],[-9.4239,15.4405],[-9.4518,15.5592],[-9.4517,15.5883],[-9.437,15.6149],[-9.3759,15.6859],[-9.3565,15.6979],[-9.3324,15.6876],[-9.3293,15.6552],[-9.343,15.5869],[-9.3492,15.4956],[-9.1414,15.4956],[-9.122,15.4739],[-8.99,15.368],[-8.849,15.2929],[-8.8041,15.245],[-8.796,15.2209],[-8.788,15.143],[-8.741,15.026],[-8.677,14.982],[-8.571,14.9759],[-8.507,14.963],[-8.492,14.942],[-8.4751,14.8759],[-8.485,14.733],[-8.463,14.6979],[-8.3001,14.5809],[-8.237,14.5199],[-8.164,14.5029],[-8.1501,14.488],[-8.16,14.434],[-8.1321,14.34],[-8.162,14.32],[-8.272,14.3049],[-8.3261,14.3159],[-8.443,14.2979],[-8.472,14.3009],[-8.499,14.3259],[-8.529,14.3799],[-8.55,14.402],[-8.571,14.4129],[-8.594,14.408],[-8.6171,14.36],[-8.65,14.314],[-8.7221,14.2879],[-8.8094,14.2882],[-8.764,14.1808],[-8.7579,14.1374],[-8.7647,14.109],[-8.797,14.1139],[-8.8187,14.1062],[-8.8237,14.0926],[-8.8184,14.0576],[-8.8406,14.0039],[-8.8552,13.9892],[-8.8466,13.9687],[-8.8151,13.9422],[-8.7874,13.932],[-8.7687,13.905],[-8.7513,13.9166],[-8.723,13.8657],[-8.7039,13.8504],[-8.618,13.837],[-8.5926,13.8395],[-8.5797,13.8631],[-8.5938,13.8662],[-8.5927,13.8793],[-8.5764,13.9115],[-8.5729,13.9363],[-8.5661,13.9457],[-8.546,13.9517],[-8.5119,13.9523],[-8.4847,13.943],[-8.4648,13.9227],[-8.4526,13.8904],[-8.4576,13.8231],[-8.4897,13.7881],[-8.5142,13.7443],[-8.5514,13.7036],[-8.5549,13.6834],[-8.5406,13.5687],[-8.5153,13.5456],[-8.4966,13.5083],[-8.4566,13.463],[-8.4488,13.4235],[-8.4515,13.4042],[-8.4618,13.3902],[-8.4865,13.377],[-8.4943,13.3658],[-8.5264,13.2596],[-8.5555,13.2177],[-8.5607,13.1967],[-8.5643,13.133],[-8.5788,13.0989],[-8.5713,13.0067],[-8.5793,12.9781],[-8.6337,12.8846],[-8.6342,12.8594],[-8.5982,12.8069],[-8.682,12.7629],[-8.723,12.714],[-8.762,12.6899],[-8.854,12.6689],[-8.891,12.65],[-8.924,12.586],[-9.003,12.523],[-9.045,12.4469],[-9.0101,12.4239],[-9.0278,12.4048],[-9.1473,12.4655],[-9.2659,12.4952],[-9.2789,12.4944],[-9.2941,12.4838],[-9.3273,12.4975],[-9.3509,12.4846],[-9.3982,12.4732],[-9.4126,12.4554],[-9.4073,12.4451],[-9.3747,12.4111],[-9.3472,12.3965],[-9.3392,12.3706],[-9.3092,12.3577],[-9.3129,12.3261],[-9.3218,12.3102],[-9.335,12.3065],[-9.3319,12.2828],[-9.3368,12.2698],[-9.3602,12.2466],[-9.4215,12.2571],[-9.4389,12.2548],[-9.4796,12.2358],[-9.5156,12.2071],[-9.6282,12.1702],[-9.6751,12.134],[-9.6823,12.1185],[-9.6863,12.0682],[-9.723,12.0254],[-9.7786,12.0267],[-9.8337,12.0551],[-9.8707,12.0521],[-9.9232,12.0876],[-9.9616,12.096],[-10.0277,12.1257],[-10.0602,12.1475],[-10.0973,12.1537],[-10.1287,12.1745],[-10.1798,12.1782],[-10.2149,12.1946],[-10.2478,12.2011],[-10.2669,12.2178],[-10.305,12.2029],[-10.311,12.191],[-10.3236,12.202],[-10.3299,12.1904],[-10.3541,12.1809],[-10.3534,12.1665],[-10.3814,12.1801],[-10.4289,12.1434],[-10.4457,12.1207],[-10.4935,12.1244],[-10.5116,12.1181],[-10.5044,12.0884],[-10.5173,12.0803],[-10.5151,12.0529],[-10.5665,12.0173],[-10.5595,11.9952],[-10.6138,11.9677],[-10.6342,11.9254],[-10.6551,11.899],[-10.67,11.892],[-10.7114,11.8904],[-10.7403,11.9199],[-10.781,11.9962],[-10.8078,12.0228],[-10.811,12.0415],[-10.7985,12.0681],[-10.8049,12.096],[-10.8696,12.1384],[-10.9098,12.2001],[-10.9277,12.213],[-10.9521,12.2195],[-11.0155,12.2044],[-11.0523,12.2025],[-11.0728,12.1495],[-11.1166,12.1137],[-11.1363,12.0851],[-11.1594,12.0775],[-11.1656,12.0486],[-11.1912,12.0144],[-11.2555,11.9962],[-11.275,11.9963],[-11.3151,12.0133],[-11.3513,12.0404],[-11.3917,12.0937],[-11.4096,12.1079],[-11.4708,12.1346],[-11.4896,12.1512],[-11.5078,12.1916],[-11.4917,12.2209],[-11.4632,12.25],[-11.4446,12.2895],[-11.4515,12.3521],[-11.4472,12.3745],[-11.4317,12.383],[-11.3886,12.3845],[-11.3778,12.4802],[-11.3904,12.4975],[-11.4005,12.4795],[-11.417,12.5293],[-11.4247,12.5264],[-11.4298,12.5083],[-11.4495,12.5352],[-11.4678,12.5435],[-11.4398,12.5593],[-11.4374,12.5708],[-11.4418,12.5955],[-11.4368,12.6375],[-11.4418,12.6478],[-11.461,12.6584],[-11.4619,12.6731],[-11.448,12.6859],[-11.4374,12.7122],[-11.4103,12.7188],[-11.4022,12.7317],[-11.4146,12.7597],[-11.4054,12.7823],[-11.4085,12.8045],[-11.4325,12.8355],[-11.4255,12.8496],[-11.4286,12.8658],[-11.4151,12.8967],[-11.4272,12.9186],[-11.4029,12.9164],[-11.3878,12.9271],[-11.3888,12.9706],[-11.4018,12.9895],[-11.4115,12.9607],[-11.4387,12.9589],[-11.4334,12.997],[-11.423,13.0094],[-11.4357,13.0167],[-11.459,13.0547],[-11.4503,13.0751],[-11.5331,13.1118],[-11.5385,13.163],[-11.5693,13.1992],[-11.5723,13.2171],[-11.5543,13.2569],[-11.6058,13.3197],[-11.6131,13.3608],[-11.644,13.3556],[-11.6498,13.3841],[-11.704,13.3804],[-11.7269,13.4058],[-11.7412,13.4078],[-11.7565,13.3998],[-11.7666,13.3832],[-11.7751,13.3433],[-11.8226,13.3067]]]}},{"type":"Feature","properties":{"code":"ML-R02","nom":"Koulikoro","pays":"MLI","pays_nom":"Mali"},"geometry":{"type":"Polygon","coordinates":[[[-8.9738,12.1876],[-8.9976,12.2348],[-8.9959,12.261],[-8.9631,12.3242],[-8.9647,12.3463],[-8.9938,12.3875],[-9.0278,12.4048],[-9.0101,12.4239],[-9.045,12.4469],[-9.003,12.523],[-8.924,12.586],[-8.891,12.65],[-8.854,12.6689],[-8.762,12.6899],[-8.723,12.714],[-8.682,12.7629],[-8.5982,12.8069],[-8.6342,12.8594],[-8.6337,12.8846],[-8.5793,12.9781],[-8.5713,13.0067],[-8.5788,13.0989],[-8.5643,13.133],[-8.5607,13.1967],[-8.5555,13.2177],[-8.5264,13.2596],[-8.4943,13.3658],[-8.4865,13.377],[-8.4618,13.3902],[-8.4515,13.4042],[-8.4488,13.4235],[-8.4566,13.463],[-8.4966,13.5083],[-8.5153,13.5456],[-8.5406,13.5687],[-8.5549,13.6834],[-8.5514,13.7036],[-8.5142,13.7443],[-8.4897,13.7881],[-8.4576,13.8231],[-8.4512,13.8757],[-8.4648,13.9227],[-8.4847,13.943],[-8.5119,13.9523],[-8.5661,13.9457],[-8.5927,13.8793],[-8.5938,13.8662],[-8.5797,13.8631],[-8.5926,13.8395],[-8.618,13.837],[-8.7039,13.8504],[-8.723,13.8657],[-8.7513,13.9166],[-8.7687,13.905],[-8.7874,13.932],[-8.8151,13.9422],[-8.8466,13.9687],[-8.8552,13.9892],[-8.8406,14.0039],[-8.8184,14.0576],[-8.8237,14.0926],[-8.8187,14.1062],[-8.797,14.1139],[-8.7647,14.109],[-8.7579,14.1374],[-8.764,14.1808],[-8.8094,14.2882],[-8.7221,14.2879],[-8.65,14.314],[-8.6171,14.36],[-8.594,14.408],[-8.571,14.4129],[-8.55,14.402],[-8.529,14.3799],[-8.499,14.3259],[-8.472,14.3009],[-8.443,14.2979],[-8.3261,14.3159],[-8.272,14.3049],[-8.162,14.32],[-8.1321,14.34],[-8.16,14.434],[-8.1501,14.488],[-8.164,14.5029],[-8.237,14.5199],[-8.3001,14.5809],[-8.463,14.6979],[-8.485,14.733],[-8.4751,14.8759],[-8.492,14.942],[-8.507,14.963],[-8.571,14.9759],[-8.677,14.982],[-8.741,15.026],[-8.788,15.143],[-8.796,15.2209],[-8.8041,15.245],[-8.849,15.2929],[-8.99,15.368],[-9.122,15.4739],[-9.1414,15.4956],[-6.3201,15.4945],[-6.336,15.376],[-6.405,15.168],[-6.435,15.116],[-6.528,14.9979],[-6.545,14.9439],[-6.4851,14.8459],[-6.436,14.781],[-6.381,14.602],[-6.382,14.536],[-6.429,14.465],[-6.4591,14.4459],[-6.582,14.4799],[-6.617,14.4699],[-6.637,14.422],[-6.715,14.323],[-6.751,14.2649],[-6.9001,13.998],[-6.914,13.816],[-6.9001,13.749],[-6.783,13.6239],[-6.775,13.525],[-6.764,13.4949],[-6.728,13.47],[-6.717,13.4519],[-6.7431,13.383],[-6.774,13.366],[-6.867,13.36],[-6.9261,13.342],[-6.971,13.3009],[-6.9891,13.2439],[-7.022,13.1819],[-7.021,13.1459],[-7.033,13.087],[-7.069,13.0509],[-7.081,13.016],[-7.019,12.9449],[-6.957,12.929],[-6.908,12.9279],[-6.886,12.9079],[-6.883,12.8509],[-6.894,12.788],[-6.881,12.765],[-6.851,12.7639],[-6.809,12.7829],[-6.625,12.8089],[-6.512,12.7659],[-6.487,12.6929],[-6.469,12.681],[-6.423,12.697],[-6.39,12.6999],[-6.3541,12.5919],[-6.261,12.5549],[-6.2271,12.502],[-6.225,12.463],[-6.211,12.4279],[-6.211,12.4009],[-6.175,12.4069],[-6.122,12.3669],[-6.1031,12.324],[-6.07,12.308],[-5.98,12.3129],[-5.951,12.2999],[-5.945,12.2119],[-5.982,12.1219],[-6.0181,12.1249],[-6.087,12.1049],[-6.117,12.107],[-6.145,12.093],[-6.141,12.0229],[-6.1531,12.013],[-6.201,12.0579],[-6.252,12.0769],[-6.3021,12.073],[-6.347,12.0269],[-6.334,11.905],[-6.396,11.845],[-6.446,11.7019],[-6.469,11.653],[-6.498,11.6499],[-6.543,11.6699],[-6.536,11.7279],[-6.553,11.746],[-6.64,11.7479],[-6.7691,11.807],[-6.841,11.8249],[-6.871,11.862],[-6.897,11.871],[-6.947,11.862],[-6.949,11.955],[-6.968,11.978],[-7.015,11.9659],[-7.044,11.979],[-7.079,12.012],[-7.08,12.067],[-7.0481,12.1379],[-7.05,12.173],[-7.0871,12.295],[-7.104,12.4039],[-7.1161,12.4329],[-7.171,12.4129],[-7.212,12.348],[-7.289,12.3059],[-7.303,12.254],[-7.319,12.227],[-7.48,12.1479],[-7.544,12.0059],[-7.576,11.9809],[-7.748,11.905],[-7.862,11.8429],[-7.937,11.787],[-7.963,11.7779],[-8.035,11.7069],[-8.071,11.686],[-8.155,11.7069],[-8.206,11.7049],[-8.3331,11.6569],[-8.397,11.659],[-8.4311,11.642],[-8.488,11.5159],[-8.5394,11.4563],[-8.5496,11.4901],[-8.5752,11.4703],[-8.6022,11.4721],[-8.6568,11.4964],[-8.6873,11.55],[-8.7129,11.6401],[-8.7265,11.6495],[-8.7772,11.6359],[-8.8285,11.6592],[-8.8472,11.6579],[-8.7978,11.9251],[-8.8149,11.9554],[-8.8198,12.0127],[-8.838,12.0282],[-8.9037,12.0304],[-8.9221,12.0454],[-8.9263,12.0643],[-8.907,12.1254],[-8.906,12.1477],[-8.9139,12.1699],[-8.942,12.1958],[-8.9738,12.1876]],[[-7.9781,12.5429],[-7.9445,12.5532],[-7.9327,12.5751],[-7.9386,12.6616],[-7.9532,12.685],[-7.9752,12.6982],[-8.0016,12.704],[-8.0279,12.7011],[-8.0512,12.6908],[-8.0646,12.6704],[-8.069,12.6425],[-8.0646,12.6044],[-8.0543,12.5795],[-8.0294,12.5576],[-7.9781,12.5429]]]}},{"type":"Feature","properties":{"code":"GN-R01","nom":"Dabola","pays":"GIN","pays_nom":"Guinée"},"geometry":{"type":"Polygon","coordinates":[[[-11.4492,9.995],[-11.5875,9.9943],[-11.6064,10.0685],[-11.5938,10.157],[-11.5716,10.1886],[-11.5653,10.2424],[-11.5527,10.7354],[-11.5533,10.7957],[-11.595,10.8192],[-11.5892,10.8989],[-11.6029,10.9653],[-11.4895,11.0642],[-11.4231,11.0642],[-11.4161,11.0291],[-11.1938,11.0261],[-11.1397,10.966],[-11.0826,10.945],[-11.0255,10.96],[-10.8332,11.0892],[-10.7031,11.1126],[-10.6944,11.0997],[-10.6962,11.0915],[-10.7183,11.0455],[-10.793,10.9834],[-10.823,10.9089],[-10.8906,10.8714],[-10.8963,10.8441],[-10.8857,10.8256],[-10.8643,10.808],[-10.6925,10.7532],[-10.6729,10.7336],[-10.6435,10.7177],[-10.623,10.6852],[-10.5981,10.6621],[-10.6229,10.6475],[-10.653,10.6115],[-10.7281,10.6025],[-10.8092,10.6085],[-10.8453,10.6445],[-10.8813,10.6565],[-11.0195,10.6085],[-11.1607,10.4733],[-11.2478,10.4643],[-11.3019,10.4192],[-11.377,10.3952],[-11.3921,10.1668],[-11.4221,10.0617],[-11.4492,9.995]]]}},{"type":"Feature","properties":{"code":"GN-R02","nom":"Dalaba","pays":"GIN","pays_nom":"Guinée"},"geometry":{"type":"Polygon","coordinates":[[[-12.0055,11.2866],[-11.9964,11.2473],[-11.9774,11.2158],[-11.9284,11.1906],[-11.9048,11.1586],[-11.9089,11.068],[-11.8968,11.0176],[-11.8881,11.0061],[-11.867,10.9995],[-11.8131,11.0025],[-11.7856,10.969],[-11.7796,10.8969],[-11.8217,10.8038],[-11.8607,10.7857],[-11.9479,10.7797],[-12.029,10.7617],[-12.1011,10.7076],[-12.1732,10.6355],[-12.1972,10.5934],[-12.2754,10.5814],[-12.3114,10.5634],[-12.3595,10.5243],[-12.4151,10.4912],[-12.428,10.4969],[-12.4356,10.5251],[-12.4425,10.5311],[-12.4783,10.543],[-12.4958,10.5579],[-12.4909,10.589],[-12.4929,10.6147],[-12.5001,10.619],[-12.5243,10.6093],[-12.5714,10.5634],[-12.6495,10.5287],[-12.6449,10.6746],[-12.6179,10.7317],[-12.4947,10.8248],[-12.4406,10.8368],[-12.4015,10.8999],[-12.3835,10.954],[-12.3384,10.987],[-12.2573,11.0291],[-12.1341,11.0321],[-12.1462,11.0742],[-12.1732,11.0952],[-12.1822,11.1342],[-12.1582,11.1703],[-12.1552,11.2184],[-12.1341,11.2484],[-12.1218,11.293],[-12.0928,11.306],[-12.0693,11.291],[-12.0055,11.2866]]]}},{"type":"Feature","properties":{"code":"GN-R03","nom":"Dinguiraye","pays":"GIN","pays_nom":"Guinée"},"geometry":{"type":"Polygon","coordinates":[[[-10.9521,12.2195],[-10.9277,12.213],[-10.9098,12.2001],[-10.8696,12.1384],[-10.8049,12.096],[-10.7985,12.0681],[-10.811,12.0415],[-10.8078,12.0228],[-10.781,11.9962],[-10.7403,11.9199],[-10.7114,11.8904],[-10.67,11.892],[-10.6551,11.899],[-10.6342,11.9254],[-10.6138,11.9677],[-10.5595,11.9952],[-10.5665,12.0173],[-10.5151,12.0529],[-10.5173,12.0803],[-10.5044,12.0884],[-10.5116,12.1181],[-10.4935,12.1244],[-10.4457,12.1207],[-10.4289,12.1434],[-10.3814,12.1801],[-10.3534,12.1665],[-10.3541,12.1809],[-10.3299,12.1904],[-10.3236,12.202],[-10.311,12.191],[-10.305,12.2029],[-10.2669,12.2178],[-10.2478,12.2011],[-10.2149,12.1946],[-10.1798,12.1782],[-10.1287,12.1745],[-10.0973,12.1537],[-10.0602,12.1475],[-10.0277,12.1257],[-9.9616,12.096],[-9.9232,12.0876],[-9.8888,12.0606],[-9.9547,12.0185],[-9.9939,11.9651],[-10.0829,11.8974],[-10.1833,11.8448],[-10.2077,11.8149],[-10.1505,11.7265],[-10.0651,11.641],[-10.0259,11.5449],[-10.0295,11.3775],[-10.1399,11.374],[-10.2431,11.4523],[-10.3215,11.4665],[-10.3856,11.4416],[-10.3998,11.3989],[-10.3434,11.2695],[-10.3428,11.2066],[-10.3749,11.1781],[-10.5494,11.1745],[-10.5814,11.1817],[-10.5976,11.2086],[-10.6491,11.2351],[-10.6954,11.2279],[-10.7025,11.1852],[-10.7031,11.1126],[-10.8332,11.0892],[-11.0255,10.96],[-11.0826,10.945],[-11.1397,10.966],[-11.1938,11.0261],[-11.4161,11.0291],[-11.4231,11.0642],[-11.2492,11.1843],[-11.2492,11.2285],[-11.2714,11.2823],[-11.3062,11.3262],[-11.2507,11.4002],[-11.1958,11.4246],[-11.1725,11.4469],[-11.1459,11.4604],[-11.1324,11.483],[-11.1956,11.518],[-11.2182,11.5444],[-11.2158,11.5619],[-11.1391,11.6576],[-11.1309,11.7653],[-11.1193,11.7875],[-11.1193,11.8911],[-11.1659,11.9351],[-11.1815,11.9713],[-11.1846,12.0211],[-11.1656,12.0486],[-11.1594,12.0775],[-11.1363,12.0851],[-11.1166,12.1137],[-11.0728,12.1495],[-11.0523,12.2025],[-11.0155,12.2044],[-10.9521,12.2195]]]}},{"type":"Feature","properties":{"code":"GN-R04","nom":"Koubia","pays":"GIN","pays_nom":"Guinée"},"geometry":{"type":"Polygon","coordinates":[[[-11.4708,12.1346],[-11.4096,12.1079],[-11.3917,12.0937],[-11.3513,12.0404],[-11.344,11.7051],[-11.353,11.666],[-11.4461,11.648],[-11.5243,11.624],[-11.5513,11.5639],[-11.6234,11.5098],[-11.8007,11.4347],[-11.9449,11.3536],[-11.9959,11.3205],[-12.0055,11.2866],[-12.0555,11.291],[-12.0681,11.3626],[-12.1041,11.3986],[-12.2994,11.678],[-12.3175,11.7278],[-12.2002,11.7291],[-12.1702,11.7111],[-12.1101,11.6901],[-12.0771,11.663],[-12.026,11.654],[-11.9565,11.6529],[-11.9306,11.6732],[-11.8923,11.6739],[-11.8819,11.6839],[-11.8067,11.7141],[-11.7406,11.7261],[-11.6264,11.7291],[-11.5904,11.8463],[-11.5453,11.8883],[-11.5182,11.9635],[-11.4732,12.0566],[-11.4708,12.1346]]]}},{"type":"Feature","properties":{"code":"GN-R05","nom":"Mali","pays":"GIN","pays_nom":"Guinée"},"geometry":{"type":"Polygon","coordinates":[[[-11.5154,12.4316],[-11.4816,12.4282],[-11.416,12.405],[-11.3884,12.4039],[-11.3886,12.3845],[-11.4317,12.383],[-11.4472,12.3745],[-11.4515,12.3521],[-11.4446,12.2895],[-11.4632,12.25],[-11.4917,12.2209],[-11.5078,12.1916],[-11.4896,12.1512],[-11.4708,12.1346],[-11.4732,12.0566],[-11.5182,11.9635],[-11.5453,11.8883],[-11.5904,11.8463],[-11.6264,11.7291],[-11.7406,11.7261],[-11.8067,11.7141],[-11.8819,11.6839],[-11.8923,11.6739],[-11.9306,11.6732],[-11.9565,11.6529],[-12.026,11.654],[-12.0771,11.663],[-12.1101,11.6901],[-12.1702,11.7111],[-12.2002,11.7291],[-12.8087,11.7222],[-12.8151,11.7884],[-12.8062,11.8354],[-12.7807,11.8855],[-12.7817,11.8998],[-12.8018,11.9277],[-12.8147,11.9248],[-12.839,11.8979],[-12.8586,11.9037],[-12.8627,11.9154],[-12.8238,11.992],[-12.8074,12.0997],[-12.814,12.1307],[-12.8277,12.1542],[-12.8255,12.1642],[-12.7989,12.2397],[-12.7764,12.2568],[-12.7136,12.279],[-12.5781,12.3615],[-12.5051,12.3903],[-12.4234,12.3691],[-12.4055,12.3565],[-12.3771,12.3137],[-12.3609,12.3056],[-12.192,12.3488],[-12.104,12.4074],[-12.0792,12.4081],[-11.9976,12.3864],[-11.9239,12.4188],[-11.8396,12.3867],[-11.7578,12.3833],[-11.72,12.3895],[-11.6431,12.4176],[-11.5154,12.4316]]]}},{"type":"Feature","properties":{"code":"GN-R06","nom":"Mamou","pays":"GIN","pays_nom":"Guinée"},"geometry":{"type":"Polygon","coordinates":[[[-11.5875,9.9943],[-11.9101,9.9925],[-11.915,9.9315],[-11.9218,9.9222],[-12.1098,9.8817],[-12.1318,9.9239],[-12.1436,9.9626],[-12.124,10.0257],[-12.1255,10.0998],[-12.1863,10.1769],[-12.2364,10.2686],[-12.3269,10.2773],[-12.3857,10.264],[-12.403,10.2678],[-12.4097,10.277],[-12.426,10.3543],[-12.407,10.4051],[-12.4047,10.4398],[-12.3828,10.4654],[-12.4151,10.4912],[-12.3595,10.5243],[-12.3114,10.5634],[-12.2754,10.5814],[-12.1972,10.5934],[-12.1732,10.6355],[-12.1011,10.7076],[-12.029,10.7617],[-11.9479,10.7797],[-11.8607,10.7857],[-11.8217,10.8038],[-11.7796,10.8969],[-11.7856,10.969],[-11.8131,11.0025],[-11.7852,11.0145],[-11.6636,11.0308],[-11.6186,11.0703],[-11.5663,11.1339],[-11.4924,11.1777],[-11.4842,11.2252],[-11.4727,11.2451],[-11.437,11.2555],[-11.4211,11.275],[-11.4097,11.2692],[-11.3968,11.2787],[-11.355,11.2692],[-11.3271,11.3104],[-11.3062,11.3262],[-11.2714,11.2823],[-11.2492,11.2285],[-11.2492,11.1843],[-11.4231,11.0642],[-11.4895,11.0642],[-11.6029,10.9653],[-11.5892,10.8989],[-11.595,10.8192],[-11.5533,10.7957],[-11.5653,10.2424],[-11.5716,10.1886],[-11.5938,10.157],[-11.6064,10.0685],[-11.5875,9.9943]]]}},{"type":"Feature","properties":{"code":"GN-R07","nom":"Siguiri","pays":"GIN","pays_nom":"Guinée"},"geometry":{"type":"Polygon","coordinates":[[[-9.3273,12.4975],[-9.2941,12.4838],[-9.2789,12.4944],[-9.2659,12.4952],[-9.1473,12.4655],[-8.9938,12.3875],[-8.9759,12.3687],[-8.9647,12.3463],[-8.9631,12.3242],[-8.9959,12.261],[-8.9943,12.2248],[-8.9738,12.1876],[-8.942,12.1958],[-8.9139,12.1699],[-8.906,12.1477],[-8.907,12.1254],[-8.9263,12.0643],[-8.9221,12.0454],[-8.9037,12.0304],[-8.838,12.0282],[-8.8198,12.0127],[-8.8149,11.9554],[-8.7978,11.9251],[-8.8472,11.6579],[-8.8285,11.6592],[-8.7772,11.6359],[-8.7265,11.6495],[-8.7468,11.6229],[-8.7672,11.6101],[-8.7872,11.5579],[-8.8113,11.5267],[-8.8533,11.4287],[-8.8744,11.3385],[-8.8864,11.2304],[-8.9224,11.1312],[-8.9765,11.0802],[-9.0697,11.0171],[-9.2379,10.954],[-9.313,10.8999],[-9.3431,10.8668],[-9.6375,10.8638],[-9.6886,10.8729],[-9.7697,10.987],[-9.8087,11.0081],[-9.8328,11.0381],[-9.8418,11.1613],[-9.8598,11.2634],[-9.8748,11.3025],[-9.9259,11.3295],[-9.959,11.3656],[-10.0295,11.3775],[-10.0259,11.5449],[-10.0651,11.641],[-10.1505,11.7265],[-10.2077,11.8149],[-10.1833,11.8448],[-10.0829,11.8974],[-9.9939,11.9651],[-9.9547,12.0185],[-9.8888,12.0606],[-9.8707,12.0521],[-9.8337,12.0551],[-9.7786,12.0267],[-9.723,12.0254],[-9.6863,12.0682],[-9.6823,12.1185],[-9.6751,12.134],[-9.6282,12.1702],[-9.5156,12.2071],[-9.4796,12.2358],[-9.4389,12.2548],[-9.4215,12.2571],[-9.3602,12.2466],[-9.3368,12.2698],[-9.3319,12.2828],[-9.335,12.3065],[-9.3218,12.3102],[-9.3129,12.3261],[-9.3092,12.3577],[-9.3392,12.3706],[-9.3472,12.3965],[-9.3747,12.4111],[-9.4126,12.4554],[-9.3982,12.4732],[-9.3509,12.4846],[-9.3273,12.4975]]]}},{"type":"Feature","properties":{"code":"GN-R08","nom":"Tougué","pays":"GIN","pays_nom":"Guinée"},"geometry":{"type":"Polygon","coordinates":[[[-11.3513,12.0404],[-11.3151,12.0133],[-11.275,11.9963],[-11.2555,11.9962],[-11.1912,12.0144],[-11.1846,12.0211],[-11.1815,11.9713],[-11.1659,11.9351],[-11.1193,11.8911],[-11.1193,11.7875],[-11.1309,11.7653],[-11.1391,11.6576],[-11.2158,11.5619],[-11.2182,11.5515],[-11.2168,11.5385],[-11.2034,11.5238],[-11.1373,11.4902],[-11.1324,11.483],[-11.1392,11.4674],[-11.1958,11.4246],[-11.2507,11.4002],[-11.355,11.2692],[-11.3968,11.2787],[-11.4097,11.2692],[-11.4211,11.275],[-11.437,11.2555],[-11.4727,11.2451],[-11.4842,11.2252],[-11.4924,11.1777],[-11.5663,11.1339],[-11.6186,11.0703],[-11.6636,11.0308],[-11.7852,11.0145],[-11.8238,11.0006],[-11.867,10.9995],[-11.8881,11.0061],[-11.9037,11.0342],[-11.9089,11.068],[-11.9048,11.1586],[-11.9284,11.1906],[-11.9774,11.2158],[-11.9867,11.2279],[-12.0055,11.2866],[-11.9959,11.3205],[-11.8007,11.4347],[-11.6234,11.5098],[-11.5513,11.5639],[-11.5243,11.624],[-11.4461,11.648],[-11.353,11.666],[-11.344,11.7051],[-11.3513,12.0404]]]}}]}