{"type":"FeatureCollection","features":[{"type":"Feature","properties":{"nom":"Fatick","iso":"SEN","pop":24243},"geometry":{"type":"Point","coordinates":[-16.416,14.344]}},{"type":"Feature","properties":{"nom":"Mali","iso":"GIN","pop":5479},"geometry":{"type":"Point","coordinates":[-12.301,12.084]}},{"type":"Feature","properties":{"nom":"Tongue","iso":"GIN","pop":25531},"geometry":{"type":"Point","coordinates":[-11.67,11.44]}},{"type":"Feature","properties":{"nom":"Kouroussa","iso":"GIN","pop":14223},"geometry":{"type":"Point","coordinates":[-9.892,10.653]}},{"type":"Feature","properties":{"nom":"Pita","iso":"GIN","pop":20052},"geometry":{"type":"Point","coordinates":[-12.401,11.08]}},{"type":"Feature","properties":{"nom":"Dalaba","iso":"GIN","pop":6349},"geometry":{"type":"Point","coordinates":[-12.272,10.656]}},{"type":"Feature","properties":{"nom":"Boffa","iso":"GIN","pop":2332},"geometry":{"type":"Point","coordinates":[-14.043,10.185]}},{"type":"Feature","properties":{"nom":"Koundara","iso":"GIN","pop":13990},"geometry":{"type":"Point","coordinates":[-13.296,12.48]}},{"type":"Feature","properties":{"nom":"Gaoual","iso":"GIN","pop":7461},"geometry":{"type":"Point","coordinates":[-13.213,11.754]}},{"type":"Feature","properties":{"nom":"Télimélé","iso":"GIN","pop":30311},"geometry":{"type":"Point","coordinates":[-13.043,10.905]}},{"type":"Feature","properties":{"nom":"Dinguiraye","iso":"GIN","pop":6062},"geometry":{"type":"Point","coordinates":[-10.726,11.299]}},{"type":"Feature","properties":{"nom":"Dabola","iso":"GIN","pop":13057},"geometry":{"type":"Point","coordinates":[-11.109,10.748]}},{"type":"Feature","properties":{"nom":"Aleg","iso":"MRT","pop":8388},"geometry":{"type":"Point","coordinates":[-13.909,17.058]}},{"type":"Feature","properties":{"nom":"Diourbel","iso":"SEN","pop":148024},"geometry":{"type":"Point","coordinates":[-16.24,14.6604]}},{"type":"Feature","properties":{"nom":"Louga","iso":"SEN","pop":85075},"geometry":{"type":"Point","coordinates":[-16.25,15.6104]}},{"type":"Feature","properties":{"nom":"Thiès","iso":"SEN","pop":293001},"geometry":{"type":"Point","coordinates":[-16.93,14.8104]}},{"type":"Feature","properties":{"nom":"Kolda","iso":"SEN","pop":69267},"geometry":{"type":"Point","coordinates":[-14.95,12.9104]}},{"type":"Feature","properties":{"nom":"Tambacounda","iso":"SEN","pop":89212},"geometry":{"type":"Point","coordinates":[-13.68,13.7804]}},{"type":"Feature","properties":{"nom":"Kédougou","iso":"SEN","pop":18226},"geometry":{"type":"Point","coordinates":[-12.18,12.5604]}},{"type":"Feature","properties":{"nom":"Magta Lajar","iso":"MRT","pop":10},"geometry":{"type":"Point","coordinates":[-13.5,17.0004]}},{"type":"Feature","properties":{"nom":"Bogue","iso":"MRT","pop":10415},"geometry":{"type":"Point","coordinates":[-14.27,16.5904]}},{"type":"Feature","properties":{"nom":"Boutilimit","iso":"MRT","pop":14142},"geometry":{"type":"Point","coordinates":[-14.7,17.5504]}},{"type":"Feature","properties":{"nom":"Sélibaby","iso":"MRT","pop":460},"geometry":{"type":"Point","coordinates":[-12.1833,15.167]}},{"type":"Feature","properties":{"nom":"Kati","iso":"MLI","pop":66895},"geometry":{"type":"Point","coordinates":[-8.08,12.7504]}},{"type":"Feature","properties":{"nom":"Banamba","iso":"MLI","pop":30591},"geometry":{"type":"Point","coordinates":[-7.45,13.5504]}},{"type":"Feature","properties":{"nom":"Kangaba","iso":"MLI","pop":17232},"geometry":{"type":"Point","coordinates":[-8.44,11.9404]}},{"type":"Feature","properties":{"nom":"Nioro du Sahel","iso":"MLI","pop":14421},"geometry":{"type":"Point","coordinates":[-9.59,15.2304]}},{"type":"Feature","properties":{"nom":"Bafoulabé","iso":"MLI","pop":26823},"geometry":{"type":"Point","coordinates":[-10.82,13.8004]}},{"type":"Feature","properties":{"nom":"Satadougou","iso":"MLI","pop":706},"geometry":{"type":"Point","coordinates":[-11.4066,12.617]}},{"type":"Feature","properties":{"nom":"Yélimané","iso":"MLI","pop":988},"geometry":{"type":"Point","coordinates":[-10.5666,15.1337]}},{"type":"Feature","properties":{"nom":"Kita","iso":"MLI","pop":46435},"geometry":{"type":"Point","coordinates":[-9.4833,13.0504]}},{"type":"Feature","properties":{"nom":"Koutiala","iso":"MLI","pop":104927},"geometry":{"type":"Point","coordinates":[-5.47,12.3904]}},{"type":"Feature","properties":{"nom":"Sikasso","iso":"MLI","pop":225753},"geometry":{"type":"Point","coordinates":[-5.68,11.3204]}},{"type":"Feature","properties":{"nom":"Bougouni","iso":"MLI","pop":35450},"geometry":{"type":"Point","coordinates":[-7.49,11.4204]}},{"type":"Feature","properties":{"nom":"Timbedra","iso":"MRT","pop":245},"geometry":{"type":"Point","coordinates":[-8.1666,16.2504]}},{"type":"Feature","properties":{"nom":"Nema","iso":"MRT","pop":200000},"geometry":{"type":"Point","coordinates":[-7.25,16.6171]}},{"type":"Feature","properties":{"nom":"Markala","iso":"MLI","pop":53738},"geometry":{"type":"Point","coordinates":[-6.07,13.6704]}},{"type":"Feature","properties":{"nom":"Sokolo","iso":"MLI","pop":4374},"geometry":{"type":"Point","coordinates":[-6.1333,14.7337]}},{"type":"Feature","properties":{"nom":"San","iso":"MLI","pop":41386},"geometry":{"type":"Point","coordinates":[-4.9,13.3004]}},{"type":"Feature","properties":{"nom":"Siguiri","iso":"GIN","pop":50159},"geometry":{"type":"Point","coordinates":[-9.1666,11.4171]}},{"type":"Feature","properties":{"nom":"Mamou","iso":"GIN","pop":71153},"geometry":{"type":"Point","coordinates":[-12.1,10.3804]}},{"type":"Feature","properties":{"nom":"Kamsar","iso":"GIN","pop":34973},"geometry":{"type":"Point","coordinates":[-14.605,10.6854]}},{"type":"Feature","properties":{"nom":"Fria","iso":"GIN","pop":23729},"geometry":{"type":"Point","coordinates":[-13.55,10.3804]}},{"type":"Feature","properties":{"nom":"Faranah","iso":"GIN","pop":19469},"geometry":{"type":"Point","coordinates":[-10.75,10.0404]}},{"type":"Feature","properties":{"nom":"Ziguinchor","iso":"SEN","pop":191716},"geometry":{"type":"Point","coordinates":[-16.29,12.59]}},{"type":"Feature","properties":{"nom":"Saint-Louis","iso":"MRT","pop":220792},"geometry":{"type":"Point","coordinates":[-16.51,16.02]}},{"type":"Feature","properties":{"nom":"Tidjikdja","iso":"MRT","pop":19981},"geometry":{"type":"Point","coordinates":[-11.4166,18.55]}},{"type":"Feature","properties":{"nom":"Rosso","iso":"MRT","pop":47203},"geometry":{"type":"Point","coordinates":[-15.8127,16.524]}},{"type":"Feature","properties":{"nom":"Kiffa","iso":"MRT","pop":73930},"geometry":{"type":"Point","coordinates":[-11.4,16.62]}},{"type":"Feature","properties":{"nom":"Nara","iso":"MLI","pop":18459},"geometry":{"type":"Point","coordinates":[-7.28,15.18]}},{"type":"Feature","properties":{"nom":"Koulikoro","iso":"MLI","pop":23919},"geometry":{"type":"Point","coordinates":[-7.55,12.8833]}},{"type":"Feature","properties":{"nom":"Labé","iso":"GIN","pop":140575},"geometry":{"type":"Point","coordinates":[-12.3,11.32]}},{"type":"Feature","properties":{"nom":"Boké","iso":"GIN","pop":116270},"geometry":{"type":"Point","coordinates":[-14.3,10.94]}},{"type":"Feature","properties":{"nom":"Kindia","iso":"GIN","pop":117062},"geometry":{"type":"Point","coordinates":[-12.87,10.06]}},{"type":"Feature","properties":{"nom":"Kaolack","iso":"SEN","pop":277812},"geometry":{"type":"Point","coordinates":[-16.1,14.15]}},{"type":"Feature","properties":{"nom":"Kaédi","iso":"SEN","pop":21656},"geometry":{"type":"Point","coordinates":[-13.5,16.15]}},{"type":"Feature","properties":{"nom":"Kayes","iso":"MLI","pop":77207},"geometry":{"type":"Point","coordinates":[-11.44,14.45]}},{"type":"Feature","properties":{"nom":"Ayoun el Atrous","iso":"MRT","pop":1423},"geometry":{"type":"Point","coordinates":[-9.6167,16.6666]}},{"type":"Feature","properties":{"nom":"Ségou","iso":"MLI","pop":122952},"geometry":{"type":"Point","coordinates":[-6.26,13.44]}},{"type":"Feature","properties":{"nom":"Kankan","iso":"GIN","pop":114009},"geometry":{"type":"Point","coordinates":[-9.31,10.39]}},{"type":"Feature","properties":{"nom":"Nouakchott","iso":"MRT","pop":742144},"geometry":{"type":"Point","coordinates":[-15.9753,18.0864]}},{"type":"Feature","properties":{"nom":"Bamako","iso":"MLI","pop":1494000},"geometry":{"type":"Point","coordinates":[-8.002,12.652]}},{"type":"Feature","properties":{"nom":"Djenné","iso":"MLI","pop":32944},"geometry":{"type":"Point","coordinates":[-4.55,13.9]}},{"type":"Feature","properties":{"nom":"Dakar","iso":"SEN","pop":2604000},"geometry":{"type":"Point","coordinates":[-17.4751,14.7178]}}]}